<?xml version="1.0" encoding="utf-8"?>
<gpx xmlns="http://www.topografix.com/GPX/1/1" version="1.1" creator="https://mapy.cz/">
	<trk>
		<name>7 SCARI - PIATRA MARE - TAMINA</name>
		<trkseg>
			<trkpt lat="45.591074" lon="25.637523">
				<ele>706.000000</ele>
			</trkpt>
			<trkpt lat="45.590860" lon="25.637487">
				<ele>707.000000</ele>
			</trkpt>
			<trkpt lat="45.590779" lon="25.637478">
				<ele>707.000000</ele>
			</trkpt>
			<trkpt lat="45.590754" lon="25.637468">
				<ele>707.000000</ele>
			</trkpt>
			<trkpt lat="45.590691" lon="25.637460">
				<ele>707.000000</ele>
			</trkpt>
			<trkpt lat="45.590647" lon="25.637434">
				<ele>707.000000</ele>
			</trkpt>
			<trkpt lat="45.590490" lon="25.637460">
				<ele>708.000000</ele>
			</trkpt>
			<trkpt lat="45.590232" lon="25.637451">
				<ele>710.000000</ele>
			</trkpt>
			<trkpt lat="45.589981" lon="25.637415">
				<ele>711.000000</ele>
			</trkpt>
			<trkpt lat="45.589786" lon="25.637370">
				<ele>713.000000</ele>
			</trkpt>
			<trkpt lat="45.589616" lon="25.637388">
				<ele>714.000000</ele>
			</trkpt>
			<trkpt lat="45.589301" lon="25.637388">
				<ele>716.000000</ele>
			</trkpt>
			<trkpt lat="45.589132" lon="25.637344">
				<ele>717.000000</ele>
			</trkpt>
			<trkpt lat="45.588987" lon="25.637325">
				<ele>718.000000</ele>
			</trkpt>
			<trkpt lat="45.588692" lon="25.637208">
				<ele>721.000000</ele>
			</trkpt>
			<trkpt lat="45.588396" lon="25.637047">
				<ele>723.000000</ele>
			</trkpt>
			<trkpt lat="45.588214" lon="25.636931">
				<ele>724.000000</ele>
			</trkpt>
			<trkpt lat="45.588063" lon="25.636805">
				<ele>724.000000</ele>
			</trkpt>
			<trkpt lat="45.587944" lon="25.636724">
				<ele>726.000000</ele>
			</trkpt>
			<trkpt lat="45.587849" lon="25.636642">
				<ele>729.000000</ele>
			</trkpt>
			<trkpt lat="45.587724" lon="25.636606">
				<ele>732.000000</ele>
			</trkpt>
			<trkpt lat="45.587585" lon="25.636571">
				<ele>733.000000</ele>
			</trkpt>
			<trkpt lat="45.587435" lon="25.636489">
				<ele>734.000000</ele>
			</trkpt>
			<trkpt lat="45.587252" lon="25.636426">
				<ele>735.000000</ele>
			</trkpt>
			<trkpt lat="45.587120" lon="25.636355">
				<ele>736.000000</ele>
			</trkpt>
			<trkpt lat="45.587026" lon="25.636292">
				<ele>737.000000</ele>
			</trkpt>
			<trkpt lat="45.586712" lon="25.636013">
				<ele>739.000000</ele>
			</trkpt>
			<trkpt lat="45.586504" lon="25.635860">
				<ele>740.000000</ele>
			</trkpt>
			<trkpt lat="45.586385" lon="25.635789">
				<ele>741.000000</ele>
			</trkpt>
			<trkpt lat="45.586252" lon="25.635744">
				<ele>740.000000</ele>
			</trkpt>
			<trkpt lat="45.586064" lon="25.635682">
				<ele>741.000000</ele>
			</trkpt>
			<trkpt lat="45.585906" lon="25.635646">
				<ele>742.000000</ele>
			</trkpt>
			<trkpt lat="45.585743" lon="25.635592">
				<ele>744.000000</ele>
			</trkpt>
			<trkpt lat="45.585542" lon="25.635592">
				<ele>747.000000</ele>
			</trkpt>
			<trkpt lat="45.585454" lon="25.635583">
				<ele>748.000000</ele>
			</trkpt>
			<trkpt lat="45.585259" lon="25.635600">
				<ele>749.000000</ele>
			</trkpt>
			<trkpt lat="45.585133" lon="25.635663">
				<ele>751.000000</ele>
			</trkpt>
			<trkpt lat="45.584857" lon="25.635736">
				<ele>758.000000</ele>
			</trkpt>
			<trkpt lat="45.584517" lon="25.635772">
				<ele>765.000000</ele>
			</trkpt>
			<trkpt lat="45.584266" lon="25.635799">
				<ele>767.000000</ele>
			</trkpt>
			<trkpt lat="45.583933" lon="25.635744">
				<ele>770.000000</ele>
			</trkpt>
			<trkpt lat="45.583694" lon="25.635592">
				<ele>777.000000</ele>
			</trkpt>
			<trkpt lat="45.583480" lon="25.635394">
				<ele>779.000000</ele>
			</trkpt>
			<trkpt lat="45.583329" lon="25.635187">
				<ele>783.000000</ele>
			</trkpt>
			<trkpt lat="45.582977" lon="25.634998">
				<ele>786.000000</ele>
			</trkpt>
			<trkpt lat="45.582531" lon="25.634774">
				<ele>790.000000</ele>
			</trkpt>
			<trkpt lat="45.582198" lon="25.634631">
				<ele>791.000000</ele>
			</trkpt>
			<trkpt lat="45.581915" lon="25.634594">
				<ele>793.000000</ele>
			</trkpt>
			<trkpt lat="45.581688" lon="25.634594">
				<ele>794.000000</ele>
			</trkpt>
			<trkpt lat="45.581525" lon="25.634550">
				<ele>796.000000</ele>
			</trkpt>
			<trkpt lat="45.581437" lon="25.634361">
				<ele>795.000000</ele>
			</trkpt>
			<trkpt lat="45.581091" lon="25.633535">
				<ele>802.000000</ele>
			</trkpt>
			<trkpt lat="45.580946" lon="25.633256">
				<ele>803.000000</ele>
			</trkpt>
			<trkpt lat="45.580764" lon="25.633059">
				<ele>802.000000</ele>
			</trkpt>
			<trkpt lat="45.580688" lon="25.632977">
				<ele>803.000000</ele>
			</trkpt>
			<trkpt lat="45.580468" lon="25.632942">
				<ele>805.000000</ele>
			</trkpt>
			<trkpt lat="45.580305" lon="25.633013">
				<ele>806.000000</ele>
			</trkpt>
			<trkpt lat="45.580185" lon="25.633086">
				<ele>808.000000</ele>
			</trkpt>
			<trkpt lat="45.579896" lon="25.633273">
				<ele>810.000000</ele>
			</trkpt>
			<trkpt lat="45.579645" lon="25.633705">
				<ele>814.000000</ele>
			</trkpt>
			<trkpt lat="45.579595" lon="25.633965">
				<ele>817.000000</ele>
			</trkpt>
			<trkpt lat="45.579312" lon="25.634495">
				<ele>817.000000</ele>
			</trkpt>
			<trkpt lat="45.579267" lon="25.634667">
				<ele>819.000000</ele>
			</trkpt>
			<trkpt lat="45.579230" lon="25.634971">
				<ele>822.000000</ele>
			</trkpt>
			<trkpt lat="45.579236" lon="25.635097">
				<ele>825.000000</ele>
			</trkpt>
			<trkpt lat="45.579255" lon="25.635277">
				<ele>828.000000</ele>
			</trkpt>
			<trkpt lat="45.579261" lon="25.635537">
				<ele>833.000000</ele>
			</trkpt>
			<trkpt lat="45.579198" lon="25.635709">
				<ele>832.000000</ele>
			</trkpt>
			<trkpt lat="45.579079" lon="25.635834">
				<ele>829.000000</ele>
			</trkpt>
			<trkpt lat="45.578928" lon="25.635915">
				<ele>827.000000</ele>
			</trkpt>
			<trkpt lat="45.578783" lon="25.636032">
				<ele>825.000000</ele>
			</trkpt>
			<trkpt lat="45.578701" lon="25.636239">
				<ele>827.000000</ele>
			</trkpt>
			<trkpt lat="45.578494" lon="25.636579">
				<ele>831.000000</ele>
			</trkpt>
			<trkpt lat="45.578343" lon="25.636841">
				<ele>837.000000</ele>
			</trkpt>
			<trkpt lat="45.578086" lon="25.636931">
				<ele>839.000000</ele>
			</trkpt>
			<trkpt lat="45.577853" lon="25.636975">
				<ele>843.000000</ele>
			</trkpt>
			<trkpt lat="45.577608" lon="25.636894">
				<ele>845.000000</ele>
			</trkpt>
			<trkpt lat="45.577419" lon="25.636939">
				<ele>851.000000</ele>
			</trkpt>
			<trkpt lat="45.576859" lon="25.636912">
				<ele>857.000000</ele>
			</trkpt>
			<trkpt lat="45.576576" lon="25.636868">
				<ele>856.000000</ele>
			</trkpt>
			<trkpt lat="45.576331" lon="25.636849">
				<ele>857.000000</ele>
			</trkpt>
			<trkpt lat="45.576143" lon="25.636876">
				<ele>859.000000</ele>
			</trkpt>
			<trkpt lat="45.576029" lon="25.636876">
				<ele>860.000000</ele>
			</trkpt>
			<trkpt lat="45.575941" lon="25.636751">
				<ele>857.000000</ele>
			</trkpt>
			<trkpt lat="45.575872" lon="25.636696">
				<ele>857.000000</ele>
			</trkpt>
			<trkpt lat="45.575696" lon="25.636751">
				<ele>859.000000</ele>
			</trkpt>
			<trkpt lat="45.575457" lon="25.636858">
				<ele>865.000000</ele>
			</trkpt>
			<trkpt lat="45.575243" lon="25.636948">
				<ele>872.000000</ele>
			</trkpt>
			<trkpt lat="45.575162" lon="25.636939">
				<ele>874.000000</ele>
			</trkpt>
			<trkpt lat="45.575048" lon="25.636858">
				<ele>874.000000</ele>
			</trkpt>
			<trkpt lat="45.574973" lon="25.636724">
				<ele>872.000000</ele>
			</trkpt>
			<trkpt lat="45.574872" lon="25.636669">
				<ele>873.000000</ele>
			</trkpt>
			<trkpt lat="45.574734" lon="25.636724">
				<ele>875.000000</ele>
			</trkpt>
			<trkpt lat="45.574621" lon="25.636778">
				<ele>875.000000</ele>
			</trkpt>
			<trkpt lat="45.574514" lon="25.636831">
				<ele>875.000000</ele>
			</trkpt>
			<trkpt lat="45.574445" lon="25.636965">
				<ele>876.000000</ele>
			</trkpt>
			<trkpt lat="45.574325" lon="25.637334">
				<ele>880.000000</ele>
			</trkpt>
			<trkpt lat="45.574187" lon="25.637657">
				<ele>887.000000</ele>
			</trkpt>
			<trkpt lat="45.574042" lon="25.637900">
				<ele>891.000000</ele>
			</trkpt>
			<trkpt lat="45.573910" lon="25.638034">
				<ele>892.000000</ele>
			</trkpt>
			<trkpt lat="45.573765" lon="25.638187">
				<ele>893.000000</ele>
			</trkpt>
			<trkpt lat="45.573684" lon="25.638260">
				<ele>893.000000</ele>
			</trkpt>
			<trkpt lat="45.573583" lon="25.638359">
				<ele>893.000000</ele>
			</trkpt>
			<trkpt lat="45.573527" lon="25.638430">
				<ele>893.000000</ele>
			</trkpt>
			<trkpt lat="45.573452" lon="25.638510">
				<ele>894.000000</ele>
			</trkpt>
			<trkpt lat="45.573401" lon="25.638547">
				<ele>894.000000</ele>
			</trkpt>
			<trkpt lat="45.573338" lon="25.638619">
				<ele>896.000000</ele>
			</trkpt>
			<trkpt lat="45.573288" lon="25.638663">
				<ele>898.000000</ele>
			</trkpt>
			<trkpt lat="45.572948" lon="25.638816">
				<ele>903.000000</ele>
			</trkpt>
			<trkpt lat="45.572797" lon="25.638879">
				<ele>905.000000</ele>
			</trkpt>
			<trkpt lat="45.572678" lon="25.638978">
				<ele>907.000000</ele>
			</trkpt>
			<trkpt lat="45.572502" lon="25.639176">
				<ele>909.000000</ele>
			</trkpt>
			<trkpt lat="45.572250" lon="25.639418">
				<ele>912.000000</ele>
			</trkpt>
			<trkpt lat="45.572162" lon="25.639679">
				<ele>914.000000</ele>
			</trkpt>
			<trkpt lat="45.572087" lon="25.639921">
				<ele>916.000000</ele>
			</trkpt>
			<trkpt lat="45.572037" lon="25.640137">
				<ele>918.000000</ele>
			</trkpt>
			<trkpt lat="45.571967" lon="25.640380">
				<ele>919.000000</ele>
			</trkpt>
			<trkpt lat="45.571974" lon="25.640613">
				<ele>926.000000</ele>
			</trkpt>
			<trkpt lat="45.571980" lon="25.640694">
				<ele>930.000000</ele>
			</trkpt>
			<trkpt lat="45.571942" lon="25.640739">
				<ele>930.000000</ele>
			</trkpt>
			<trkpt lat="45.571873" lon="25.640793">
				<ele>931.000000</ele>
			</trkpt>
			<trkpt lat="45.571785" lon="25.640730">
				<ele>927.000000</ele>
			</trkpt>
			<trkpt lat="45.571716" lon="25.640694">
				<ele>925.000000</ele>
			</trkpt>
			<trkpt lat="45.571615" lon="25.640721">
				<ele>926.000000</ele>
			</trkpt>
			<trkpt lat="45.571502" lon="25.640766">
				<ele>927.000000</ele>
			</trkpt>
			<trkpt lat="45.571363" lon="25.640810">
				<ele>927.000000</ele>
			</trkpt>
			<trkpt lat="45.571276" lon="25.640973">
				<ele>931.000000</ele>
			</trkpt>
			<trkpt lat="45.571162" lon="25.641260">
				<ele>938.000000</ele>
			</trkpt>
			<trkpt lat="45.571087" lon="25.641386">
				<ele>940.000000</ele>
			</trkpt>
			<trkpt lat="45.571043" lon="25.641548">
				<ele>943.000000</ele>
			</trkpt>
			<trkpt lat="45.570961" lon="25.641629">
				<ele>943.000000</ele>
			</trkpt>
			<trkpt lat="45.570892" lon="25.641638">
				<ele>942.000000</ele>
			</trkpt>
			<trkpt lat="45.570829" lon="25.641619">
				<ele>941.000000</ele>
			</trkpt>
			<trkpt lat="45.570697" lon="25.641673">
				<ele>941.000000</ele>
			</trkpt>
			<trkpt lat="45.570527" lon="25.641871">
				<ele>941.000000</ele>
			</trkpt>
			<trkpt lat="45.570358" lon="25.642068">
				<ele>943.000000</ele>
			</trkpt>
			<trkpt lat="45.570150" lon="25.642212">
				<ele>946.000000</ele>
			</trkpt>
			<trkpt lat="45.569967" lon="25.642329">
				<ele>950.000000</ele>
			</trkpt>
			<trkpt lat="45.569772" lon="25.642428">
				<ele>951.000000</ele>
			</trkpt>
			<trkpt lat="45.569647" lon="25.642481">
				<ele>951.000000</ele>
			</trkpt>
			<trkpt lat="45.569528" lon="25.642518">
				<ele>951.000000</ele>
			</trkpt>
			<trkpt lat="45.569383" lon="25.642634">
				<ele>955.000000</ele>
			</trkpt>
			<trkpt lat="45.569206" lon="25.642895">
				<ele>961.000000</ele>
			</trkpt>
			<trkpt lat="45.569005" lon="25.643183">
				<ele>968.000000</ele>
			</trkpt>
			<trkpt lat="45.568923" lon="25.643281">
				<ele>970.000000</ele>
			</trkpt>
			<trkpt lat="45.568829" lon="25.643326">
				<ele>970.000000</ele>
			</trkpt>
			<trkpt lat="45.568804" lon="25.643317">
				<ele>970.000000</ele>
			</trkpt>
			<trkpt lat="45.568370" lon="25.643101">
				<ele>983.000000</ele>
			</trkpt>
			<trkpt lat="45.568301" lon="25.643093">
				<ele>985.000000</ele>
			</trkpt>
			<trkpt lat="45.567942" lon="25.643173">
				<ele>997.000000</ele>
			</trkpt>
			<trkpt lat="45.567848" lon="25.643263">
				<ele>1003.000000</ele>
			</trkpt>
			<trkpt lat="45.567722" lon="25.643353">
				<ele>1013.000000</ele>
			</trkpt>
			<trkpt lat="45.567408" lon="25.643587">
				<ele>1038.000000</ele>
			</trkpt>
			<trkpt lat="45.567408" lon="25.643587">
				<ele>1038.000000</ele>
			</trkpt>
			<trkpt lat="45.567370" lon="25.643613">
				<ele>1041.000000</ele>
			</trkpt>
			<trkpt lat="45.567150" lon="25.643973">
				<ele>1054.000000</ele>
			</trkpt>
			<trkpt lat="45.566861" lon="25.644198">
				<ele>1067.000000</ele>
			</trkpt>
			<trkpt lat="45.566591" lon="25.644260">
				<ele>1075.000000</ele>
			</trkpt>
			<trkpt lat="45.566402" lon="25.644279">
				<ele>1080.000000</ele>
			</trkpt>
			<trkpt lat="45.566326" lon="25.644323">
				<ele>1082.000000</ele>
			</trkpt>
			<trkpt lat="45.566207" lon="25.644485">
				<ele>1087.000000</ele>
			</trkpt>
			<trkpt lat="45.566031" lon="25.644709">
				<ele>1088.000000</ele>
			</trkpt>
			<trkpt lat="45.565955" lon="25.644728">
				<ele>1087.000000</ele>
			</trkpt>
			<trkpt lat="45.565898" lon="25.644718">
				<ele>1085.000000</ele>
			</trkpt>
			<trkpt lat="45.565823" lon="25.644619">
				<ele>1082.000000</ele>
			</trkpt>
			<trkpt lat="45.565716" lon="25.644494">
				<ele>1081.000000</ele>
			</trkpt>
			<trkpt lat="45.565673" lon="25.644395">
				<ele>1082.000000</ele>
			</trkpt>
			<trkpt lat="45.565603" lon="25.644260">
				<ele>1084.000000</ele>
			</trkpt>
			<trkpt lat="45.565522" lon="25.644089">
				<ele>1087.000000</ele>
			</trkpt>
			<trkpt lat="45.565459" lon="25.644009">
				<ele>1088.000000</ele>
			</trkpt>
			<trkpt lat="45.565163" lon="25.643776">
				<ele>1096.000000</ele>
			</trkpt>
			<trkpt lat="45.564930" lon="25.643650">
				<ele>1100.000000</ele>
			</trkpt>
			<trkpt lat="45.564528" lon="25.643542">
				<ele>1106.000000</ele>
			</trkpt>
			<trkpt lat="45.564377" lon="25.643542">
				<ele>1109.000000</ele>
			</trkpt>
			<trkpt lat="45.564195" lon="25.643550">
				<ele>1112.000000</ele>
			</trkpt>
			<trkpt lat="45.564006" lon="25.643514">
				<ele>1117.000000</ele>
			</trkpt>
			<trkpt lat="45.563810" lon="25.643479">
				<ele>1121.000000</ele>
			</trkpt>
			<trkpt lat="45.563635" lon="25.643514">
				<ele>1127.000000</ele>
			</trkpt>
			<trkpt lat="45.563446" lon="25.643550">
				<ele>1133.000000</ele>
			</trkpt>
			<trkpt lat="45.563389" lon="25.643487">
				<ele>1134.000000</ele>
			</trkpt>
			<trkpt lat="45.563352" lon="25.643434">
				<ele>1134.000000</ele>
			</trkpt>
			<trkpt lat="45.563175" lon="25.643380">
				<ele>1136.000000</ele>
			</trkpt>
			<trkpt lat="45.563018" lon="25.643273">
				<ele>1137.000000</ele>
			</trkpt>
			<trkpt lat="45.562987" lon="25.643164">
				<ele>1137.000000</ele>
			</trkpt>
			<trkpt lat="45.562861" lon="25.642994">
				<ele>1139.000000</ele>
			</trkpt>
			<trkpt lat="45.562723" lon="25.643003">
				<ele>1142.000000</ele>
			</trkpt>
			<trkpt lat="45.562654" lon="25.642958">
				<ele>1143.000000</ele>
			</trkpt>
			<trkpt lat="45.562477" lon="25.642940">
				<ele>1147.000000</ele>
			</trkpt>
			<trkpt lat="45.562320" lon="25.642948">
				<ele>1150.000000</ele>
			</trkpt>
			<trkpt lat="45.562157" lon="25.643003">
				<ele>1153.000000</ele>
			</trkpt>
			<trkpt lat="45.562050" lon="25.643110">
				<ele>1156.000000</ele>
			</trkpt>
			<trkpt lat="45.561974" lon="25.643173">
				<ele>1157.000000</ele>
			</trkpt>
			<trkpt lat="45.561836" lon="25.643290">
				<ele>1159.000000</ele>
			</trkpt>
			<trkpt lat="45.561591" lon="25.643397">
				<ele>1165.000000</ele>
			</trkpt>
			<trkpt lat="45.561521" lon="25.643550">
				<ele>1168.000000</ele>
			</trkpt>
			<trkpt lat="45.561490" lon="25.643766">
				<ele>1170.000000</ele>
			</trkpt>
			<trkpt lat="45.561433" lon="25.643946">
				<ele>1171.000000</ele>
			</trkpt>
			<trkpt lat="45.561264" lon="25.644485">
				<ele>1179.000000</ele>
			</trkpt>
			<trkpt lat="45.561050" lon="25.644728">
				<ele>1190.000000</ele>
			</trkpt>
			<trkpt lat="45.560779" lon="25.645068">
				<ele>1203.000000</ele>
			</trkpt>
			<trkpt lat="45.560547" lon="25.645267">
				<ele>1213.000000</ele>
			</trkpt>
			<trkpt lat="45.560320" lon="25.645428">
				<ele>1222.000000</ele>
			</trkpt>
			<trkpt lat="45.560201" lon="25.645617">
				<ele>1229.000000</ele>
			</trkpt>
			<trkpt lat="45.560012" lon="25.645806">
				<ele>1240.000000</ele>
			</trkpt>
			<trkpt lat="45.559829" lon="25.646003">
				<ele>1249.000000</ele>
			</trkpt>
			<trkpt lat="45.559509" lon="25.646372">
				<ele>1265.000000</ele>
			</trkpt>
			<trkpt lat="45.559427" lon="25.646587">
				<ele>1272.000000</ele>
			</trkpt>
			<trkpt lat="45.559371" lon="25.646676">
				<ele>1275.000000</ele>
			</trkpt>
			<trkpt lat="45.559245" lon="25.646739">
				<ele>1280.000000</ele>
			</trkpt>
			<trkpt lat="45.559207" lon="25.646632">
				<ele>1278.000000</ele>
			</trkpt>
			<trkpt lat="45.559075" lon="25.646676">
				<ele>1282.000000</ele>
			</trkpt>
			<trkpt lat="45.559005" lon="25.646820">
				<ele>1289.000000</ele>
			</trkpt>
			<trkpt lat="45.558811" lon="25.646929">
				<ele>1297.000000</ele>
			</trkpt>
			<trkpt lat="45.558571" lon="25.646883">
				<ele>1303.000000</ele>
			</trkpt>
			<trkpt lat="45.558333" lon="25.646902">
				<ele>1312.000000</ele>
			</trkpt>
			<trkpt lat="45.558081" lon="25.646982">
				<ele>1323.000000</ele>
			</trkpt>
			<trkpt lat="45.557792" lon="25.647000">
				<ele>1338.000000</ele>
			</trkpt>
			<trkpt lat="45.557653" lon="25.646902">
				<ele>1347.000000</ele>
			</trkpt>
			<trkpt lat="45.557490" lon="25.646892">
				<ele>1353.000000</ele>
			</trkpt>
			<trkpt lat="45.557332" lon="25.646955">
				<ele>1358.000000</ele>
			</trkpt>
			<trkpt lat="45.557163" lon="25.646973">
				<ele>1364.000000</ele>
			</trkpt>
			<trkpt lat="45.556999" lon="25.646902">
				<ele>1371.000000</ele>
			</trkpt>
			<trkpt lat="45.556703" lon="25.646766">
				<ele>1385.000000</ele>
			</trkpt>
			<trkpt lat="45.556464" lon="25.646722">
				<ele>1394.000000</ele>
			</trkpt>
			<trkpt lat="45.556225" lon="25.646776">
				<ele>1402.000000</ele>
			</trkpt>
			<trkpt lat="45.556125" lon="25.646839">
				<ele>1406.000000</ele>
			</trkpt>
			<trkpt lat="45.556031" lon="25.647063">
				<ele>1409.000000</ele>
			</trkpt>
			<trkpt lat="45.556005" lon="25.647216">
				<ele>1413.000000</ele>
			</trkpt>
			<trkpt lat="45.555942" lon="25.647342">
				<ele>1419.000000</ele>
			</trkpt>
			<trkpt lat="45.555810" lon="25.647458">
				<ele>1427.000000</ele>
			</trkpt>
			<trkpt lat="45.555691" lon="25.647494">
				<ele>1431.000000</ele>
			</trkpt>
			<trkpt lat="45.555596" lon="25.647611">
				<ele>1438.000000</ele>
			</trkpt>
			<trkpt lat="45.555477" lon="25.647862">
				<ele>1448.000000</ele>
			</trkpt>
			<trkpt lat="45.555270" lon="25.648158">
				<ele>1463.000000</ele>
			</trkpt>
			<trkpt lat="45.555238" lon="25.648276">
				<ele>1468.000000</ele>
			</trkpt>
			<trkpt lat="45.555244" lon="25.648410">
				<ele>1473.000000</ele>
			</trkpt>
			<trkpt lat="45.555181" lon="25.648600">
				<ele>1482.000000</ele>
			</trkpt>
			<trkpt lat="45.555087" lon="25.648779">
				<ele>1490.000000</ele>
			</trkpt>
			<trkpt lat="45.555005" lon="25.648877">
				<ele>1495.000000</ele>
			</trkpt>
			<trkpt lat="45.554942" lon="25.648976">
				<ele>1499.000000</ele>
			</trkpt>
			<trkpt lat="45.554930" lon="25.649129">
				<ele>1505.000000</ele>
			</trkpt>
			<trkpt lat="45.554942" lon="25.649255">
				<ele>1510.000000</ele>
			</trkpt>
			<trkpt lat="45.554917" lon="25.649453">
				<ele>1517.000000</ele>
			</trkpt>
			<trkpt lat="45.554861" lon="25.649462">
				<ele>1518.000000</ele>
			</trkpt>
			<trkpt lat="45.554854" lon="25.649659">
				<ele>1525.000000</ele>
			</trkpt>
			<trkpt lat="45.554924" lon="25.649766">
				<ele>1529.000000</ele>
			</trkpt>
			<trkpt lat="45.555137" lon="25.649875">
				<ele>1534.000000</ele>
			</trkpt>
			<trkpt lat="45.555231" lon="25.650018">
				<ele>1539.000000</ele>
			</trkpt>
			<trkpt lat="45.555231" lon="25.650154">
				<ele>1542.000000</ele>
			</trkpt>
			<trkpt lat="45.555433" lon="25.650468">
				<ele>1545.000000</ele>
			</trkpt>
			<trkpt lat="45.555508" lon="25.650720">
				<ele>1547.000000</ele>
			</trkpt>
			<trkpt lat="45.555508" lon="25.650908">
				<ele>1550.000000</ele>
			</trkpt>
			<trkpt lat="45.555433" lon="25.651196">
				<ele>1556.000000</ele>
			</trkpt>
			<trkpt lat="45.555426" lon="25.651456">
				<ele>1562.000000</ele>
			</trkpt>
			<trkpt lat="45.555414" lon="25.651680">
				<ele>1568.000000</ele>
			</trkpt>
			<trkpt lat="45.555426" lon="25.651940">
				<ele>1573.000000</ele>
			</trkpt>
			<trkpt lat="45.555464" lon="25.652192">
				<ele>1578.000000</ele>
			</trkpt>
			<trkpt lat="45.555546" lon="25.652390">
				<ele>1580.000000</ele>
			</trkpt>
			<trkpt lat="45.555622" lon="25.652498">
				<ele>1581.000000</ele>
			</trkpt>
			<trkpt lat="45.555659" lon="25.652588">
				<ele>1582.000000</ele>
			</trkpt>
			<trkpt lat="45.555653" lon="25.652668">
				<ele>1585.000000</ele>
			</trkpt>
			<trkpt lat="45.555553" lon="25.652749">
				<ele>1590.000000</ele>
			</trkpt>
			<trkpt lat="45.555426" lon="25.652686">
				<ele>1591.000000</ele>
			</trkpt>
			<trkpt lat="45.555332" lon="25.652588">
				<ele>1591.000000</ele>
			</trkpt>
			<trkpt lat="45.555250" lon="25.652596">
				<ele>1594.000000</ele>
			</trkpt>
			<trkpt lat="45.555030" lon="25.652732">
				<ele>1605.000000</ele>
			</trkpt>
			<trkpt lat="45.554578" lon="25.652848">
				<ele>1618.000000</ele>
			</trkpt>
			<trkpt lat="45.554552" lon="25.652858">
				<ele>1619.000000</ele>
			</trkpt>
			<trkpt lat="45.554275" lon="25.653001">
				<ele>1623.000000</ele>
			</trkpt>
			<trkpt lat="45.554193" lon="25.653037">
				<ele>1624.000000</ele>
			</trkpt>
			<trkpt lat="45.553999" lon="25.653127">
				<ele>1626.000000</ele>
			</trkpt>
			<trkpt lat="45.553910" lon="25.653108">
				<ele>1627.000000</ele>
			</trkpt>
			<trkpt lat="45.553910" lon="25.653171">
				<ele>1627.000000</ele>
			</trkpt>
			<trkpt lat="45.553892" lon="25.653171">
				<ele>1627.000000</ele>
			</trkpt>
			<trkpt lat="45.553892" lon="25.653217">
				<ele>1627.000000</ele>
			</trkpt>
			<trkpt lat="45.553892" lon="25.653217">
				<ele>1627.000000</ele>
			</trkpt>
			<trkpt lat="45.553892" lon="25.653171">
				<ele>1627.000000</ele>
			</trkpt>
			<trkpt lat="45.553910" lon="25.653171">
				<ele>1627.000000</ele>
			</trkpt>
			<trkpt lat="45.553910" lon="25.653108">
				<ele>1627.000000</ele>
			</trkpt>
			<trkpt lat="45.553759" lon="25.653010">
				<ele>1629.000000</ele>
			</trkpt>
			<trkpt lat="45.553571" lon="25.652955">
				<ele>1630.000000</ele>
			</trkpt>
			<trkpt lat="45.553495" lon="25.652992">
				<ele>1631.000000</ele>
			</trkpt>
			<trkpt lat="45.553307" lon="25.653001">
				<ele>1632.000000</ele>
			</trkpt>
			<trkpt lat="45.553181" lon="25.653010">
				<ele>1634.000000</ele>
			</trkpt>
			<trkpt lat="45.553067" lon="25.653019">
				<ele>1635.000000</ele>
			</trkpt>
			<trkpt lat="45.552986" lon="25.653019">
				<ele>1636.000000</ele>
			</trkpt>
			<trkpt lat="45.552898" lon="25.653019">
				<ele>1637.000000</ele>
			</trkpt>
			<trkpt lat="45.552841" lon="25.652965">
				<ele>1638.000000</ele>
			</trkpt>
			<trkpt lat="45.552785" lon="25.652911">
				<ele>1640.000000</ele>
			</trkpt>
			<trkpt lat="45.552747" lon="25.652848">
				<ele>1642.000000</ele>
			</trkpt>
			<trkpt lat="45.552659" lon="25.652821">
				<ele>1645.000000</ele>
			</trkpt>
			<trkpt lat="45.552571" lon="25.652804">
				<ele>1648.000000</ele>
			</trkpt>
			<trkpt lat="45.552476" lon="25.652821">
				<ele>1650.000000</ele>
			</trkpt>
			<trkpt lat="45.552338" lon="25.652848">
				<ele>1652.000000</ele>
			</trkpt>
			<trkpt lat="45.552237" lon="25.652894">
				<ele>1654.000000</ele>
			</trkpt>
			<trkpt lat="45.552111" lon="25.652955">
				<ele>1657.000000</ele>
			</trkpt>
			<trkpt lat="45.551986" lon="25.653045">
				<ele>1659.000000</ele>
			</trkpt>
			<trkpt lat="45.551772" lon="25.653271">
				<ele>1660.000000</ele>
			</trkpt>
			<trkpt lat="45.551665" lon="25.653360">
				<ele>1660.000000</ele>
			</trkpt>
			<trkpt lat="45.551621" lon="25.653387">
				<ele>1660.000000</ele>
			</trkpt>
			<trkpt lat="45.551577" lon="25.653397">
				<ele>1660.000000</ele>
			</trkpt>
			<trkpt lat="45.551514" lon="25.653370">
				<ele>1660.000000</ele>
			</trkpt>
			<trkpt lat="45.551464" lon="25.653324">
				<ele>1660.000000</ele>
			</trkpt>
			<trkpt lat="45.551363" lon="25.653280">
				<ele>1661.000000</ele>
			</trkpt>
			<trkpt lat="45.551281" lon="25.653145">
				<ele>1662.000000</ele>
			</trkpt>
			<trkpt lat="45.551225" lon="25.653019">
				<ele>1664.000000</ele>
			</trkpt>
			<trkpt lat="45.551168" lon="25.652894">
				<ele>1665.000000</ele>
			</trkpt>
			<trkpt lat="45.551130" lon="25.652741">
				<ele>1664.000000</ele>
			</trkpt>
			<trkpt lat="45.551149" lon="25.652579">
				<ele>1663.000000</ele>
			</trkpt>
			<trkpt lat="45.551175" lon="25.652498">
				<ele>1664.000000</ele>
			</trkpt>
			<trkpt lat="45.551193" lon="25.652381">
				<ele>1662.000000</ele>
			</trkpt>
			<trkpt lat="45.551237" lon="25.652292">
				<ele>1663.000000</ele>
			</trkpt>
			<trkpt lat="45.551256" lon="25.652210">
				<ele>1662.000000</ele>
			</trkpt>
			<trkpt lat="45.551344" lon="25.651923">
				<ele>1661.000000</ele>
			</trkpt>
			<trkpt lat="45.551394" lon="25.651762">
				<ele>1660.000000</ele>
			</trkpt>
			<trkpt lat="45.551445" lon="25.651609">
				<ele>1660.000000</ele>
			</trkpt>
			<trkpt lat="45.551564" lon="25.650997">
				<ele>1669.000000</ele>
			</trkpt>
			<trkpt lat="45.551590" lon="25.650764">
				<ele>1674.000000</ele>
			</trkpt>
			<trkpt lat="45.551583" lon="25.650575">
				<ele>1676.000000</ele>
			</trkpt>
			<trkpt lat="45.551564" lon="25.650422">
				<ele>1676.000000</ele>
			</trkpt>
			<trkpt lat="45.551527" lon="25.650244">
				<ele>1675.000000</ele>
			</trkpt>
			<trkpt lat="45.551426" lon="25.650081">
				<ele>1670.000000</ele>
			</trkpt>
			<trkpt lat="45.551382" lon="25.649803">
				<ele>1669.000000</ele>
			</trkpt>
			<trkpt lat="45.551313" lon="25.649200">
				<ele>1669.000000</ele>
			</trkpt>
			<trkpt lat="45.551244" lon="25.648986">
				<ele>1673.000000</ele>
			</trkpt>
			<trkpt lat="45.551143" lon="25.648824">
				<ele>1679.000000</ele>
			</trkpt>
			<trkpt lat="45.551061" lon="25.648779">
				<ele>1683.000000</ele>
			</trkpt>
			<trkpt lat="45.551011" lon="25.648743">
				<ele>1686.000000</ele>
			</trkpt>
			<trkpt lat="45.550961" lon="25.648752">
				<ele>1688.000000</ele>
			</trkpt>
			<trkpt lat="45.550879" lon="25.648743">
				<ele>1692.000000</ele>
			</trkpt>
			<trkpt lat="45.550734" lon="25.648760">
				<ele>1697.000000</ele>
			</trkpt>
			<trkpt lat="45.550671" lon="25.648779">
				<ele>1699.000000</ele>
			</trkpt>
			<trkpt lat="45.550627" lon="25.648760">
				<ele>1701.000000</ele>
			</trkpt>
			<trkpt lat="45.550583" lon="25.648716">
				<ele>1704.000000</ele>
			</trkpt>
			<trkpt lat="45.550583" lon="25.648653">
				<ele>1705.000000</ele>
			</trkpt>
			<trkpt lat="45.550576" lon="25.648600">
				<ele>1707.000000</ele>
			</trkpt>
			<trkpt lat="45.550564" lon="25.648554">
				<ele>1709.000000</ele>
			</trkpt>
			<trkpt lat="45.550533" lon="25.648518">
				<ele>1711.000000</ele>
			</trkpt>
			<trkpt lat="45.550482" lon="25.648474">
				<ele>1714.000000</ele>
			</trkpt>
			<trkpt lat="45.550457" lon="25.648420">
				<ele>1717.000000</ele>
			</trkpt>
			<trkpt lat="45.550388" lon="25.648284">
				<ele>1723.000000</ele>
			</trkpt>
			<trkpt lat="45.550344" lon="25.648168">
				<ele>1727.000000</ele>
			</trkpt>
			<trkpt lat="45.550344" lon="25.648070">
				<ele>1730.000000</ele>
			</trkpt>
			<trkpt lat="45.550369" lon="25.648015">
				<ele>1730.000000</ele>
			</trkpt>
			<trkpt lat="45.550369" lon="25.647908">
				<ele>1732.000000</ele>
			</trkpt>
			<trkpt lat="45.550350" lon="25.647827">
				<ele>1734.000000</ele>
			</trkpt>
			<trkpt lat="45.550325" lon="25.647764">
				<ele>1736.000000</ele>
			</trkpt>
			<trkpt lat="45.550331" lon="25.647655">
				<ele>1738.000000</ele>
			</trkpt>
			<trkpt lat="45.550362" lon="25.647558">
				<ele>1738.000000</ele>
			</trkpt>
			<trkpt lat="45.550369" lon="25.647512">
				<ele>1738.000000</ele>
			</trkpt>
			<trkpt lat="45.550344" lon="25.647468">
				<ele>1740.000000</ele>
			</trkpt>
			<trkpt lat="45.550319" lon="25.647422">
				<ele>1742.000000</ele>
			</trkpt>
			<trkpt lat="45.550281" lon="25.647414">
				<ele>1743.000000</ele>
			</trkpt>
			<trkpt lat="45.550262" lon="25.647485">
				<ele>1743.000000</ele>
			</trkpt>
			<trkpt lat="45.550199" lon="25.647539">
				<ele>1745.000000</ele>
			</trkpt>
			<trkpt lat="45.550149" lon="25.647611">
				<ele>1746.000000</ele>
			</trkpt>
			<trkpt lat="45.550118" lon="25.647592">
				<ele>1747.000000</ele>
			</trkpt>
			<trkpt lat="45.550086" lon="25.647548">
				<ele>1749.000000</ele>
			</trkpt>
			<trkpt lat="45.550098" lon="25.647504">
				<ele>1749.000000</ele>
			</trkpt>
			<trkpt lat="45.550111" lon="25.647386">
				<ele>1751.000000</ele>
			</trkpt>
			<trkpt lat="45.550098" lon="25.647351">
				<ele>1752.000000</ele>
			</trkpt>
			<trkpt lat="45.550073" lon="25.647315">
				<ele>1753.000000</ele>
			</trkpt>
			<trkpt lat="45.550048" lon="25.647315">
				<ele>1754.000000</ele>
			</trkpt>
			<trkpt lat="45.550016" lon="25.647342">
				<ele>1755.000000</ele>
			</trkpt>
			<trkpt lat="45.549992" lon="25.647378">
				<ele>1755.000000</ele>
			</trkpt>
			<trkpt lat="45.549960" lon="25.647395">
				<ele>1756.000000</ele>
			</trkpt>
			<trkpt lat="45.549935" lon="25.647405">
				<ele>1756.000000</ele>
			</trkpt>
			<trkpt lat="45.549910" lon="25.647395">
				<ele>1757.000000</ele>
			</trkpt>
			<trkpt lat="45.549891" lon="25.647359">
				<ele>1758.000000</ele>
			</trkpt>
			<trkpt lat="45.549872" lon="25.647261">
				<ele>1761.000000</ele>
			</trkpt>
			<trkpt lat="45.549797" lon="25.647055">
				<ele>1769.000000</ele>
			</trkpt>
			<trkpt lat="45.549778" lon="25.646820">
				<ele>1779.000000</ele>
			</trkpt>
			<trkpt lat="45.549733" lon="25.646713">
				<ele>1785.000000</ele>
			</trkpt>
			<trkpt lat="45.549721" lon="25.646659">
				<ele>1787.000000</ele>
			</trkpt>
			<trkpt lat="45.549740" lon="25.646533">
				<ele>1789.000000</ele>
			</trkpt>
			<trkpt lat="45.549752" lon="25.646344">
				<ele>1793.000000</ele>
			</trkpt>
			<trkpt lat="45.549746" lon="25.646147">
				<ele>1794.000000</ele>
			</trkpt>
			<trkpt lat="45.549733" lon="25.646047">
				<ele>1795.000000</ele>
			</trkpt>
			<trkpt lat="45.549721" lon="25.645958">
				<ele>1795.000000</ele>
			</trkpt>
			<trkpt lat="45.549709" lon="25.645904">
				<ele>1796.000000</ele>
			</trkpt>
			<trkpt lat="45.549683" lon="25.645833">
				<ele>1796.000000</ele>
			</trkpt>
			<trkpt lat="45.549658" lon="25.645778">
				<ele>1797.000000</ele>
			</trkpt>
			<trkpt lat="45.549646" lon="25.645716">
				<ele>1798.000000</ele>
			</trkpt>
			<trkpt lat="45.549640" lon="25.645644">
				<ele>1798.000000</ele>
			</trkpt>
			<trkpt lat="45.549627" lon="25.645545">
				<ele>1798.000000</ele>
			</trkpt>
			<trkpt lat="45.549614" lon="25.645447">
				<ele>1798.000000</ele>
			</trkpt>
			<trkpt lat="45.549589" lon="25.645275">
				<ele>1798.000000</ele>
			</trkpt>
			<trkpt lat="45.549551" lon="25.645131">
				<ele>1799.000000</ele>
			</trkpt>
			<trkpt lat="45.549438" lon="25.644646">
				<ele>1801.000000</ele>
			</trkpt>
			<trkpt lat="45.549363" lon="25.644395">
				<ele>1803.000000</ele>
			</trkpt>
			<trkpt lat="45.549162" lon="25.643874">
				<ele>1811.000000</ele>
			</trkpt>
			<trkpt lat="45.549023" lon="25.643479">
				<ele>1817.000000</ele>
			</trkpt>
			<trkpt lat="45.548991" lon="25.643397">
				<ele>1818.000000</ele>
			</trkpt>
			<trkpt lat="45.548922" lon="25.643200">
				<ele>1821.000000</ele>
			</trkpt>
			<trkpt lat="45.548853" lon="25.642984">
				<ele>1823.000000</ele>
			</trkpt>
			<trkpt lat="45.548828" lon="25.642886">
				<ele>1825.000000</ele>
			</trkpt>
			<trkpt lat="45.548866" lon="25.642823">
				<ele>1825.000000</ele>
			</trkpt>
			<trkpt lat="45.548998" lon="25.642455">
				<ele>1828.000000</ele>
			</trkpt>
			<trkpt lat="45.549130" lon="25.642114">
				<ele>1829.000000</ele>
			</trkpt>
			<trkpt lat="45.549243" lon="25.641682">
				<ele>1829.000000</ele>
			</trkpt>
			<trkpt lat="45.549337" lon="25.641413">
				<ele>1829.000000</ele>
			</trkpt>
			<trkpt lat="45.549457" lon="25.641152">
				<ele>1828.000000</ele>
			</trkpt>
			<trkpt lat="45.549589" lon="25.640910">
				<ele>1825.000000</ele>
			</trkpt>
			<trkpt lat="45.549803" lon="25.640568">
				<ele>1819.000000</ele>
			</trkpt>
			<trkpt lat="45.549897" lon="25.640344">
				<ele>1818.000000</ele>
			</trkpt>
			<trkpt lat="45.549973" lon="25.640137">
				<ele>1818.000000</ele>
			</trkpt>
			<trkpt lat="45.550061" lon="25.639912">
				<ele>1819.000000</ele>
			</trkpt>
			<trkpt lat="45.550118" lon="25.639679">
				<ele>1822.000000</ele>
			</trkpt>
			<trkpt lat="45.550193" lon="25.639445">
				<ele>1827.000000</ele>
			</trkpt>
			<trkpt lat="45.550230" lon="25.639365">
				<ele>1827.000000</ele>
			</trkpt>
			<trkpt lat="45.550438" lon="25.639095">
				<ele>1832.000000</ele>
			</trkpt>
			<trkpt lat="45.550583" lon="25.638835">
				<ele>1831.000000</ele>
			</trkpt>
			<trkpt lat="45.550702" lon="25.638600">
				<ele>1827.000000</ele>
			</trkpt>
			<trkpt lat="45.550715" lon="25.638510">
				<ele>1827.000000</ele>
			</trkpt>
			<trkpt lat="45.550715" lon="25.638510">
				<ele>1827.000000</ele>
			</trkpt>
			<trkpt lat="45.550702" lon="25.638600">
				<ele>1827.000000</ele>
			</trkpt>
			<trkpt lat="45.550583" lon="25.638835">
				<ele>1831.000000</ele>
			</trkpt>
			<trkpt lat="45.550438" lon="25.639095">
				<ele>1832.000000</ele>
			</trkpt>
			<trkpt lat="45.550230" lon="25.639365">
				<ele>1827.000000</ele>
			</trkpt>
			<trkpt lat="45.550193" lon="25.639445">
				<ele>1827.000000</ele>
			</trkpt>
			<trkpt lat="45.550118" lon="25.639679">
				<ele>1822.000000</ele>
			</trkpt>
			<trkpt lat="45.550061" lon="25.639912">
				<ele>1819.000000</ele>
			</trkpt>
			<trkpt lat="45.549973" lon="25.640137">
				<ele>1818.000000</ele>
			</trkpt>
			<trkpt lat="45.549897" lon="25.640344">
				<ele>1818.000000</ele>
			</trkpt>
			<trkpt lat="45.549803" lon="25.640568">
				<ele>1819.000000</ele>
			</trkpt>
			<trkpt lat="45.549589" lon="25.640910">
				<ele>1825.000000</ele>
			</trkpt>
			<trkpt lat="45.549457" lon="25.641152">
				<ele>1828.000000</ele>
			</trkpt>
			<trkpt lat="45.549337" lon="25.641413">
				<ele>1829.000000</ele>
			</trkpt>
			<trkpt lat="45.549243" lon="25.641682">
				<ele>1829.000000</ele>
			</trkpt>
			<trkpt lat="45.549130" lon="25.642114">
				<ele>1829.000000</ele>
			</trkpt>
			<trkpt lat="45.548998" lon="25.642455">
				<ele>1828.000000</ele>
			</trkpt>
			<trkpt lat="45.548866" lon="25.642823">
				<ele>1825.000000</ele>
			</trkpt>
			<trkpt lat="45.548828" lon="25.642886">
				<ele>1825.000000</ele>
			</trkpt>
			<trkpt lat="45.548406" lon="25.642921">
				<ele>1826.000000</ele>
			</trkpt>
			<trkpt lat="45.548104" lon="25.642976">
				<ele>1824.000000</ele>
			</trkpt>
			<trkpt lat="45.547972" lon="25.642984">
				<ele>1823.000000</ele>
			</trkpt>
			<trkpt lat="45.547884" lon="25.643011">
				<ele>1823.000000</ele>
			</trkpt>
			<trkpt lat="45.547828" lon="25.643038">
				<ele>1822.000000</ele>
			</trkpt>
			<trkpt lat="45.547771" lon="25.643110">
				<ele>1822.000000</ele>
			</trkpt>
			<trkpt lat="45.547689" lon="25.643183">
				<ele>1823.000000</ele>
			</trkpt>
			<trkpt lat="45.547614" lon="25.643183">
				<ele>1822.000000</ele>
			</trkpt>
			<trkpt lat="45.547287" lon="25.643128">
				<ele>1820.000000</ele>
			</trkpt>
			<trkpt lat="45.547041" lon="25.643030">
				<ele>1820.000000</ele>
			</trkpt>
			<trkpt lat="45.546701" lon="25.642913">
				<ele>1819.000000</ele>
			</trkpt>
			<trkpt lat="45.546463" lon="25.642868">
				<ele>1818.000000</ele>
			</trkpt>
			<trkpt lat="45.546267" lon="25.642814">
				<ele>1817.000000</ele>
			</trkpt>
			<trkpt lat="45.546047" lon="25.642734">
				<ele>1815.000000</ele>
			</trkpt>
			<trkpt lat="45.545833" lon="25.642751">
				<ele>1815.000000</ele>
			</trkpt>
			<trkpt lat="45.545544" lon="25.642768">
				<ele>1813.000000</ele>
			</trkpt>
			<trkpt lat="45.545273" lon="25.642734">
				<ele>1810.000000</ele>
			</trkpt>
			<trkpt lat="45.544896" lon="25.642652">
				<ele>1805.000000</ele>
			</trkpt>
			<trkpt lat="45.544644" lon="25.642634">
				<ele>1804.000000</ele>
			</trkpt>
			<trkpt lat="45.544550" lon="25.642508">
				<ele>1800.000000</ele>
			</trkpt>
			<trkpt lat="45.544499" lon="25.642481">
				<ele>1799.000000</ele>
			</trkpt>
			<trkpt lat="45.544468" lon="25.642418">
				<ele>1797.000000</ele>
			</trkpt>
			<trkpt lat="45.544437" lon="25.642338">
				<ele>1795.000000</ele>
			</trkpt>
			<trkpt lat="45.544387" lon="25.642329">
				<ele>1794.000000</ele>
			</trkpt>
			<trkpt lat="45.544285" lon="25.642231">
				<ele>1791.000000</ele>
			</trkpt>
			<trkpt lat="45.544191" lon="25.642168">
				<ele>1789.000000</ele>
			</trkpt>
			<trkpt lat="45.543939" lon="25.641969">
				<ele>1781.000000</ele>
			</trkpt>
			<trkpt lat="45.543857" lon="25.641808">
				<ele>1776.000000</ele>
			</trkpt>
			<trkpt lat="45.543814" lon="25.641736">
				<ele>1774.000000</ele>
			</trkpt>
			<trkpt lat="45.543713" lon="25.641646">
				<ele>1771.000000</ele>
			</trkpt>
			<trkpt lat="45.543568" lon="25.641386">
				<ele>1764.000000</ele>
			</trkpt>
			<trkpt lat="45.543367" lon="25.641223">
				<ele>1758.000000</ele>
			</trkpt>
			<trkpt lat="45.543134" lon="25.640927">
				<ele>1749.000000</ele>
			</trkpt>
			<trkpt lat="45.542933" lon="25.640568">
				<ele>1741.000000</ele>
			</trkpt>
			<trkpt lat="45.542644" lon="25.639787">
				<ele>1728.000000</ele>
			</trkpt>
			<trkpt lat="45.542442" lon="25.639284">
				<ele>1718.000000</ele>
			</trkpt>
			<trkpt lat="45.542392" lon="25.639105">
				<ele>1715.000000</ele>
			</trkpt>
			<trkpt lat="45.542159" lon="25.638466">
				<ele>1706.000000</ele>
			</trkpt>
			<trkpt lat="45.542027" lon="25.638134">
				<ele>1702.000000</ele>
			</trkpt>
			<trkpt lat="45.541983" lon="25.637990">
				<ele>1700.000000</ele>
			</trkpt>
			<trkpt lat="45.541850" lon="25.637594">
				<ele>1694.000000</ele>
			</trkpt>
			<trkpt lat="45.541781" lon="25.637424">
				<ele>1692.000000</ele>
			</trkpt>
			<trkpt lat="45.541731" lon="25.637227">
				<ele>1689.000000</ele>
			</trkpt>
			<trkpt lat="45.541631" lon="25.636984">
				<ele>1685.000000</ele>
			</trkpt>
			<trkpt lat="45.541599" lon="25.636894">
				<ele>1684.000000</ele>
			</trkpt>
			<trkpt lat="45.541593" lon="25.636768">
				<ele>1683.000000</ele>
			</trkpt>
			<trkpt lat="45.541580" lon="25.636418">
				<ele>1678.000000</ele>
			</trkpt>
			<trkpt lat="45.541599" lon="25.636185">
				<ele>1673.000000</ele>
			</trkpt>
			<trkpt lat="45.541593" lon="25.636113">
				<ele>1672.000000</ele>
			</trkpt>
			<trkpt lat="45.541549" lon="25.636113">
				<ele>1672.000000</ele>
			</trkpt>
			<trkpt lat="45.541372" lon="25.636166">
				<ele>1670.000000</ele>
			</trkpt>
			<trkpt lat="45.541335" lon="25.636176">
				<ele>1669.000000</ele>
			</trkpt>
			<trkpt lat="45.541297" lon="25.636113">
				<ele>1667.000000</ele>
			</trkpt>
			<trkpt lat="45.541177" lon="25.636005">
				<ele>1662.000000</ele>
			</trkpt>
			<trkpt lat="45.540963" lon="25.635933">
				<ele>1654.000000</ele>
			</trkpt>
			<trkpt lat="45.540863" lon="25.635879">
				<ele>1650.000000</ele>
			</trkpt>
			<trkpt lat="45.540794" lon="25.635772">
				<ele>1648.000000</ele>
			</trkpt>
			<trkpt lat="45.540781" lon="25.635690">
				<ele>1647.000000</ele>
			</trkpt>
			<trkpt lat="45.540775" lon="25.635610">
				<ele>1645.000000</ele>
			</trkpt>
			<trkpt lat="45.540806" lon="25.635502">
				<ele>1644.000000</ele>
			</trkpt>
			<trkpt lat="45.540857" lon="25.635367">
				<ele>1641.000000</ele>
			</trkpt>
			<trkpt lat="45.540857" lon="25.635268">
				<ele>1638.000000</ele>
			</trkpt>
			<trkpt lat="45.540844" lon="25.635124">
				<ele>1634.000000</ele>
			</trkpt>
			<trkpt lat="45.540781" lon="25.634936">
				<ele>1631.000000</ele>
			</trkpt>
			<trkpt lat="45.540725" lon="25.634801">
				<ele>1628.000000</ele>
			</trkpt>
			<trkpt lat="45.540643" lon="25.634648">
				<ele>1624.000000</ele>
			</trkpt>
			<trkpt lat="45.540567" lon="25.634568">
				<ele>1623.000000</ele>
			</trkpt>
			<trkpt lat="45.540353" lon="25.634442">
				<ele>1622.000000</ele>
			</trkpt>
			<trkpt lat="45.540297" lon="25.634415">
				<ele>1621.000000</ele>
			</trkpt>
			<trkpt lat="45.540146" lon="25.634334">
				<ele>1621.000000</ele>
			</trkpt>
			<trkpt lat="45.540020" lon="25.634315">
				<ele>1620.000000</ele>
			</trkpt>
			<trkpt lat="45.539925" lon="25.634298">
				<ele>1619.000000</ele>
			</trkpt>
			<trkpt lat="45.539787" lon="25.634262">
				<ele>1615.000000</ele>
			</trkpt>
			<trkpt lat="45.539548" lon="25.634262">
				<ele>1608.000000</ele>
			</trkpt>
			<trkpt lat="45.539434" lon="25.634252">
				<ele>1604.000000</ele>
			</trkpt>
			<trkpt lat="45.539347" lon="25.634281">
				<ele>1602.000000</ele>
			</trkpt>
			<trkpt lat="45.539271" lon="25.634281">
				<ele>1599.000000</ele>
			</trkpt>
			<trkpt lat="45.539183" lon="25.634244">
				<ele>1597.000000</ele>
			</trkpt>
			<trkpt lat="45.539101" lon="25.634136">
				<ele>1593.000000</ele>
			</trkpt>
			<trkpt lat="45.538919" lon="25.633813">
				<ele>1588.000000</ele>
			</trkpt>
			<trkpt lat="45.538818" lon="25.633678">
				<ele>1586.000000</ele>
			</trkpt>
			<trkpt lat="45.538535" lon="25.633535">
				<ele>1581.000000</ele>
			</trkpt>
			<trkpt lat="45.538302" lon="25.633390">
				<ele>1579.000000</ele>
			</trkpt>
			<trkpt lat="45.538164" lon="25.633283">
				<ele>1578.000000</ele>
			</trkpt>
			<trkpt lat="45.537849" lon="25.632887">
				<ele>1576.000000</ele>
			</trkpt>
			<trkpt lat="45.537390" lon="25.632528">
				<ele>1573.000000</ele>
			</trkpt>
			<trkpt lat="45.537232" lon="25.632357">
				<ele>1570.000000</ele>
			</trkpt>
			<trkpt lat="45.537000" lon="25.632052">
				<ele>1563.000000</ele>
			</trkpt>
			<trkpt lat="45.536911" lon="25.631765">
				<ele>1562.000000</ele>
			</trkpt>
			<trkpt lat="45.536849" lon="25.631639">
				<ele>1560.000000</ele>
			</trkpt>
			<trkpt lat="45.536830" lon="25.631369">
				<ele>1559.000000</ele>
			</trkpt>
			<trkpt lat="45.536905" lon="25.630669">
				<ele>1560.000000</ele>
			</trkpt>
			<trkpt lat="45.536861" lon="25.630453">
				<ele>1557.000000</ele>
			</trkpt>
			<trkpt lat="45.536786" lon="25.630283">
				<ele>1553.000000</ele>
			</trkpt>
			<trkpt lat="45.536672" lon="25.630049">
				<ele>1545.000000</ele>
			</trkpt>
			<trkpt lat="45.536622" lon="25.629717">
				<ele>1537.000000</ele>
			</trkpt>
			<trkpt lat="45.536559" lon="25.629340">
				<ele>1526.000000</ele>
			</trkpt>
			<trkpt lat="45.536528" lon="25.629160">
				<ele>1522.000000</ele>
			</trkpt>
			<trkpt lat="45.536483" lon="25.629034">
				<ele>1518.000000</ele>
			</trkpt>
			<trkpt lat="45.536408" lon="25.629007">
				<ele>1515.000000</ele>
			</trkpt>
			<trkpt lat="45.536301" lon="25.628899">
				<ele>1510.000000</ele>
			</trkpt>
			<trkpt lat="45.536226" lon="25.628908">
				<ele>1508.000000</ele>
			</trkpt>
			<trkpt lat="45.536081" lon="25.628828">
				<ele>1505.000000</ele>
			</trkpt>
			<trkpt lat="45.535880" lon="25.628746">
				<ele>1502.000000</ele>
			</trkpt>
			<trkpt lat="45.535785" lon="25.628692">
				<ele>1501.000000</ele>
			</trkpt>
			<trkpt lat="45.535615" lon="25.628369">
				<ele>1500.000000</ele>
			</trkpt>
			<trkpt lat="45.535514" lon="25.628279">
				<ele>1497.000000</ele>
			</trkpt>
			<trkpt lat="45.535445" lon="25.628063">
				<ele>1495.000000</ele>
			</trkpt>
			<trkpt lat="45.535408" lon="25.627910">
				<ele>1494.000000</ele>
			</trkpt>
			<trkpt lat="45.535339" lon="25.627866">
				<ele>1490.000000</ele>
			</trkpt>
			<trkpt lat="45.535301" lon="25.627767">
				<ele>1488.000000</ele>
			</trkpt>
			<trkpt lat="45.535294" lon="25.627614">
				<ele>1486.000000</ele>
			</trkpt>
			<trkpt lat="45.535358" lon="25.627407">
				<ele>1484.000000</ele>
			</trkpt>
			<trkpt lat="45.535364" lon="25.627255">
				<ele>1480.000000</ele>
			</trkpt>
			<trkpt lat="45.535326" lon="25.626994">
				<ele>1472.000000</ele>
			</trkpt>
			<trkpt lat="45.535301" lon="25.626707">
				<ele>1464.000000</ele>
			</trkpt>
			<trkpt lat="45.535269" lon="25.626491">
				<ele>1459.000000</ele>
			</trkpt>
			<trkpt lat="45.535294" lon="25.626331">
				<ele>1454.000000</ele>
			</trkpt>
			<trkpt lat="45.535332" lon="25.626186">
				<ele>1449.000000</ele>
			</trkpt>
			<trkpt lat="45.535332" lon="25.625952">
				<ele>1439.000000</ele>
			</trkpt>
			<trkpt lat="45.535282" lon="25.625656">
				<ele>1429.000000</ele>
			</trkpt>
			<trkpt lat="45.535345" lon="25.625549">
				<ele>1423.000000</ele>
			</trkpt>
			<trkpt lat="45.535445" lon="25.625503">
				<ele>1421.000000</ele>
			</trkpt>
			<trkpt lat="45.535590" lon="25.625199">
				<ele>1413.000000</ele>
			</trkpt>
			<trkpt lat="45.535666" lon="25.625063">
				<ele>1410.000000</ele>
			</trkpt>
			<trkpt lat="45.535678" lon="25.624992">
				<ele>1409.000000</ele>
			</trkpt>
			<trkpt lat="45.535653" lon="25.624839">
				<ele>1404.000000</ele>
			</trkpt>
			<trkpt lat="45.535514" lon="25.624677">
				<ele>1398.000000</ele>
			</trkpt>
			<trkpt lat="45.535502" lon="25.624426">
				<ele>1391.000000</ele>
			</trkpt>
			<trkpt lat="45.535553" lon="25.624031">
				<ele>1381.000000</ele>
			</trkpt>
			<trkpt lat="45.535559" lon="25.623878">
				<ele>1377.000000</ele>
			</trkpt>
			<trkpt lat="45.535533" lon="25.623715">
				<ele>1374.000000</ele>
			</trkpt>
			<trkpt lat="45.535546" lon="25.623545">
				<ele>1371.000000</ele>
			</trkpt>
			<trkpt lat="45.535540" lon="25.623249">
				<ele>1366.000000</ele>
			</trkpt>
			<trkpt lat="45.535508" lon="25.623006">
				<ele>1361.000000</ele>
			</trkpt>
			<trkpt lat="45.535477" lon="25.622862">
				<ele>1357.000000</ele>
			</trkpt>
			<trkpt lat="45.535496" lon="25.622620">
				<ele>1354.000000</ele>
			</trkpt>
			<trkpt lat="45.535521" lon="25.622314">
				<ele>1349.000000</ele>
			</trkpt>
			<trkpt lat="45.535433" lon="25.621983">
				<ele>1334.000000</ele>
			</trkpt>
			<trkpt lat="45.535326" lon="25.621803">
				<ele>1324.000000</ele>
			</trkpt>
			<trkpt lat="45.535301" lon="25.621694">
				<ele>1320.000000</ele>
			</trkpt>
			<trkpt lat="45.535326" lon="25.621587">
				<ele>1316.000000</ele>
			</trkpt>
			<trkpt lat="45.535294" lon="25.621381">
				<ele>1308.000000</ele>
			</trkpt>
			<trkpt lat="45.535168" lon="25.621138">
				<ele>1300.000000</ele>
			</trkpt>
			<trkpt lat="45.535144" lon="25.621021">
				<ele>1296.000000</ele>
			</trkpt>
			<trkpt lat="45.535168" lon="25.620949">
				<ele>1293.000000</ele>
			</trkpt>
			<trkpt lat="45.535156" lon="25.620769">
				<ele>1286.000000</ele>
			</trkpt>
			<trkpt lat="45.535144" lon="25.620608">
				<ele>1280.000000</ele>
			</trkpt>
			<trkpt lat="45.535187" lon="25.620473">
				<ele>1276.000000</ele>
			</trkpt>
			<trkpt lat="45.535237" lon="25.620329">
				<ele>1272.000000</ele>
			</trkpt>
			<trkpt lat="45.535269" lon="25.620186">
				<ele>1267.000000</ele>
			</trkpt>
			<trkpt lat="45.535263" lon="25.620042">
				<ele>1262.000000</ele>
			</trkpt>
			<trkpt lat="45.535263" lon="25.619853">
				<ele>1256.000000</ele>
			</trkpt>
			<trkpt lat="45.535225" lon="25.619746">
				<ele>1252.000000</ele>
			</trkpt>
			<trkpt lat="45.535219" lon="25.619683">
				<ele>1251.000000</ele>
			</trkpt>
			<trkpt lat="45.535219" lon="25.619629">
				<ele>1249.000000</ele>
			</trkpt>
			<trkpt lat="45.535263" lon="25.619539">
				<ele>1247.000000</ele>
			</trkpt>
			<trkpt lat="45.535276" lon="25.619359">
				<ele>1242.000000</ele>
			</trkpt>
			<trkpt lat="45.535282" lon="25.619224">
				<ele>1240.000000</ele>
			</trkpt>
			<trkpt lat="45.535276" lon="25.619090">
				<ele>1238.000000</ele>
			</trkpt>
			<trkpt lat="45.535294" lon="25.618981">
				<ele>1236.000000</ele>
			</trkpt>
			<trkpt lat="45.535364" lon="25.618865">
				<ele>1232.000000</ele>
			</trkpt>
			<trkpt lat="45.535376" lon="25.618748">
				<ele>1230.000000</ele>
			</trkpt>
			<trkpt lat="45.535370" lon="25.618641">
				<ele>1228.000000</ele>
			</trkpt>
			<trkpt lat="45.535364" lon="25.618541">
				<ele>1227.000000</ele>
			</trkpt>
			<trkpt lat="45.535319" lon="25.618461">
				<ele>1227.000000</ele>
			</trkpt>
			<trkpt lat="45.535237" lon="25.618362">
				<ele>1228.000000</ele>
			</trkpt>
			<trkpt lat="45.535237" lon="25.618173">
				<ele>1227.000000</ele>
			</trkpt>
			<trkpt lat="45.535339" lon="25.617725">
				<ele>1222.000000</ele>
			</trkpt>
			<trkpt lat="45.535294" lon="25.617409">
				<ele>1220.000000</ele>
			</trkpt>
			<trkpt lat="45.535181" lon="25.616996">
				<ele>1219.000000</ele>
			</trkpt>
			<trkpt lat="45.535144" lon="25.616296">
				<ele>1215.000000</ele>
			</trkpt>
			<trkpt lat="45.535200" lon="25.615874">
				<ele>1211.000000</ele>
			</trkpt>
			<trkpt lat="45.535144" lon="25.615281">
				<ele>1206.000000</ele>
			</trkpt>
			<trkpt lat="45.535042" lon="25.614840">
				<ele>1205.000000</ele>
			</trkpt>
			<trkpt lat="45.535018" lon="25.614742">
				<ele>1204.000000</ele>
			</trkpt>
			<trkpt lat="45.534917" lon="25.614454">
				<ele>1203.000000</ele>
			</trkpt>
			<trkpt lat="45.534828" lon="25.614247">
				<ele>1202.000000</ele>
			</trkpt>
			<trkpt lat="45.534810" lon="25.614104">
				<ele>1202.000000</ele>
			</trkpt>
			<trkpt lat="45.534835" lon="25.614023">
				<ele>1200.000000</ele>
			</trkpt>
			<trkpt lat="45.534904" lon="25.613960">
				<ele>1198.000000</ele>
			</trkpt>
			<trkpt lat="45.534986" lon="25.613960">
				<ele>1198.000000</ele>
			</trkpt>
			<trkpt lat="45.535068" lon="25.613996">
				<ele>1197.000000</ele>
			</trkpt>
			<trkpt lat="45.535168" lon="25.614059">
				<ele>1197.000000</ele>
			</trkpt>
			<trkpt lat="45.535250" lon="25.614094">
				<ele>1196.000000</ele>
			</trkpt>
			<trkpt lat="45.535301" lon="25.614140">
				<ele>1196.000000</ele>
			</trkpt>
			<trkpt lat="45.535332" lon="25.614184">
				<ele>1196.000000</ele>
			</trkpt>
			<trkpt lat="45.535364" lon="25.614247">
				<ele>1196.000000</ele>
			</trkpt>
			<trkpt lat="45.535408" lon="25.614427">
				<ele>1195.000000</ele>
			</trkpt>
			<trkpt lat="45.535458" lon="25.614715">
				<ele>1194.000000</ele>
			</trkpt>
			<trkpt lat="45.535521" lon="25.614985">
				<ele>1192.000000</ele>
			</trkpt>
			<trkpt lat="45.535615" lon="25.615173">
				<ele>1191.000000</ele>
			</trkpt>
			<trkpt lat="45.535722" lon="25.615272">
				<ele>1193.000000</ele>
			</trkpt>
			<trkpt lat="45.535823" lon="25.615289">
				<ele>1194.000000</ele>
			</trkpt>
			<trkpt lat="45.535880" lon="25.615272">
				<ele>1196.000000</ele>
			</trkpt>
			<trkpt lat="45.535942" lon="25.615182">
				<ele>1198.000000</ele>
			</trkpt>
			<trkpt lat="45.535999" lon="25.615046">
				<ele>1200.000000</ele>
			</trkpt>
			<trkpt lat="45.536043" lon="25.614840">
				<ele>1203.000000</ele>
			</trkpt>
			<trkpt lat="45.536050" lon="25.614419">
				<ele>1207.000000</ele>
			</trkpt>
			<trkpt lat="45.536024" lon="25.614203">
				<ele>1207.000000</ele>
			</trkpt>
			<trkpt lat="45.535986" lon="25.613943">
				<ele>1208.000000</ele>
			</trkpt>
			<trkpt lat="45.535899" lon="25.613744">
				<ele>1204.000000</ele>
			</trkpt>
			<trkpt lat="45.535779" lon="25.613493">
				<ele>1199.000000</ele>
			</trkpt>
			<trkpt lat="45.535747" lon="25.613295">
				<ele>1198.000000</ele>
			</trkpt>
			<trkpt lat="45.535704" lon="25.613052">
				<ele>1194.000000</ele>
			</trkpt>
			<trkpt lat="45.535622" lon="25.612811">
				<ele>1187.000000</ele>
			</trkpt>
			<trkpt lat="45.535514" lon="25.612568">
				<ele>1180.000000</ele>
			</trkpt>
			<trkpt lat="45.535502" lon="25.612352">
				<ele>1178.000000</ele>
			</trkpt>
			<trkpt lat="45.535490" lon="25.612038">
				<ele>1175.000000</ele>
			</trkpt>
			<trkpt lat="45.535496" lon="25.611633">
				<ele>1172.000000</ele>
			</trkpt>
			<trkpt lat="45.535514" lon="25.611320">
				<ele>1172.000000</ele>
			</trkpt>
			<trkpt lat="45.535471" lon="25.611113">
				<ele>1169.000000</ele>
			</trkpt>
			<trkpt lat="45.535351" lon="25.610771">
				<ele>1168.000000</ele>
			</trkpt>
			<trkpt lat="45.535237" lon="25.610538">
				<ele>1165.000000</ele>
			</trkpt>
			<trkpt lat="45.535105" lon="25.610367">
				<ele>1163.000000</ele>
			</trkpt>
			<trkpt lat="45.534973" lon="25.610214">
				<ele>1161.000000</ele>
			</trkpt>
			<trkpt lat="45.534854" lon="25.610106">
				<ele>1159.000000</ele>
			</trkpt>
			<trkpt lat="45.534709" lon="25.610025">
				<ele>1156.000000</ele>
			</trkpt>
			<trkpt lat="45.534609" lon="25.609989">
				<ele>1153.000000</ele>
			</trkpt>
			<trkpt lat="45.534489" lon="25.609954">
				<ele>1150.000000</ele>
			</trkpt>
			<trkpt lat="45.534395" lon="25.609936">
				<ele>1147.000000</ele>
			</trkpt>
			<trkpt lat="45.534326" lon="25.609909">
				<ele>1146.000000</ele>
			</trkpt>
			<trkpt lat="45.534287" lon="25.609882">
				<ele>1145.000000</ele>
			</trkpt>
			<trkpt lat="45.534244" lon="25.609828">
				<ele>1144.000000</ele>
			</trkpt>
			<trkpt lat="45.534225" lon="25.609775">
				<ele>1144.000000</ele>
			</trkpt>
			<trkpt lat="45.534212" lon="25.609702">
				<ele>1144.000000</ele>
			</trkpt>
			<trkpt lat="45.534124" lon="25.609926">
				<ele>1140.000000</ele>
			</trkpt>
			<trkpt lat="45.534030" lon="25.610044">
				<ele>1139.000000</ele>
			</trkpt>
			<trkpt lat="45.533929" lon="25.610169">
				<ele>1141.000000</ele>
			</trkpt>
			<trkpt lat="45.533841" lon="25.610161">
				<ele>1140.000000</ele>
			</trkpt>
			<trkpt lat="45.533784" lon="25.610268">
				<ele>1142.000000</ele>
			</trkpt>
			<trkpt lat="45.533784" lon="25.610268">
				<ele>1142.000000</ele>
			</trkpt>
			<trkpt lat="45.533841" lon="25.610161">
				<ele>1140.000000</ele>
			</trkpt>
			<trkpt lat="45.533929" lon="25.610169">
				<ele>1141.000000</ele>
			</trkpt>
			<trkpt lat="45.534030" lon="25.610044">
				<ele>1139.000000</ele>
			</trkpt>
			<trkpt lat="45.534162" lon="25.610188">
				<ele>1140.000000</ele>
			</trkpt>
			<trkpt lat="45.534168" lon="25.610322">
				<ele>1140.000000</ele>
			</trkpt>
			<trkpt lat="45.534212" lon="25.610412">
				<ele>1140.000000</ele>
			</trkpt>
			<trkpt lat="45.534093" lon="25.610375">
				<ele>1142.000000</ele>
			</trkpt>
			<trkpt lat="45.533986" lon="25.610341">
				<ele>1144.000000</ele>
			</trkpt>
			<trkpt lat="45.533878" lon="25.610412">
				<ele>1147.000000</ele>
			</trkpt>
			<trkpt lat="45.533809" lon="25.610484">
				<ele>1149.000000</ele>
			</trkpt>
			<trkpt lat="45.533809" lon="25.610484">
				<ele>1154.000000</ele>
			</trkpt>
			<trkpt lat="45.533809" lon="25.610484">
				<ele>1154.000000</ele>
			</trkpt>
			<trkpt lat="45.533809" lon="25.610484">
				<ele>1149.000000</ele>
			</trkpt>
			<trkpt lat="45.533878" lon="25.610412">
				<ele>1147.000000</ele>
			</trkpt>
			<trkpt lat="45.533986" lon="25.610341">
				<ele>1144.000000</ele>
			</trkpt>
			<trkpt lat="45.534093" lon="25.610375">
				<ele>1142.000000</ele>
			</trkpt>
			<trkpt lat="45.534212" lon="25.610412">
				<ele>1140.000000</ele>
			</trkpt>
			<trkpt lat="45.534168" lon="25.610322">
				<ele>1140.000000</ele>
			</trkpt>
			<trkpt lat="45.534162" lon="25.610188">
				<ele>1140.000000</ele>
			</trkpt>
			<trkpt lat="45.534030" lon="25.610044">
				<ele>1139.000000</ele>
			</trkpt>
			<trkpt lat="45.534124" lon="25.609926">
				<ele>1140.000000</ele>
			</trkpt>
			<trkpt lat="45.534212" lon="25.609702">
				<ele>1144.000000</ele>
			</trkpt>
			<trkpt lat="45.534193" lon="25.609603">
				<ele>1143.000000</ele>
			</trkpt>
			<trkpt lat="45.534168" lon="25.609415">
				<ele>1143.000000</ele>
			</trkpt>
			<trkpt lat="45.534105" lon="25.609235">
				<ele>1141.000000</ele>
			</trkpt>
			<trkpt lat="45.534017" lon="25.609056">
				<ele>1138.000000</ele>
			</trkpt>
			<trkpt lat="45.533904" lon="25.608876">
				<ele>1136.000000</ele>
			</trkpt>
			<trkpt lat="45.533828" lon="25.608794">
				<ele>1135.000000</ele>
			</trkpt>
			<trkpt lat="45.533721" lon="25.608723">
				<ele>1133.000000</ele>
			</trkpt>
			<trkpt lat="45.533621" lon="25.608624">
				<ele>1133.000000</ele>
			</trkpt>
			<trkpt lat="45.533646" lon="25.608517">
				<ele>1133.000000</ele>
			</trkpt>
			<trkpt lat="45.533545" lon="25.608157">
				<ele>1130.000000</ele>
			</trkpt>
			<trkpt lat="45.533450" lon="25.607771">
				<ele>1122.000000</ele>
			</trkpt>
			<trkpt lat="45.533457" lon="25.607636">
				<ele>1118.000000</ele>
			</trkpt>
			<trkpt lat="45.533469" lon="25.607528">
				<ele>1114.000000</ele>
			</trkpt>
			<trkpt lat="45.533469" lon="25.607475">
				<ele>1112.000000</ele>
			</trkpt>
			<trkpt lat="45.533463" lon="25.607385">
				<ele>1110.000000</ele>
			</trkpt>
			<trkpt lat="45.533369" lon="25.607186">
				<ele>1110.000000</ele>
			</trkpt>
			<trkpt lat="45.533275" lon="25.606836">
				<ele>1105.000000</ele>
			</trkpt>
			<trkpt lat="45.533174" lon="25.606504">
				<ele>1102.000000</ele>
			</trkpt>
			<trkpt lat="45.532998" lon="25.606064">
				<ele>1099.000000</ele>
			</trkpt>
			<trkpt lat="45.532891" lon="25.605785">
				<ele>1094.000000</ele>
			</trkpt>
			<trkpt lat="45.532746" lon="25.605391">
				<ele>1087.000000</ele>
			</trkpt>
			<trkpt lat="45.532689" lon="25.605157">
				<ele>1081.000000</ele>
			</trkpt>
			<trkpt lat="45.532576" lon="25.605067">
				<ele>1079.000000</ele>
			</trkpt>
			<trkpt lat="45.532387" lon="25.604842">
				<ele>1075.000000</ele>
			</trkpt>
			<trkpt lat="45.532312" lon="25.604689">
				<ele>1073.000000</ele>
			</trkpt>
			<trkpt lat="45.532211" lon="25.604599">
				<ele>1072.000000</ele>
			</trkpt>
			<trkpt lat="45.532060" lon="25.604402">
				<ele>1071.000000</ele>
			</trkpt>
			<trkpt lat="45.531922" lon="25.604025">
				<ele>1069.000000</ele>
			</trkpt>
			<trkpt lat="45.531802" lon="25.603756">
				<ele>1067.000000</ele>
			</trkpt>
			<trkpt lat="45.531771" lon="25.602928">
				<ele>1055.000000</ele>
			</trkpt>
			<trkpt lat="45.531802" lon="25.602452">
				<ele>1046.000000</ele>
			</trkpt>
			<trkpt lat="45.531827" lon="25.602058">
				<ele>1038.000000</ele>
			</trkpt>
			<trkpt lat="45.531922" lon="25.601735">
				<ele>1029.000000</ele>
			</trkpt>
			<trkpt lat="45.532098" lon="25.601563">
				<ele>1023.000000</ele>
			</trkpt>
			<trkpt lat="45.532262" lon="25.601267">
				<ele>1015.000000</ele>
			</trkpt>
			<trkpt lat="45.532400" lon="25.600997">
				<ele>1008.000000</ele>
			</trkpt>
			<trkpt lat="45.532671" lon="25.600782">
				<ele>1001.000000</ele>
			</trkpt>
			<trkpt lat="45.532771" lon="25.600630">
				<ele>998.000000</ele>
			</trkpt>
			<trkpt lat="45.532784" lon="25.600611">
				<ele>998.000000</ele>
			</trkpt>
			<trkpt lat="45.532872" lon="25.600431">
				<ele>996.000000</ele>
			</trkpt>
			<trkpt lat="45.533004" lon="25.600243">
				<ele>994.000000</ele>
			</trkpt>
			<trkpt lat="45.533098" lon="25.600009">
				<ele>991.000000</ele>
			</trkpt>
			<trkpt lat="45.533104" lon="25.599677">
				<ele>988.000000</ele>
			</trkpt>
			<trkpt lat="45.533060" lon="25.599236">
				<ele>983.000000</ele>
			</trkpt>
			<trkpt lat="45.533092" lon="25.598859">
				<ele>980.000000</ele>
			</trkpt>
			<trkpt lat="45.533130" lon="25.598500">
				<ele>978.000000</ele>
			</trkpt>
			<trkpt lat="45.533067" lon="25.598267">
				<ele>976.000000</ele>
			</trkpt>
			<trkpt lat="45.533142" lon="25.597880">
				<ele>970.000000</ele>
			</trkpt>
			<trkpt lat="45.533394" lon="25.597448">
				<ele>961.000000</ele>
			</trkpt>
			<trkpt lat="45.533450" lon="25.597215">
				<ele>957.000000</ele>
			</trkpt>
			<trkpt lat="45.533608" lon="25.596875">
				<ele>953.000000</ele>
			</trkpt>
			<trkpt lat="45.533766" lon="25.596515">
				<ele>949.000000</ele>
			</trkpt>
			<trkpt lat="45.533796" lon="25.596372">
				<ele>948.000000</ele>
			</trkpt>
			<trkpt lat="45.533809" lon="25.595967">
				<ele>947.000000</ele>
			</trkpt>
			<trkpt lat="45.533853" lon="25.595454">
				<ele>942.000000</ele>
			</trkpt>
			<trkpt lat="45.533935" lon="25.595014">
				<ele>936.000000</ele>
			</trkpt>
			<trkpt lat="45.534011" lon="25.594701">
				<ele>932.000000</ele>
			</trkpt>
			<trkpt lat="45.534199" lon="25.594404">
				<ele>931.000000</ele>
			</trkpt>
			<trkpt lat="45.534313" lon="25.594215">
				<ele>930.000000</ele>
			</trkpt>
			<trkpt lat="45.534501" lon="25.593964">
				<ele>927.000000</ele>
			</trkpt>
			<trkpt lat="45.534798" lon="25.593542">
				<ele>922.000000</ele>
			</trkpt>
			<trkpt lat="45.534904" lon="25.593173">
				<ele>922.000000</ele>
			</trkpt>
			<trkpt lat="45.535081" lon="25.592661">
				<ele>917.000000</ele>
			</trkpt>
			<trkpt lat="45.535257" lon="25.592230">
				<ele>909.000000</ele>
			</trkpt>
			<trkpt lat="45.535364" lon="25.591924">
				<ele>904.000000</ele>
			</trkpt>
			<trkpt lat="45.535508" lon="25.591493">
				<ele>895.000000</ele>
			</trkpt>
			<trkpt lat="45.535615" lon="25.591080">
				<ele>887.000000</ele>
			</trkpt>
			<trkpt lat="45.535710" lon="25.590748">
				<ele>882.000000</ele>
			</trkpt>
			<trkpt lat="45.535905" lon="25.590380">
				<ele>876.000000</ele>
			</trkpt>
			<trkpt lat="45.536163" lon="25.589957">
				<ele>869.000000</ele>
			</trkpt>
			<trkpt lat="45.536377" lon="25.589760">
				<ele>865.000000</ele>
			</trkpt>
			<trkpt lat="45.536465" lon="25.589678">
				<ele>863.000000</ele>
			</trkpt>
			<trkpt lat="45.536572" lon="25.589571">
				<ele>859.000000</ele>
			</trkpt>
			<trkpt lat="45.536742" lon="25.589364">
				<ele>849.000000</ele>
			</trkpt>
			<trkpt lat="45.536823" lon="25.589257">
				<ele>844.000000</ele>
			</trkpt>
			<trkpt lat="45.536949" lon="25.589158">
				<ele>838.000000</ele>
			</trkpt>
			<trkpt lat="45.537056" lon="25.589122">
				<ele>835.000000</ele>
			</trkpt>
			<trkpt lat="45.537157" lon="25.589131">
				<ele>833.000000</ele>
			</trkpt>
			<trkpt lat="45.537283" lon="25.589167">
				<ele>830.000000</ele>
			</trkpt>
			<trkpt lat="45.537459" lon="25.589257">
				<ele>826.000000</ele>
			</trkpt>
			<trkpt lat="45.537572" lon="25.589355">
				<ele>825.000000</ele>
			</trkpt>
			<trkpt lat="45.537780" lon="25.589248">
				<ele>822.000000</ele>
			</trkpt>
			<trkpt lat="45.537893" lon="25.589194">
				<ele>821.000000</ele>
			</trkpt>
			<trkpt lat="45.538006" lon="25.589158">
				<ele>821.000000</ele>
			</trkpt>
			<trkpt lat="45.538151" lon="25.589158">
				<ele>820.000000</ele>
			</trkpt>
			<trkpt lat="45.538333" lon="25.589194">
				<ele>819.000000</ele>
			</trkpt>
			<trkpt lat="45.538441" lon="25.589248">
				<ele>818.000000</ele>
			</trkpt>
			<trkpt lat="45.538547" lon="25.589301">
				<ele>816.000000</ele>
			</trkpt>
			<trkpt lat="45.538610" lon="25.589328">
				<ele>815.000000</ele>
			</trkpt>
			<trkpt lat="45.538667" lon="25.589337">
				<ele>814.000000</ele>
			</trkpt>
			<trkpt lat="45.538711" lon="25.589319">
				<ele>813.000000</ele>
			</trkpt>
			<trkpt lat="45.538755" lon="25.589284">
				<ele>813.000000</ele>
			</trkpt>
			<trkpt lat="45.538799" lon="25.589211">
				<ele>812.000000</ele>
			</trkpt>
			<trkpt lat="45.538869" lon="25.588978">
				<ele>812.000000</ele>
			</trkpt>
			<trkpt lat="45.538944" lon="25.588709">
				<ele>813.000000</ele>
			</trkpt>
			<trkpt lat="45.539007" lon="25.588430">
				<ele>815.000000</ele>
			</trkpt>
			<trkpt lat="45.539139" lon="25.588456">
				<ele>816.000000</ele>
			</trkpt>
		</trkseg>
	</trk>
</gpx>

