<?xml version="1.0" encoding="UTF-8"?>
<gpx creator="Wikiloc - https://www.wikiloc.com" version="1.1" xmlns="http://www.topografix.com/GPX/1/1" xmlns:xsi="http://www.w3.org/2001/XMLSchema-instance" xsi:schemaLocation="http://www.topografix.com/GPX/1/1 http://www.topografix.com/GPX/1/1/gpx.xsd">
  <metadata>
    <name>Wikiloc - Cabana Dochia - Varful Batca lui Ghedeon - varful Ocolasul Mare</name>
    <author>
      <name>Toni Grecu</name>
      <link href="https://www.wikiloc.com/wikiloc/user.do?id=2082631">
        <text>Toni Grecu on Wikiloc</text>
      </link>
    </author>
    <link href="https://www.wikiloc.com/hiking-trails/cabana-dochia-17982348">
      <text>Cabana Dochia - Varful Batca lui Ghedeon - varful Ocolasul Mare on Wikiloc</text>
    </link>
    <time>2017-05-27T17:06:11Z</time>
  </metadata>
  <trk>
    <name>Cabana Dochia - Varful Batca lui Ghedeon - varful Ocolasul Mare - Wikiloc</name>
    <cmt>Cabana Dochia - Varful Batca lui Ghedeon - vârful Ocolașul Mare</cmt>
    <desc>Cabana Dochia - Varful Batca lui Ghedeon - vârful Ocolașul Mare</desc>
    <trkseg>
      <trkpt lat="46.965038" lon="25.948661">
        <ele>1805.049</ele>
        <time>2017-05-27T15:59:31Z</time>
      </trkpt>
      <trkpt lat="46.964969" lon="25.948553">
        <ele>1804.002</ele>
        <time>2017-05-27T15:59:42Z</time>
      </trkpt>
      <trkpt lat="46.964890" lon="25.948467">
        <ele>1803.022</ele>
        <time>2017-05-27T15:59:50Z</time>
      </trkpt>
      <trkpt lat="46.964807" lon="25.948399">
        <ele>1805.008</ele>
        <time>2017-05-27T15:59:57Z</time>
      </trkpt>
      <trkpt lat="46.964727" lon="25.948315">
        <ele>1803.075</ele>
        <time>2017-05-27T16:00:03Z</time>
      </trkpt>
      <trkpt lat="46.964642" lon="25.948256">
        <ele>1803.041</ele>
        <time>2017-05-27T16:00:10Z</time>
      </trkpt>
      <trkpt lat="46.964583" lon="25.948135">
        <ele>1803.053</ele>
        <time>2017-05-27T16:00:18Z</time>
      </trkpt>
      <trkpt lat="46.964515" lon="25.948012">
        <ele>1806.072</ele>
        <time>2017-05-27T16:00:29Z</time>
      </trkpt>
      <trkpt lat="46.964459" lon="25.947897">
        <ele>1809.056</ele>
        <time>2017-05-27T16:00:38Z</time>
      </trkpt>
      <trkpt lat="46.964427" lon="25.947768">
        <ele>1811.017</ele>
        <time>2017-05-27T16:00:47Z</time>
      </trkpt>
      <trkpt lat="46.964408" lon="25.947632">
        <ele>1812.048</ele>
        <time>2017-05-27T16:00:58Z</time>
      </trkpt>
      <trkpt lat="46.964360" lon="25.947516">
        <ele>1813.022</ele>
        <time>2017-05-27T16:01:19Z</time>
      </trkpt>
      <trkpt lat="46.964312" lon="25.947397">
        <ele>1816.036</ele>
        <time>2017-05-27T16:01:29Z</time>
      </trkpt>
      <trkpt lat="46.964273" lon="25.947269">
        <ele>1817.017</ele>
        <time>2017-05-27T16:01:39Z</time>
      </trkpt>
      <trkpt lat="46.964264" lon="25.947123">
        <ele>1819.018</ele>
        <time>2017-05-27T16:01:54Z</time>
      </trkpt>
      <trkpt lat="46.964256" lon="25.946971">
        <ele>1817.008</ele>
        <time>2017-05-27T16:02:10Z</time>
      </trkpt>
      <trkpt lat="46.964246" lon="25.946822">
        <ele>1819.054</ele>
        <time>2017-05-27T16:02:24Z</time>
      </trkpt>
      <trkpt lat="46.964199" lon="25.946693">
        <ele>1820.090</ele>
        <time>2017-05-27T16:02:36Z</time>
      </trkpt>
      <trkpt lat="46.964130" lon="25.946595">
        <ele>1820.042</ele>
        <time>2017-05-27T16:02:49Z</time>
      </trkpt>
      <trkpt lat="46.964076" lon="25.946483">
        <ele>1822.071</ele>
        <time>2017-05-27T16:02:58Z</time>
      </trkpt>
      <trkpt lat="46.964014" lon="25.946384">
        <ele>1824.045</ele>
        <time>2017-05-27T16:03:10Z</time>
      </trkpt>
      <trkpt lat="46.963932" lon="25.946297">
        <ele>1826.096</ele>
        <time>2017-05-27T16:03:19Z</time>
      </trkpt>
      <trkpt lat="46.963843" lon="25.946243">
        <ele>1826.017</ele>
        <time>2017-05-27T16:03:31Z</time>
      </trkpt>
      <trkpt lat="46.963771" lon="25.946164">
        <ele>1829.051</ele>
        <time>2017-05-27T16:03:42Z</time>
      </trkpt>
      <trkpt lat="46.963693" lon="25.946077">
        <ele>1831.051</ele>
        <time>2017-05-27T16:03:52Z</time>
      </trkpt>
      <trkpt lat="46.963622" lon="25.945982">
        <ele>1831.001</ele>
        <time>2017-05-27T16:04:02Z</time>
      </trkpt>
      <trkpt lat="46.963550" lon="25.945879">
        <ele>1834.011</ele>
        <time>2017-05-27T16:04:11Z</time>
      </trkpt>
      <trkpt lat="46.963484" lon="25.945787">
        <ele>1836.008</ele>
        <time>2017-05-27T16:04:19Z</time>
      </trkpt>
      <trkpt lat="46.963406" lon="25.945706">
        <ele>1837.046</ele>
        <time>2017-05-27T16:05:00Z</time>
      </trkpt>
      <trkpt lat="46.963342" lon="25.945598">
        <ele>1838.082</ele>
        <time>2017-05-27T16:05:12Z</time>
      </trkpt>
      <trkpt lat="46.963263" lon="25.945510">
        <ele>1839.014</ele>
        <time>2017-05-27T16:05:19Z</time>
      </trkpt>
      <trkpt lat="46.963193" lon="25.945416">
        <ele>1841.013</ele>
        <time>2017-05-27T16:05:31Z</time>
      </trkpt>
      <trkpt lat="46.963126" lon="25.945319">
        <ele>1843.057</ele>
        <time>2017-05-27T16:05:42Z</time>
      </trkpt>
      <trkpt lat="46.963041" lon="25.945235">
        <ele>1845.068</ele>
        <time>2017-05-27T16:05:55Z</time>
      </trkpt>
      <trkpt lat="46.962954" lon="25.945174">
        <ele>1848.029</ele>
        <time>2017-05-27T16:06:07Z</time>
      </trkpt>
      <trkpt lat="46.962882" lon="25.945082">
        <ele>1849.083</ele>
        <time>2017-05-27T16:06:47Z</time>
      </trkpt>
      <trkpt lat="46.962798" lon="25.945025">
        <ele>1852.064</ele>
        <time>2017-05-27T16:06:55Z</time>
      </trkpt>
      <trkpt lat="46.962704" lon="25.945024">
        <ele>1853.006</ele>
        <time>2017-05-27T16:07:04Z</time>
      </trkpt>
      <trkpt lat="46.962606" lon="25.945046">
        <ele>1854.016</ele>
        <time>2017-05-27T16:07:25Z</time>
      </trkpt>
      <trkpt lat="46.962517" lon="25.945020">
        <ele>1857.008</ele>
        <time>2017-05-27T16:07:45Z</time>
      </trkpt>
      <trkpt lat="46.962436" lon="25.944956">
        <ele>1860.057</ele>
        <time>2017-05-27T16:08:01Z</time>
      </trkpt>
      <trkpt lat="46.962348" lon="25.944899">
        <ele>1863.053</ele>
        <time>2017-05-27T16:08:25Z</time>
      </trkpt>
      <trkpt lat="46.962272" lon="25.944826">
        <ele>1866.025</ele>
        <time>2017-05-27T16:08:42Z</time>
      </trkpt>
      <trkpt lat="46.962184" lon="25.944777">
        <ele>1868.084</ele>
        <time>2017-05-27T16:09:03Z</time>
      </trkpt>
      <trkpt lat="46.962176" lon="25.944635">
        <ele>1873.068</ele>
        <time>2017-05-27T16:09:15Z</time>
      </trkpt>
      <trkpt lat="46.962143" lon="25.944511">
        <ele>1873.039</ele>
        <time>2017-05-27T16:09:26Z</time>
      </trkpt>
      <trkpt lat="46.962076" lon="25.944407">
        <ele>1875.030</ele>
        <time>2017-05-27T16:09:36Z</time>
      </trkpt>
      <trkpt lat="46.961994" lon="25.944323">
        <ele>1877.044</ele>
        <time>2017-05-27T16:09:50Z</time>
      </trkpt>
      <trkpt lat="46.961919" lon="25.944228">
        <ele>1877.028</ele>
        <time>2017-05-27T16:10:04Z</time>
      </trkpt>
      <trkpt lat="46.961845" lon="25.944140">
        <ele>1877.089</ele>
        <time>2017-05-27T16:10:16Z</time>
      </trkpt>
      <trkpt lat="46.961761" lon="25.944088">
        <ele>1878.017</ele>
        <time>2017-05-27T16:10:27Z</time>
      </trkpt>
      <trkpt lat="46.961692" lon="25.943998">
        <ele>1878.008</ele>
        <time>2017-05-27T16:10:44Z</time>
      </trkpt>
      <trkpt lat="46.961614" lon="25.943904">
        <ele>1873.083</ele>
        <time>2017-05-27T16:11:06Z</time>
      </trkpt>
      <trkpt lat="46.961530" lon="25.943953">
        <ele>1870.099</ele>
        <time>2017-05-27T16:11:20Z</time>
      </trkpt>
      <trkpt lat="46.961407" lon="25.943987">
        <ele>1870.011</ele>
        <time>2017-05-27T16:11:26Z</time>
      </trkpt>
      <trkpt lat="46.961320" lon="25.943928">
        <ele>1866.070</ele>
        <time>2017-05-27T16:11:59Z</time>
      </trkpt>
      <trkpt lat="46.961228" lon="25.943910">
        <ele>1866.094</ele>
        <time>2017-05-27T16:12:09Z</time>
      </trkpt>
      <trkpt lat="46.961140" lon="25.943880">
        <ele>1863.025</ele>
        <time>2017-05-27T16:12:21Z</time>
      </trkpt>
      <trkpt lat="46.961031" lon="25.943903">
        <ele>1864.036</ele>
        <time>2017-05-27T16:12:29Z</time>
      </trkpt>
      <trkpt lat="46.960936" lon="25.943878">
        <ele>1866.010</ele>
        <time>2017-05-27T16:12:36Z</time>
      </trkpt>
      <trkpt lat="46.960842" lon="25.943862">
        <ele>1865.023</ele>
        <time>2017-05-27T16:12:43Z</time>
      </trkpt>
      <trkpt lat="46.960748" lon="25.943859">
        <ele>1864.083</ele>
        <time>2017-05-27T16:12:52Z</time>
      </trkpt>
      <trkpt lat="46.960669" lon="25.943784">
        <ele>1864.011</ele>
        <time>2017-05-27T16:13:04Z</time>
      </trkpt>
      <trkpt lat="46.960580" lon="25.943737">
        <ele>1861.008</ele>
        <time>2017-05-27T16:13:29Z</time>
      </trkpt>
      <trkpt lat="46.960485" lon="25.943743">
        <ele>1858.053</ele>
        <time>2017-05-27T16:13:39Z</time>
      </trkpt>
      <trkpt lat="46.960392" lon="25.943742">
        <ele>1854.069</ele>
        <time>2017-05-27T16:14:02Z</time>
      </trkpt>
      <trkpt lat="46.960302" lon="25.943691">
        <ele>1852.031</ele>
        <time>2017-05-27T16:14:13Z</time>
      </trkpt>
      <trkpt lat="46.960215" lon="25.943730">
        <ele>1849.010</ele>
        <time>2017-05-27T16:14:22Z</time>
      </trkpt>
      <trkpt lat="46.960122" lon="25.943736">
        <ele>1850.064</ele>
        <time>2017-05-27T16:14:32Z</time>
      </trkpt>
      <trkpt lat="46.960032" lon="25.943732">
        <ele>1851.075</ele>
        <time>2017-05-27T16:14:41Z</time>
      </trkpt>
      <trkpt lat="46.959942" lon="25.943680">
        <ele>1851.086</ele>
        <time>2017-05-27T16:14:49Z</time>
      </trkpt>
      <trkpt lat="46.959851" lon="25.943651">
        <ele>1852.070</ele>
        <time>2017-05-27T16:14:58Z</time>
      </trkpt>
      <trkpt lat="46.959758" lon="25.943623">
        <ele>1854.031</ele>
        <time>2017-05-27T16:15:09Z</time>
      </trkpt>
      <trkpt lat="46.959662" lon="25.943634">
        <ele>1851.061</ele>
        <time>2017-05-27T16:15:20Z</time>
      </trkpt>
      <trkpt lat="46.959571" lon="25.943684">
        <ele>1852.007</ele>
        <time>2017-05-27T16:15:37Z</time>
      </trkpt>
      <trkpt lat="46.959486" lon="25.943762">
        <ele>1849.008</ele>
        <time>2017-05-27T16:15:48Z</time>
      </trkpt>
      <trkpt lat="46.959392" lon="25.943752">
        <ele>1850.064</ele>
        <time>2017-05-27T16:15:58Z</time>
      </trkpt>
      <trkpt lat="46.959299" lon="25.943802">
        <ele>1847.060</ele>
        <time>2017-05-27T16:16:11Z</time>
      </trkpt>
      <trkpt lat="46.959207" lon="25.943833">
        <ele>1845.052</ele>
        <time>2017-05-27T16:16:21Z</time>
      </trkpt>
      <trkpt lat="46.959117" lon="25.943810">
        <ele>1847.061</ele>
        <time>2017-05-27T16:16:38Z</time>
      </trkpt>
      <trkpt lat="46.959027" lon="25.943811">
        <ele>1846.085</ele>
        <time>2017-05-27T16:16:53Z</time>
      </trkpt>
      <trkpt lat="46.958937" lon="25.943867">
        <ele>1845.046</ele>
        <time>2017-05-27T16:17:04Z</time>
      </trkpt>
      <trkpt lat="46.958869" lon="25.943961">
        <ele>1844.047</ele>
        <time>2017-05-27T16:17:14Z</time>
      </trkpt>
      <trkpt lat="46.958786" lon="25.944031">
        <ele>1843.051</ele>
        <time>2017-05-27T16:17:24Z</time>
      </trkpt>
      <trkpt lat="46.958703" lon="25.944113">
        <ele>1842.081</ele>
        <time>2017-05-27T16:17:36Z</time>
      </trkpt>
      <trkpt lat="46.958610" lon="25.944124">
        <ele>1841.061</ele>
        <time>2017-05-27T16:17:45Z</time>
      </trkpt>
      <trkpt lat="46.958520" lon="25.944146">
        <ele>1840.017</ele>
        <time>2017-05-27T16:17:52Z</time>
      </trkpt>
      <trkpt lat="46.958427" lon="25.944189">
        <ele>1842.008</ele>
        <time>2017-05-27T16:18:02Z</time>
      </trkpt>
      <trkpt lat="46.958336" lon="25.944212">
        <ele>1841.099</ele>
        <time>2017-05-27T16:18:13Z</time>
      </trkpt>
      <trkpt lat="46.958263" lon="25.944311">
        <ele>1841.095</ele>
        <time>2017-05-27T16:18:23Z</time>
      </trkpt>
      <trkpt lat="46.958171" lon="25.944352">
        <ele>1841.077</ele>
        <time>2017-05-27T16:18:34Z</time>
      </trkpt>
      <trkpt lat="46.958076" lon="25.944325">
        <ele>1842.016</ele>
        <time>2017-05-27T16:18:44Z</time>
      </trkpt>
      <trkpt lat="46.957998" lon="25.944246">
        <ele>1845.060</ele>
        <time>2017-05-27T16:18:56Z</time>
      </trkpt>
      <trkpt lat="46.957905" lon="25.944235">
        <ele>1846.021</ele>
        <time>2017-05-27T16:19:07Z</time>
      </trkpt>
      <trkpt lat="46.957830" lon="25.944318">
        <ele>1848.092</ele>
        <time>2017-05-27T16:19:20Z</time>
      </trkpt>
      <trkpt lat="46.957752" lon="25.944392">
        <ele>1849.026</ele>
        <time>2017-05-27T16:19:31Z</time>
      </trkpt>
      <trkpt lat="46.957663" lon="25.944448">
        <ele>1852.038</ele>
        <time>2017-05-27T16:20:29Z</time>
      </trkpt>
      <trkpt lat="46.957567" lon="25.944457">
        <ele>1852.070</ele>
        <time>2017-05-27T16:20:40Z</time>
      </trkpt>
      <trkpt lat="46.957488" lon="25.944523">
        <ele>1853.017</ele>
        <time>2017-05-27T16:20:51Z</time>
      </trkpt>
      <trkpt lat="46.957401" lon="25.944560">
        <ele>1854.008</ele>
        <time>2017-05-27T16:21:07Z</time>
      </trkpt>
      <trkpt lat="46.957306" lon="25.944551">
        <ele>1855.084</ele>
        <time>2017-05-27T16:21:49Z</time>
      </trkpt>
      <trkpt lat="46.957219" lon="25.944480">
        <ele>1858.080</ele>
        <time>2017-05-27T16:22:02Z</time>
      </trkpt>
      <trkpt lat="46.957132" lon="25.944448">
        <ele>1862.012</ele>
        <time>2017-05-27T16:22:14Z</time>
      </trkpt>
      <trkpt lat="46.957041" lon="25.944455">
        <ele>1863.091</ele>
        <time>2017-05-27T16:22:36Z</time>
      </trkpt>
      <trkpt lat="46.956984" lon="25.944334">
        <ele>1866.095</ele>
        <time>2017-05-27T16:22:59Z</time>
      </trkpt>
      <trkpt lat="46.956924" lon="25.944235">
        <ele>1868.016</ele>
        <time>2017-05-27T16:23:16Z</time>
      </trkpt>
      <trkpt lat="46.956880" lon="25.944120">
        <ele>1870.057</ele>
        <time>2017-05-27T16:23:34Z</time>
      </trkpt>
      <trkpt lat="46.956786" lon="25.944144">
        <ele>1875.061</ele>
        <time>2017-05-27T16:25:47Z</time>
      </trkpt>
      <trkpt lat="46.956710" lon="25.944217">
        <ele>1875.042</ele>
        <time>2017-05-27T16:25:56Z</time>
      </trkpt>
      <trkpt lat="46.956635" lon="25.944291">
        <ele>1875.022</ele>
        <time>2017-05-27T16:26:06Z</time>
      </trkpt>
      <trkpt lat="46.956539" lon="25.944315">
        <ele>1876.014</ele>
        <time>2017-05-27T16:26:17Z</time>
      </trkpt>
      <trkpt lat="46.956449" lon="25.944341">
        <ele>1878.008</ele>
        <time>2017-05-27T16:26:28Z</time>
      </trkpt>
      <trkpt lat="46.956356" lon="25.944332">
        <ele>1880.035</ele>
        <time>2017-05-27T16:26:43Z</time>
      </trkpt>
      <trkpt lat="46.956265" lon="25.944321">
        <ele>1884.041</ele>
        <time>2017-05-27T16:27:04Z</time>
      </trkpt>
      <trkpt lat="46.956165" lon="25.944314">
        <ele>1884.093</ele>
        <time>2017-05-27T16:27:18Z</time>
      </trkpt>
      <trkpt lat="46.956067" lon="25.944296">
        <ele>1888.052</ele>
        <time>2017-05-27T16:27:33Z</time>
      </trkpt>
      <trkpt lat="46.955979" lon="25.944261">
        <ele>1892.096</ele>
        <time>2017-05-27T16:27:49Z</time>
      </trkpt>
      <trkpt lat="46.955879" lon="25.944283">
        <ele>1895.047</ele>
        <time>2017-05-27T16:28:05Z</time>
      </trkpt>
      <trkpt lat="46.955792" lon="25.944316">
        <ele>1897.028</ele>
        <time>2017-05-27T16:28:41Z</time>
      </trkpt>
      <trkpt lat="46.955697" lon="25.944340">
        <ele>1894.012</ele>
        <time>2017-05-27T16:28:59Z</time>
      </trkpt>
      <trkpt lat="46.955611" lon="25.944378">
        <ele>1894.029</ele>
        <time>2017-05-27T16:29:10Z</time>
      </trkpt>
      <trkpt lat="46.955515" lon="25.944390">
        <ele>1895.000</ele>
        <time>2017-05-27T16:29:22Z</time>
      </trkpt>
      <trkpt lat="46.955424" lon="25.944375">
        <ele>1899.020</ele>
        <time>2017-05-27T16:29:42Z</time>
      </trkpt>
      <trkpt lat="46.955333" lon="25.944386">
        <ele>1899.008</ele>
        <time>2017-05-27T16:29:51Z</time>
      </trkpt>
      <trkpt lat="46.955241" lon="25.944410">
        <ele>1900.043</ele>
        <time>2017-05-27T16:30:00Z</time>
      </trkpt>
      <trkpt lat="46.955165" lon="25.944491">
        <ele>1900.049</ele>
        <time>2017-05-27T16:30:08Z</time>
      </trkpt>
      <trkpt lat="46.955086" lon="25.944556">
        <ele>1902.041</ele>
        <time>2017-05-27T16:30:18Z</time>
      </trkpt>
      <trkpt lat="46.954996" lon="25.944608">
        <ele>1902.080</ele>
        <time>2017-05-27T16:30:32Z</time>
      </trkpt>
      <trkpt lat="46.954919" lon="25.944682">
        <ele>1904.014</ele>
        <time>2017-05-27T16:30:43Z</time>
      </trkpt>
      <trkpt lat="46.954829" lon="25.944741">
        <ele>1905.035</ele>
        <time>2017-05-27T16:31:13Z</time>
      </trkpt>
      <trkpt lat="46.954747" lon="25.944813">
        <ele>1904.076</ele>
        <time>2017-05-27T16:31:23Z</time>
      </trkpt>
      <trkpt lat="46.954656" lon="25.944850">
        <ele>1906.070</ele>
        <time>2017-05-27T16:31:33Z</time>
      </trkpt>
      <trkpt lat="46.954565" lon="25.944828">
        <ele>1905.056</ele>
        <time>2017-05-27T16:31:44Z</time>
      </trkpt>
      <trkpt lat="46.954485" lon="25.944904">
        <ele>1904.059</ele>
        <time>2017-05-27T16:31:55Z</time>
      </trkpt>
      <trkpt lat="46.954402" lon="25.944978">
        <ele>1908.014</ele>
        <time>2017-05-27T16:32:24Z</time>
      </trkpt>
      <trkpt lat="46.954314" lon="25.945048">
        <ele>1910.008</ele>
        <time>2017-05-27T16:32:32Z</time>
      </trkpt>
      <trkpt lat="46.954215" lon="25.945071">
        <ele>1911.046</ele>
        <time>2017-05-27T16:32:42Z</time>
      </trkpt>
      <trkpt lat="46.954132" lon="25.945129">
        <ele>1912.072</ele>
        <time>2017-05-27T16:32:53Z</time>
      </trkpt>
      <trkpt lat="46.954043" lon="25.945185">
        <ele>1912.014</ele>
        <time>2017-05-27T16:33:06Z</time>
      </trkpt>
      <trkpt lat="46.953962" lon="25.945266">
        <ele>1912.043</ele>
        <time>2017-05-27T16:33:20Z</time>
      </trkpt>
      <trkpt lat="46.953880" lon="25.945321">
        <ele>1914.077</ele>
        <time>2017-05-27T16:33:32Z</time>
      </trkpt>
      <trkpt lat="46.953790" lon="25.945345">
        <ele>1916.098</ele>
        <time>2017-05-27T16:33:42Z</time>
      </trkpt>
      <trkpt lat="46.953723" lon="25.945434">
        <ele>1918.099</ele>
        <time>2017-05-27T16:33:58Z</time>
      </trkpt>
      <trkpt lat="46.953643" lon="25.945503">
        <ele>1922.083</ele>
        <time>2017-05-27T16:34:25Z</time>
      </trkpt>
      <trkpt lat="46.953561" lon="25.945579">
        <ele>1923.043</ele>
        <time>2017-05-27T16:34:37Z</time>
      </trkpt>
      <trkpt lat="46.953466" lon="25.945600">
        <ele>1926.064</ele>
        <time>2017-05-27T16:34:55Z</time>
      </trkpt>
      <trkpt lat="46.953379" lon="25.945655">
        <ele>1927.010</ele>
        <time>2017-05-27T16:35:07Z</time>
      </trkpt>
      <trkpt lat="46.953289" lon="25.945700">
        <ele>1928.008</ele>
        <time>2017-05-27T16:35:18Z</time>
      </trkpt>
      <trkpt lat="46.953202" lon="25.945761">
        <ele>1930.015</ele>
        <time>2017-05-27T16:35:29Z</time>
      </trkpt>
      <trkpt lat="46.953105" lon="25.945754">
        <ele>1933.091</ele>
        <time>2017-05-27T16:35:39Z</time>
      </trkpt>
      <trkpt lat="46.953011" lon="25.945776">
        <ele>1937.043</ele>
        <time>2017-05-27T16:36:48Z</time>
      </trkpt>
      <trkpt lat="46.952918" lon="25.945786">
        <ele>1941.092</ele>
        <time>2017-05-27T16:36:58Z</time>
      </trkpt>
      <trkpt lat="46.952831" lon="25.945853">
        <ele>1942.096</ele>
        <time>2017-05-27T16:37:12Z</time>
      </trkpt>
      <trkpt lat="46.952780" lon="25.945963">
        <ele>1943.047</ele>
        <time>2017-05-27T16:37:22Z</time>
      </trkpt>
      <trkpt lat="46.952725" lon="25.946086">
        <ele>1943.058</ele>
        <time>2017-05-27T16:37:31Z</time>
      </trkpt>
      <trkpt lat="46.952672" lon="25.946195">
        <ele>1945.042</ele>
        <time>2017-05-27T16:37:55Z</time>
      </trkpt>
      <trkpt lat="46.952636" lon="25.946319">
        <ele>1945.086</ele>
        <time>2017-05-27T16:38:27Z</time>
      </trkpt>
      <trkpt lat="46.952689" lon="25.946190">
        <ele>1941.060</ele>
        <time>2017-05-27T16:39:50Z</time>
      </trkpt>
      <trkpt lat="46.952745" lon="25.946066">
        <ele>1942.026</ele>
        <time>2017-05-27T16:40:00Z</time>
      </trkpt>
      <trkpt lat="46.952754" lon="25.945919">
        <ele>1943.008</ele>
        <time>2017-05-27T16:41:07Z</time>
      </trkpt>
      <trkpt lat="46.952833" lon="25.945829">
        <ele>1940.079</ele>
        <time>2017-05-27T16:41:18Z</time>
      </trkpt>
      <trkpt lat="46.952886" lon="25.945954">
        <ele>1941.085</ele>
        <time>2017-05-27T16:41:50Z</time>
      </trkpt>
      <trkpt lat="46.952967" lon="25.945881">
        <ele>1940.047</ele>
        <time>2017-05-27T16:42:01Z</time>
      </trkpt>
      <trkpt lat="46.953038" lon="25.945785">
        <ele>1938.066</ele>
        <time>2017-05-27T16:42:10Z</time>
      </trkpt>
      <trkpt lat="46.953133" lon="25.945777">
        <ele>1936.070</ele>
        <time>2017-05-27T16:42:19Z</time>
      </trkpt>
      <trkpt lat="46.953226" lon="25.945760">
        <ele>1936.071</ele>
        <time>2017-05-27T16:42:27Z</time>
      </trkpt>
      <trkpt lat="46.953305" lon="25.945697">
        <ele>1932.092</ele>
        <time>2017-05-27T16:42:47Z</time>
      </trkpt>
      <trkpt lat="46.953393" lon="25.945657">
        <ele>1929.096</ele>
        <time>2017-05-27T16:42:54Z</time>
      </trkpt>
      <trkpt lat="46.953487" lon="25.945618">
        <ele>1930.081</ele>
        <time>2017-05-27T16:43:12Z</time>
      </trkpt>
      <trkpt lat="46.953574" lon="25.945582">
        <ele>1930.061</ele>
        <time>2017-05-27T16:43:21Z</time>
      </trkpt>
      <trkpt lat="46.953654" lon="25.945489">
        <ele>1927.017</ele>
        <time>2017-05-27T16:43:31Z</time>
      </trkpt>
      <trkpt lat="46.953730" lon="25.945394">
        <ele>1923.008</ele>
        <time>2017-05-27T16:43:40Z</time>
      </trkpt>
      <trkpt lat="46.953816" lon="25.945350">
        <ele>1922.089</ele>
        <time>2017-05-27T16:43:51Z</time>
      </trkpt>
      <trkpt lat="46.953903" lon="25.945292">
        <ele>1919.025</ele>
        <time>2017-05-27T16:43:58Z</time>
      </trkpt>
      <trkpt lat="46.953978" lon="25.945199">
        <ele>1916.057</ele>
        <time>2017-05-27T16:44:06Z</time>
      </trkpt>
      <trkpt lat="46.954066" lon="25.945166">
        <ele>1917.026</ele>
        <time>2017-05-27T16:44:13Z</time>
      </trkpt>
      <trkpt lat="46.954150" lon="25.945104">
        <ele>1914.080</ele>
        <time>2017-05-27T16:44:22Z</time>
      </trkpt>
      <trkpt lat="46.954254" lon="25.945072">
        <ele>1913.031</ele>
        <time>2017-05-27T16:44:29Z</time>
      </trkpt>
      <trkpt lat="46.954338" lon="25.945019">
        <ele>1912.062</ele>
        <time>2017-05-27T16:44:36Z</time>
      </trkpt>
      <trkpt lat="46.954436" lon="25.944982">
        <ele>1913.036</ele>
        <time>2017-05-27T16:44:43Z</time>
      </trkpt>
      <trkpt lat="46.954522" lon="25.944902">
        <ele>1913.093</ele>
        <time>2017-05-27T16:44:51Z</time>
      </trkpt>
      <trkpt lat="46.954600" lon="25.944815">
        <ele>1910.065</ele>
        <time>2017-05-27T16:44:58Z</time>
      </trkpt>
      <trkpt lat="46.954667" lon="25.944716">
        <ele>1908.021</ele>
        <time>2017-05-27T16:45:06Z</time>
      </trkpt>
      <trkpt lat="46.954733" lon="25.944614">
        <ele>1908.008</ele>
        <time>2017-05-27T16:45:15Z</time>
      </trkpt>
      <trkpt lat="46.954787" lon="25.944508">
        <ele>1907.020</ele>
        <time>2017-05-27T16:45:22Z</time>
      </trkpt>
      <trkpt lat="46.954867" lon="25.944436">
        <ele>1906.076</ele>
        <time>2017-05-27T16:45:29Z</time>
      </trkpt>
      <trkpt lat="46.954944" lon="25.944358">
        <ele>1905.048</ele>
        <time>2017-05-27T16:45:35Z</time>
      </trkpt>
      <trkpt lat="46.955030" lon="25.944300">
        <ele>1904.057</ele>
        <time>2017-05-27T16:45:45Z</time>
      </trkpt>
      <trkpt lat="46.955121" lon="25.944253">
        <ele>1900.031</ele>
        <time>2017-05-27T16:45:52Z</time>
      </trkpt>
      <trkpt lat="46.955214" lon="25.944199">
        <ele>1899.052</ele>
        <time>2017-05-27T16:46:00Z</time>
      </trkpt>
      <trkpt lat="46.955313" lon="25.944153">
        <ele>1898.013</ele>
        <time>2017-05-27T16:46:12Z</time>
      </trkpt>
      <trkpt lat="46.955405" lon="25.944113">
        <ele>1897.057</ele>
        <time>2017-05-27T16:46:20Z</time>
      </trkpt>
      <trkpt lat="46.955490" lon="25.944053">
        <ele>1896.059</ele>
        <time>2017-05-27T16:46:28Z</time>
      </trkpt>
      <trkpt lat="46.955590" lon="25.944022">
        <ele>1895.003</ele>
        <time>2017-05-27T16:46:35Z</time>
      </trkpt>
      <trkpt lat="46.955675" lon="25.943981">
        <ele>1895.023</ele>
        <time>2017-05-27T16:46:41Z</time>
      </trkpt>
      <trkpt lat="46.955758" lon="25.943907">
        <ele>1896.008</ele>
        <time>2017-05-27T16:46:50Z</time>
      </trkpt>
      <trkpt lat="46.955798" lon="25.943785">
        <ele>1895.086</ele>
        <time>2017-05-27T16:47:00Z</time>
      </trkpt>
      <trkpt lat="46.955886" lon="25.943749">
        <ele>1894.052</ele>
        <time>2017-05-27T16:47:12Z</time>
      </trkpt>
      <trkpt lat="46.955960" lon="25.943673">
        <ele>1894.014</ele>
        <time>2017-05-27T16:47:19Z</time>
      </trkpt>
      <trkpt lat="46.956042" lon="25.943580">
        <ele>1895.083</ele>
        <time>2017-05-27T16:47:27Z</time>
      </trkpt>
      <trkpt lat="46.956106" lon="25.943481">
        <ele>1893.037</ele>
        <time>2017-05-27T16:47:34Z</time>
      </trkpt>
      <trkpt lat="46.956175" lon="25.943395">
        <ele>1891.028</ele>
        <time>2017-05-27T16:47:42Z</time>
      </trkpt>
      <trkpt lat="46.956268" lon="25.943357">
        <ele>1890.049</ele>
        <time>2017-05-27T16:47:51Z</time>
      </trkpt>
      <trkpt lat="46.956354" lon="25.943315">
        <ele>1890.073</ele>
        <time>2017-05-27T16:47:57Z</time>
      </trkpt>
      <trkpt lat="46.956450" lon="25.943267">
        <ele>1888.085</ele>
        <time>2017-05-27T16:48:05Z</time>
      </trkpt>
      <trkpt lat="46.956542" lon="25.943212">
        <ele>1887.089</ele>
        <time>2017-05-27T16:48:14Z</time>
      </trkpt>
      <trkpt lat="46.956627" lon="25.943255">
        <ele>1886.017</ele>
        <time>2017-05-27T16:48:21Z</time>
      </trkpt>
      <trkpt lat="46.956708" lon="25.943339">
        <ele>1884.008</ele>
        <time>2017-05-27T16:48:29Z</time>
      </trkpt>
      <trkpt lat="46.956776" lon="25.943441">
        <ele>1881.069</ele>
        <time>2017-05-27T16:48:36Z</time>
      </trkpt>
      <trkpt lat="46.956839" lon="25.943536">
        <ele>1880.095</ele>
        <time>2017-05-27T16:48:43Z</time>
      </trkpt>
      <trkpt lat="46.956912" lon="25.943614">
        <ele>1878.027</ele>
        <time>2017-05-27T16:48:51Z</time>
      </trkpt>
      <trkpt lat="46.956995" lon="25.943698">
        <ele>1876.066</ele>
        <time>2017-05-27T16:48:58Z</time>
      </trkpt>
      <trkpt lat="46.957089" lon="25.943776">
        <ele>1875.020</ele>
        <time>2017-05-27T16:49:08Z</time>
      </trkpt>
      <trkpt lat="46.957135" lon="25.943897">
        <ele>1872.021</ele>
        <time>2017-05-27T16:49:16Z</time>
      </trkpt>
      <trkpt lat="46.957224" lon="25.943946">
        <ele>1869.072</ele>
        <time>2017-05-27T16:49:25Z</time>
      </trkpt>
      <trkpt lat="46.957315" lon="25.943928">
        <ele>1867.066</ele>
        <time>2017-05-27T16:49:32Z</time>
      </trkpt>
      <trkpt lat="46.957406" lon="25.943874">
        <ele>1864.053</ele>
        <time>2017-05-27T16:49:39Z</time>
      </trkpt>
      <trkpt lat="46.957493" lon="25.943824">
        <ele>1863.004</ele>
        <time>2017-05-27T16:49:46Z</time>
      </trkpt>
      <trkpt lat="46.957586" lon="25.943773">
        <ele>1862.014</ele>
        <time>2017-05-27T16:49:54Z</time>
      </trkpt>
      <trkpt lat="46.957686" lon="25.943759">
        <ele>1860.008</ele>
        <time>2017-05-27T16:50:04Z</time>
      </trkpt>
      <trkpt lat="46.957781" lon="25.943736">
        <ele>1856.016</ele>
        <time>2017-05-27T16:50:12Z</time>
      </trkpt>
      <trkpt lat="46.957874" lon="25.943720">
        <ele>1854.062</ele>
        <time>2017-05-27T16:50:20Z</time>
      </trkpt>
      <trkpt lat="46.957974" lon="25.943739">
        <ele>1854.074</ele>
        <time>2017-05-27T16:50:28Z</time>
      </trkpt>
      <trkpt lat="46.958078" lon="25.943714">
        <ele>1852.083</ele>
        <time>2017-05-27T16:50:35Z</time>
      </trkpt>
      <trkpt lat="46.958171" lon="25.943660">
        <ele>1851.077</ele>
        <time>2017-05-27T16:50:48Z</time>
      </trkpt>
      <trkpt lat="46.958271" lon="25.943633">
        <ele>1852.058</ele>
        <time>2017-05-27T16:50:56Z</time>
      </trkpt>
      <trkpt lat="46.958364" lon="25.943644">
        <ele>1850.069</ele>
        <time>2017-05-27T16:51:06Z</time>
      </trkpt>
      <trkpt lat="46.958461" lon="25.943614">
        <ele>1851.013</ele>
        <time>2017-05-27T16:51:19Z</time>
      </trkpt>
      <trkpt lat="46.958552" lon="25.943575">
        <ele>1849.011</ele>
        <time>2017-05-27T16:51:28Z</time>
      </trkpt>
      <trkpt lat="46.958644" lon="25.943564">
        <ele>1851.021</ele>
        <time>2017-05-27T16:51:35Z</time>
      </trkpt>
      <trkpt lat="46.958742" lon="25.943522">
        <ele>1850.003</ele>
        <time>2017-05-27T16:51:55Z</time>
      </trkpt>
      <trkpt lat="46.958833" lon="25.943457">
        <ele>1850.008</ele>
        <time>2017-05-27T16:52:04Z</time>
      </trkpt>
      <trkpt lat="46.958920" lon="25.943425">
        <ele>1852.092</ele>
        <time>2017-05-27T16:52:12Z</time>
      </trkpt>
      <trkpt lat="46.959018" lon="25.943406">
        <ele>1849.088</ele>
        <time>2017-05-27T16:52:20Z</time>
      </trkpt>
      <trkpt lat="46.959108" lon="25.943411">
        <ele>1851.080</ele>
        <time>2017-05-27T16:52:28Z</time>
      </trkpt>
      <trkpt lat="46.959198" lon="25.943389">
        <ele>1850.029</ele>
        <time>2017-05-27T16:52:38Z</time>
      </trkpt>
      <trkpt lat="46.959291" lon="25.943374">
        <ele>1852.013</ele>
        <time>2017-05-27T16:52:47Z</time>
      </trkpt>
      <trkpt lat="46.959381" lon="25.943426">
        <ele>1850.094</ele>
        <time>2017-05-27T16:52:56Z</time>
      </trkpt>
      <trkpt lat="46.959483" lon="25.943442">
        <ele>1851.065</ele>
        <time>2017-05-27T16:53:07Z</time>
      </trkpt>
      <trkpt lat="46.959571" lon="25.943360">
        <ele>1851.089</ele>
        <time>2017-05-27T16:53:19Z</time>
      </trkpt>
      <trkpt lat="46.959654" lon="25.943276">
        <ele>1852.062</ele>
        <time>2017-05-27T16:53:33Z</time>
      </trkpt>
      <trkpt lat="46.959747" lon="25.943226">
        <ele>1855.083</ele>
        <time>2017-05-27T16:53:48Z</time>
      </trkpt>
      <trkpt lat="46.959846" lon="25.943206">
        <ele>1855.011</ele>
        <time>2017-05-27T16:53:57Z</time>
      </trkpt>
      <trkpt lat="46.959948" lon="25.943204">
        <ele>1854.008</ele>
        <time>2017-05-27T16:54:07Z</time>
      </trkpt>
      <trkpt lat="46.960033" lon="25.943150">
        <ele>1854.067</ele>
        <time>2017-05-27T16:54:16Z</time>
      </trkpt>
      <trkpt lat="46.960132" lon="25.943127">
        <ele>1854.093</ele>
        <time>2017-05-27T16:54:28Z</time>
      </trkpt>
      <trkpt lat="46.960226" lon="25.943102">
        <ele>1855.045</ele>
        <time>2017-05-27T16:54:37Z</time>
      </trkpt>
      <trkpt lat="46.960321" lon="25.943127">
        <ele>1856.044</ele>
        <time>2017-05-27T16:54:50Z</time>
      </trkpt>
      <trkpt lat="46.960412" lon="25.943176">
        <ele>1858.088</ele>
        <time>2017-05-27T16:55:21Z</time>
      </trkpt>
      <trkpt lat="46.960482" lon="25.943275">
        <ele>1860.029</ele>
        <time>2017-05-27T16:55:31Z</time>
      </trkpt>
      <trkpt lat="46.960555" lon="25.943373">
        <ele>1862.020</ele>
        <time>2017-05-27T16:55:42Z</time>
      </trkpt>
      <trkpt lat="46.960638" lon="25.943436">
        <ele>1864.064</ele>
        <time>2017-05-27T16:55:53Z</time>
      </trkpt>
      <trkpt lat="46.960715" lon="25.943522">
        <ele>1865.092</ele>
        <time>2017-05-27T16:56:02Z</time>
      </trkpt>
      <trkpt lat="46.960785" lon="25.943604">
        <ele>1866.073</ele>
        <time>2017-05-27T16:56:11Z</time>
      </trkpt>
      <trkpt lat="46.960874" lon="25.943658">
        <ele>1866.020</ele>
        <time>2017-05-27T16:56:21Z</time>
      </trkpt>
      <trkpt lat="46.960962" lon="25.943719">
        <ele>1867.008</ele>
        <time>2017-05-27T16:56:29Z</time>
      </trkpt>
      <trkpt lat="46.961053" lon="25.943773">
        <ele>1867.020</ele>
        <time>2017-05-27T16:56:37Z</time>
      </trkpt>
      <trkpt lat="46.961144" lon="25.943783">
        <ele>1864.036</ele>
        <time>2017-05-27T16:56:55Z</time>
      </trkpt>
      <trkpt lat="46.961235" lon="25.943806">
        <ele>1866.068</ele>
        <time>2017-05-27T16:57:04Z</time>
      </trkpt>
      <trkpt lat="46.961322" lon="25.943751">
        <ele>1869.037</ele>
        <time>2017-05-27T16:57:13Z</time>
      </trkpt>
      <trkpt lat="46.961402" lon="25.943674">
        <ele>1871.021</ele>
        <time>2017-05-27T16:57:22Z</time>
      </trkpt>
      <trkpt lat="46.961474" lon="25.943596">
        <ele>1873.032</ele>
        <time>2017-05-27T16:57:32Z</time>
      </trkpt>
      <trkpt lat="46.961551" lon="25.943512">
        <ele>1874.083</ele>
        <time>2017-05-27T16:57:43Z</time>
      </trkpt>
      <trkpt lat="46.961649" lon="25.943523">
        <ele>1877.057</ele>
        <time>2017-05-27T16:58:01Z</time>
      </trkpt>
      <trkpt lat="46.961723" lon="25.943617">
        <ele>1880.031</ele>
        <time>2017-05-27T16:58:13Z</time>
      </trkpt>
      <trkpt lat="46.961789" lon="25.943715">
        <ele>1880.061</ele>
        <time>2017-05-27T16:58:32Z</time>
      </trkpt>
      <trkpt lat="46.961839" lon="25.943827">
        <ele>1879.007</ele>
        <time>2017-05-27T16:58:49Z</time>
      </trkpt>
      <trkpt lat="46.961901" lon="25.943731">
        <ele>1877.008</ele>
        <time>2017-05-27T16:59:00Z</time>
      </trkpt>
      <trkpt lat="46.961990" lon="25.943780">
        <ele>1877.064</ele>
        <time>2017-05-27T16:59:08Z</time>
      </trkpt>
      <trkpt lat="46.962086" lon="25.943806">
        <ele>1875.070</ele>
        <time>2017-05-27T16:59:18Z</time>
      </trkpt>
      <trkpt lat="46.962179" lon="25.943798">
        <ele>1874.032</ele>
        <time>2017-05-27T16:59:27Z</time>
      </trkpt>
      <trkpt lat="46.962266" lon="25.943852">
        <ele>1872.081</ele>
        <time>2017-05-27T16:59:37Z</time>
      </trkpt>
      <trkpt lat="46.962360" lon="25.943896">
        <ele>1871.055</ele>
        <time>2017-05-27T16:59:44Z</time>
      </trkpt>
      <trkpt lat="46.962443" lon="25.943950">
        <ele>1870.026</ele>
        <time>2017-05-27T16:59:52Z</time>
      </trkpt>
      <trkpt lat="46.962517" lon="25.944045">
        <ele>1870.047</ele>
        <time>2017-05-27T17:00:00Z</time>
      </trkpt>
      <trkpt lat="46.962558" lon="25.944176">
        <ele>1868.021</ele>
        <time>2017-05-27T17:00:08Z</time>
      </trkpt>
      <trkpt lat="46.962604" lon="25.944298">
        <ele>1866.053</ele>
        <time>2017-05-27T17:00:16Z</time>
      </trkpt>
      <trkpt lat="46.962642" lon="25.944418">
        <ele>1863.004</ele>
        <time>2017-05-27T17:00:25Z</time>
      </trkpt>
      <trkpt lat="46.962690" lon="25.944534">
        <ele>1861.014</ele>
        <time>2017-05-27T17:00:35Z</time>
      </trkpt>
      <trkpt lat="46.962725" lon="25.944656">
        <ele>1858.008</ele>
        <time>2017-05-27T17:00:45Z</time>
      </trkpt>
      <trkpt lat="46.962772" lon="25.944771">
        <ele>1857.066</ele>
        <time>2017-05-27T17:01:01Z</time>
      </trkpt>
      <trkpt lat="46.962801" lon="25.944895">
        <ele>1855.072</ele>
        <time>2017-05-27T17:01:09Z</time>
      </trkpt>
      <trkpt lat="46.962846" lon="25.945016">
        <ele>1852.014</ele>
        <time>2017-05-27T17:01:17Z</time>
      </trkpt>
      <trkpt lat="46.962922" lon="25.945108">
        <ele>1849.023</ele>
        <time>2017-05-27T17:01:25Z</time>
      </trkpt>
      <trkpt lat="46.962995" lon="25.945187">
        <ele>1848.087</ele>
        <time>2017-05-27T17:01:33Z</time>
      </trkpt>
      <trkpt lat="46.963079" lon="25.945253">
        <ele>1846.028</ele>
        <time>2017-05-27T17:01:41Z</time>
      </trkpt>
      <trkpt lat="46.963149" lon="25.945348">
        <ele>1844.079</ele>
        <time>2017-05-27T17:01:49Z</time>
      </trkpt>
      <trkpt lat="46.963225" lon="25.945434">
        <ele>1841.083</ele>
        <time>2017-05-27T17:01:56Z</time>
      </trkpt>
      <trkpt lat="46.963294" lon="25.945533">
        <ele>1841.083</ele>
        <time>2017-05-27T17:02:04Z</time>
      </trkpt>
      <trkpt lat="46.963370" lon="25.945631">
        <ele>1840.025</ele>
        <time>2017-05-27T17:02:11Z</time>
      </trkpt>
      <trkpt lat="46.963441" lon="25.945724">
        <ele>1839.017</ele>
        <time>2017-05-27T17:02:19Z</time>
      </trkpt>
      <trkpt lat="46.963515" lon="25.945805">
        <ele>1839.008</ele>
        <time>2017-05-27T17:02:28Z</time>
      </trkpt>
      <trkpt lat="46.963587" lon="25.945895">
        <ele>1839.029</ele>
        <time>2017-05-27T17:02:40Z</time>
      </trkpt>
      <trkpt lat="46.963642" lon="25.946012">
        <ele>1837.045</ele>
        <time>2017-05-27T17:02:48Z</time>
      </trkpt>
      <trkpt lat="46.963708" lon="25.946105">
        <ele>1836.067</ele>
        <time>2017-05-27T17:02:55Z</time>
      </trkpt>
      <trkpt lat="46.963788" lon="25.946197">
        <ele>1836.026</ele>
        <time>2017-05-27T17:03:03Z</time>
      </trkpt>
      <trkpt lat="46.963870" lon="25.946262">
        <ele>1833.010</ele>
        <time>2017-05-27T17:03:10Z</time>
      </trkpt>
      <trkpt lat="46.963959" lon="25.946317">
        <ele>1831.041</ele>
        <time>2017-05-27T17:03:17Z</time>
      </trkpt>
      <trkpt lat="46.964036" lon="25.946393">
        <ele>1829.032</ele>
        <time>2017-05-27T17:03:26Z</time>
      </trkpt>
      <trkpt lat="46.964111" lon="25.946496">
        <ele>1827.096</ele>
        <time>2017-05-27T17:03:33Z</time>
      </trkpt>
      <trkpt lat="46.964167" lon="25.946609">
        <ele>1826.076</ele>
        <time>2017-05-27T17:03:42Z</time>
      </trkpt>
      <trkpt lat="46.964206" lon="25.946748">
        <ele>1826.090</ele>
        <time>2017-05-27T17:03:50Z</time>
      </trkpt>
      <trkpt lat="46.964216" lon="25.946880">
        <ele>1825.019</ele>
        <time>2017-05-27T17:03:58Z</time>
      </trkpt>
      <trkpt lat="46.964226" lon="25.947015">
        <ele>1821.008</ele>
        <time>2017-05-27T17:04:07Z</time>
      </trkpt>
      <trkpt lat="46.964265" lon="25.947148">
        <ele>1819.018</ele>
        <time>2017-05-27T17:04:18Z</time>
      </trkpt>
      <trkpt lat="46.964282" lon="25.947294">
        <ele>1817.064</ele>
        <time>2017-05-27T17:04:28Z</time>
      </trkpt>
      <trkpt lat="46.964333" lon="25.947413">
        <ele>1815.086</ele>
        <time>2017-05-27T17:04:37Z</time>
      </trkpt>
      <trkpt lat="46.964387" lon="25.947527">
        <ele>1813.055</ele>
        <time>2017-05-27T17:04:45Z</time>
      </trkpt>
      <trkpt lat="46.964439" lon="25.947636">
        <ele>1810.079</ele>
        <time>2017-05-27T17:04:53Z</time>
      </trkpt>
      <trkpt lat="46.964484" lon="25.947758">
        <ele>1807.070</ele>
        <time>2017-05-27T17:05:05Z</time>
      </trkpt>
      <trkpt lat="46.964525" lon="25.947876">
        <ele>1806.091</ele>
        <time>2017-05-27T17:05:17Z</time>
      </trkpt>
      <trkpt lat="46.964549" lon="25.948011">
        <ele>1804.055</ele>
        <time>2017-05-27T17:05:36Z</time>
      </trkpt>
      <trkpt lat="46.964579" lon="25.948136">
        <ele>1803.049</ele>
        <time>2017-05-27T17:05:48Z</time>
      </trkpt>
      <trkpt lat="46.964605" lon="25.948262">
        <ele>1804.002</ele>
        <time>2017-05-27T17:05:56Z</time>
      </trkpt>
      <trkpt lat="46.964689" lon="25.948315">
        <ele>1804.022</ele>
        <time>2017-05-27T17:06:03Z</time>
      </trkpt>
      <trkpt lat="46.964773" lon="25.948364">
        <ele>1802.008</ele>
        <time>2017-05-27T17:06:11Z</time>
      </trkpt>
    </trkseg>
  </trk></gpx>