<?xml version="1.0" encoding="UTF-8"?>
<gpx creator="Wikiloc - https://www.wikiloc.com" version="1.1" xmlns="http://www.topografix.com/GPX/1/1" xmlns:xsi="http://www.w3.org/2001/XMLSchema-instance" xsi:schemaLocation="http://www.topografix.com/GPX/1/1 http://www.topografix.com/GPX/1/1/gpx.xsd">
  <metadata>
    <name>Wikiloc - Cabana Dochia - Brana Ocolasului - La Palarie</name>
    <author>
      <name>Toni Grecu</name>
      <link href="https://www.wikiloc.com/wikiloc/user.do?id=2082631">
        <text>Toni Grecu on Wikiloc</text>
      </link>
    </author>
    <link href="https://www.wikiloc.com/hiking-trails/cabana-dochia-brana-ocolasului-la-palarie-17982336">
      <text>Cabana Dochia - Brana Ocolasului - La Palarie on Wikiloc</text>
    </link>
    <time>2017-05-27T11:29:47Z</time>
  </metadata>
  <trk>
    <name>Cabana Dochia - Brana Ocolasului - La Palarie - Wikiloc</name>
    <cmt>Cabana Dochia - Piatra Lata din Ghedeon - Refugiul Ocolasul Mic(BR) 
Refugiul Ceahlau - Masa Dacica si Coloana Dacica - Brana Ocolasului - Saua La Palarie 1745m(nemarcat) 
Saua La Palarie 1745m - Curmatura Pic.Schiop - Cabana Dochia (BA) 
 
 
Legenda spune ca Baba Dochia care a avut un fiu, pe numele său Dragobete care s-a căsătorit împotriva dorinței ei. Pentru a-și necăji nora, într-o zi rece de iarnă, i-a dat acesteia un ghem de lână neagră și a trimis-o la râu să-l spele, spunându-i să nu se întoarcă până când lâna nu devine albă. Fata a încercat să spele lâna, dar chiar dacă degetele sale au început să sângereze, culoarea lânii rămânea tot neagră. De disperare, pentru că nu se putea întoarce acasă la soțul iubit, a început să plângă. Impresionat de durerea fetei, Domnul Iisus Hristos i-a apărut în cale și i-a dat o floare roșie, spunându-i să spele lâna cu ea. Mulțumindu-i, fata a pus floarea în apă, a spă...</cmt>
    <desc>Cabana Dochia - Piatra Lata din Ghedeon - Refugiul Ocolasul Mic(BR) 
Refugiul Ceahlau - Masa Dacica si Coloana Dacica - Brana Ocolasului - Saua La Palarie 1745m(nemarcat) 
Saua La Palarie 1745m - Curmatura Pic.Schiop - Cabana Dochia (BA) 
 
 
Legenda spune ca Baba Dochia care a avut un fiu, pe numele său Dragobete care s-a căsătorit împotriva dorinței ei. Pentru a-și necăji nora, într-o zi rece de iarnă, i-a dat acesteia un ghem de lână neagră și a trimis-o la râu să-l spele, spunându-i să nu se întoarcă până când lâna nu devine albă. Fata a încercat să spele lâna, dar chiar dacă degetele sale au început să sângereze, culoarea lânii rămânea tot neagră. De disperare, pentru că nu se putea întoarce acasă la soțul iubit, a început să plângă. Impresionat de durerea fetei, Domnul Iisus Hristos i-a apărut în cale și i-a dat o floare roșie, spunându-i să spele lâna cu ea. Mulțumindu-i, fata a pus floarea în apă, a spă...</desc>
    <trkseg>
      <trkpt lat="46.965000" lon="25.948571">
        <ele>1817.061</ele>
        <time>2017-05-27T08:59:39Z</time>
      </trkpt>
      <trkpt lat="46.964922" lon="25.948492">
        <ele>1813.021</ele>
        <time>2017-05-27T08:59:49Z</time>
      </trkpt>
      <trkpt lat="46.964831" lon="25.948441">
        <ele>1810.013</ele>
        <time>2017-05-27T09:00:00Z</time>
      </trkpt>
      <trkpt lat="46.964744" lon="25.948376">
        <ele>1808.008</ele>
        <time>2017-05-27T09:00:09Z</time>
      </trkpt>
      <trkpt lat="46.964664" lon="25.948315">
        <ele>1808.067</ele>
        <time>2017-05-27T09:00:15Z</time>
      </trkpt>
      <trkpt lat="46.964575" lon="25.948260">
        <ele>1808.083</ele>
        <time>2017-05-27T09:00:24Z</time>
      </trkpt>
      <trkpt lat="46.964490" lon="25.948208">
        <ele>1806.095</ele>
        <time>2017-05-27T09:00:36Z</time>
      </trkpt>
      <trkpt lat="46.964399" lon="25.948171">
        <ele>1805.024</ele>
        <time>2017-05-27T09:00:46Z</time>
      </trkpt>
      <trkpt lat="46.964306" lon="25.948150">
        <ele>1806.038</ele>
        <time>2017-05-27T09:00:58Z</time>
      </trkpt>
      <trkpt lat="46.964213" lon="25.948155">
        <ele>1809.019</ele>
        <time>2017-05-27T09:01:10Z</time>
      </trkpt>
      <trkpt lat="46.964121" lon="25.948150">
        <ele>1810.089</ele>
        <time>2017-05-27T09:01:19Z</time>
      </trkpt>
      <trkpt lat="46.964026" lon="25.948153">
        <ele>1809.032</ele>
        <time>2017-05-27T09:01:33Z</time>
      </trkpt>
      <trkpt lat="46.963928" lon="25.948143">
        <ele>1807.031</ele>
        <time>2017-05-27T09:01:45Z</time>
      </trkpt>
      <trkpt lat="46.963835" lon="25.948158">
        <ele>1807.061</ele>
        <time>2017-05-27T09:01:54Z</time>
      </trkpt>
      <trkpt lat="46.963744" lon="25.948162">
        <ele>1804.007</ele>
        <time>2017-05-27T09:02:06Z</time>
      </trkpt>
      <trkpt lat="46.963649" lon="25.948161">
        <ele>1801.008</ele>
        <time>2017-05-27T09:02:15Z</time>
      </trkpt>
      <trkpt lat="46.963547" lon="25.948166">
        <ele>1802.084</ele>
        <time>2017-05-27T09:02:23Z</time>
      </trkpt>
      <trkpt lat="46.963450" lon="25.948156">
        <ele>1802.010</ele>
        <time>2017-05-27T09:02:33Z</time>
      </trkpt>
      <trkpt lat="46.963357" lon="25.948182">
        <ele>1797.042</ele>
        <time>2017-05-27T09:02:44Z</time>
      </trkpt>
      <trkpt lat="46.963255" lon="25.948194">
        <ele>1798.091</ele>
        <time>2017-05-27T09:02:51Z</time>
      </trkpt>
      <trkpt lat="46.963158" lon="25.948213">
        <ele>1799.095</ele>
        <time>2017-05-27T09:02:59Z</time>
      </trkpt>
      <trkpt lat="46.963069" lon="25.948241">
        <ele>1799.046</ele>
        <time>2017-05-27T09:03:12Z</time>
      </trkpt>
      <trkpt lat="46.962972" lon="25.948239">
        <ele>1803.036</ele>
        <time>2017-05-27T09:03:30Z</time>
      </trkpt>
      <trkpt lat="46.962882" lon="25.948236">
        <ele>1801.069</ele>
        <time>2017-05-27T09:03:42Z</time>
      </trkpt>
      <trkpt lat="46.962788" lon="25.948201">
        <ele>1800.067</ele>
        <time>2017-05-27T09:03:51Z</time>
      </trkpt>
      <trkpt lat="46.962700" lon="25.948235">
        <ele>1803.081</ele>
        <time>2017-05-27T09:04:02Z</time>
      </trkpt>
      <trkpt lat="46.962603" lon="25.948243">
        <ele>1799.019</ele>
        <time>2017-05-27T09:04:16Z</time>
      </trkpt>
      <trkpt lat="46.962512" lon="25.948263">
        <ele>1796.008</ele>
        <time>2017-05-27T09:04:31Z</time>
      </trkpt>
      <trkpt lat="46.962427" lon="25.948312">
        <ele>1795.057</ele>
        <time>2017-05-27T09:04:57Z</time>
      </trkpt>
      <trkpt lat="46.962340" lon="25.948352">
        <ele>1795.093</ele>
        <time>2017-05-27T09:05:13Z</time>
      </trkpt>
      <trkpt lat="46.962244" lon="25.948403">
        <ele>1794.065</ele>
        <time>2017-05-27T09:05:42Z</time>
      </trkpt>
      <trkpt lat="46.962154" lon="25.948461">
        <ele>1794.094</ele>
        <time>2017-05-27T09:05:51Z</time>
      </trkpt>
      <trkpt lat="46.962096" lon="25.948564">
        <ele>1792.028</ele>
        <time>2017-05-27T09:06:02Z</time>
      </trkpt>
      <trkpt lat="46.962067" lon="25.948700">
        <ele>1775.099</ele>
        <time>2017-05-27T09:08:19Z</time>
      </trkpt>
      <trkpt lat="46.962005" lon="25.948808">
        <ele>1774.049</ele>
        <time>2017-05-27T09:08:28Z</time>
      </trkpt>
      <trkpt lat="46.961966" lon="25.948929">
        <ele>1773.082</ele>
        <time>2017-05-27T09:08:37Z</time>
      </trkpt>
      <trkpt lat="46.961899" lon="25.949038">
        <ele>1770.064</ele>
        <time>2017-05-27T09:08:48Z</time>
      </trkpt>
      <trkpt lat="46.961844" lon="25.949141">
        <ele>1769.006</ele>
        <time>2017-05-27T09:08:58Z</time>
      </trkpt>
      <trkpt lat="46.961782" lon="25.949251">
        <ele>1768.016</ele>
        <time>2017-05-27T09:09:08Z</time>
      </trkpt>
      <trkpt lat="46.961686" lon="25.949273">
        <ele>1768.008</ele>
        <time>2017-05-27T09:09:19Z</time>
      </trkpt>
      <trkpt lat="46.961589" lon="25.949272">
        <ele>1767.037</ele>
        <time>2017-05-27T09:09:47Z</time>
      </trkpt>
      <trkpt lat="46.961502" lon="25.949231">
        <ele>1765.053</ele>
        <time>2017-05-27T09:10:04Z</time>
      </trkpt>
      <trkpt lat="46.961421" lon="25.949168">
        <ele>1764.075</ele>
        <time>2017-05-27T09:10:16Z</time>
      </trkpt>
      <trkpt lat="46.961320" lon="25.949131">
        <ele>1760.084</ele>
        <time>2017-05-27T09:10:31Z</time>
      </trkpt>
      <trkpt lat="46.961232" lon="25.949076">
        <ele>1761.028</ele>
        <time>2017-05-27T09:10:44Z</time>
      </trkpt>
      <trkpt lat="46.961141" lon="25.949018">
        <ele>1758.069</ele>
        <time>2017-05-27T09:10:57Z</time>
      </trkpt>
      <trkpt lat="46.961045" lon="25.948965">
        <ele>1755.039</ele>
        <time>2017-05-27T09:11:12Z</time>
      </trkpt>
      <trkpt lat="46.960954" lon="25.948899">
        <ele>1755.072</ele>
        <time>2017-05-27T09:11:21Z</time>
      </trkpt>
      <trkpt lat="46.960859" lon="25.948919">
        <ele>1753.068</ele>
        <time>2017-05-27T09:11:31Z</time>
      </trkpt>
      <trkpt lat="46.960764" lon="25.948954">
        <ele>1750.042</ele>
        <time>2017-05-27T09:11:59Z</time>
      </trkpt>
      <trkpt lat="46.960669" lon="25.948994">
        <ele>1752.026</ele>
        <time>2017-05-27T09:12:24Z</time>
      </trkpt>
      <trkpt lat="46.960577" lon="25.949023">
        <ele>1753.008</ele>
        <time>2017-05-27T09:12:35Z</time>
      </trkpt>
      <trkpt lat="46.960486" lon="25.949074">
        <ele>1752.077</ele>
        <time>2017-05-27T09:12:48Z</time>
      </trkpt>
      <trkpt lat="46.960399" lon="25.949144">
        <ele>1752.023</ele>
        <time>2017-05-27T09:13:01Z</time>
      </trkpt>
      <trkpt lat="46.960323" lon="25.949217">
        <ele>1751.035</ele>
        <time>2017-05-27T09:13:11Z</time>
      </trkpt>
      <trkpt lat="46.960228" lon="25.949252">
        <ele>1744.084</ele>
        <time>2017-05-27T09:14:13Z</time>
      </trkpt>
      <trkpt lat="46.960136" lon="25.949278">
        <ele>1740.068</ele>
        <time>2017-05-27T09:15:01Z</time>
      </trkpt>
      <trkpt lat="46.960040" lon="25.949301">
        <ele>1736.059</ele>
        <time>2017-05-27T09:15:49Z</time>
      </trkpt>
      <trkpt lat="46.959976" lon="25.949395">
        <ele>1735.089</ele>
        <time>2017-05-27T09:17:47Z</time>
      </trkpt>
      <trkpt lat="46.959902" lon="25.949486">
        <ele>1732.052</ele>
        <time>2017-05-27T09:18:44Z</time>
      </trkpt>
      <trkpt lat="46.959857" lon="25.949601">
        <ele>1721.043</ele>
        <time>2017-05-27T09:20:02Z</time>
      </trkpt>
      <trkpt lat="46.959827" lon="25.949738">
        <ele>1720.064</ele>
        <time>2017-05-27T09:20:14Z</time>
      </trkpt>
      <trkpt lat="46.959728" lon="25.949727">
        <ele>1706.010</ele>
        <time>2017-05-27T09:21:07Z</time>
      </trkpt>
      <trkpt lat="46.959647" lon="25.949789">
        <ele>1695.008</ele>
        <time>2017-05-27T09:21:43Z</time>
      </trkpt>
      <trkpt lat="46.959644" lon="25.949921">
        <ele>1684.075</ele>
        <time>2017-05-27T09:22:22Z</time>
      </trkpt>
      <trkpt lat="46.959569" lon="25.950002">
        <ele>1683.031</ele>
        <time>2017-05-27T09:22:49Z</time>
      </trkpt>
      <trkpt lat="46.959472" lon="25.950016">
        <ele>1683.023</ele>
        <time>2017-05-27T09:23:11Z</time>
      </trkpt>
      <trkpt lat="46.959407" lon="25.949901">
        <ele>1672.022</ele>
        <time>2017-05-27T09:25:39Z</time>
      </trkpt>
      <trkpt lat="46.959383" lon="25.949763">
        <ele>1675.036</ele>
        <time>2017-05-27T09:25:47Z</time>
      </trkpt>
      <trkpt lat="46.959379" lon="25.949620">
        <ele>1667.047</ele>
        <time>2017-05-27T09:25:56Z</time>
      </trkpt>
      <trkpt lat="46.959329" lon="25.949506">
        <ele>1671.087</ele>
        <time>2017-05-27T09:26:08Z</time>
      </trkpt>
      <trkpt lat="46.959294" lon="25.949384">
        <ele>1674.080</ele>
        <time>2017-05-27T09:26:28Z</time>
      </trkpt>
      <trkpt lat="46.959260" lon="25.949262">
        <ele>1676.037</ele>
        <time>2017-05-27T09:27:06Z</time>
      </trkpt>
      <trkpt lat="46.959197" lon="25.949160">
        <ele>1666.049</ele>
        <time>2017-05-27T09:28:12Z</time>
      </trkpt>
      <trkpt lat="46.959099" lon="25.949257">
        <ele>1661.013</ele>
        <time>2017-05-27T09:29:51Z</time>
      </trkpt>
      <trkpt lat="46.959008" lon="25.949244">
        <ele>1657.008</ele>
        <time>2017-05-27T09:30:09Z</time>
      </trkpt>
      <trkpt lat="46.958918" lon="25.949282">
        <ele>1660.094</ele>
        <time>2017-05-27T09:30:24Z</time>
      </trkpt>
      <trkpt lat="46.958835" lon="25.949229">
        <ele>1658.010</ele>
        <time>2017-05-27T09:30:37Z</time>
      </trkpt>
      <trkpt lat="46.958743" lon="25.949233">
        <ele>1655.042</ele>
        <time>2017-05-27T09:30:47Z</time>
      </trkpt>
      <trkpt lat="46.958651" lon="25.949289">
        <ele>1649.021</ele>
        <time>2017-05-27T09:31:23Z</time>
      </trkpt>
      <trkpt lat="46.958560" lon="25.949291">
        <ele>1643.025</ele>
        <time>2017-05-27T09:32:38Z</time>
      </trkpt>
      <trkpt lat="46.958495" lon="25.949391">
        <ele>1644.036</ele>
        <time>2017-05-27T09:32:45Z</time>
      </trkpt>
      <trkpt lat="46.958417" lon="25.949463">
        <ele>1648.046</ele>
        <time>2017-05-27T09:33:23Z</time>
      </trkpt>
      <trkpt lat="46.958328" lon="25.949509">
        <ele>1648.099</ele>
        <time>2017-05-27T09:33:33Z</time>
      </trkpt>
      <trkpt lat="46.958234" lon="25.949557">
        <ele>1649.038</ele>
        <time>2017-05-27T09:33:44Z</time>
      </trkpt>
      <trkpt lat="46.958150" lon="25.949614">
        <ele>1651.070</ele>
        <time>2017-05-27T09:33:59Z</time>
      </trkpt>
      <trkpt lat="46.958054" lon="25.949617">
        <ele>1641.017</ele>
        <time>2017-05-27T09:34:13Z</time>
      </trkpt>
      <trkpt lat="46.957956" lon="25.949645">
        <ele>1639.008</ele>
        <time>2017-05-27T09:34:23Z</time>
      </trkpt>
      <trkpt lat="46.957860" lon="25.949679">
        <ele>1638.084</ele>
        <time>2017-05-27T09:34:34Z</time>
      </trkpt>
      <trkpt lat="46.957770" lon="25.949741">
        <ele>1644.050</ele>
        <time>2017-05-27T09:34:48Z</time>
      </trkpt>
      <trkpt lat="46.957682" lon="25.949780">
        <ele>1644.072</ele>
        <time>2017-05-27T09:34:57Z</time>
      </trkpt>
      <trkpt lat="46.957593" lon="25.949832">
        <ele>1645.021</ele>
        <time>2017-05-27T09:35:17Z</time>
      </trkpt>
      <trkpt lat="46.957503" lon="25.949859">
        <ele>1641.025</ele>
        <time>2017-05-27T09:35:30Z</time>
      </trkpt>
      <trkpt lat="46.957413" lon="25.949852">
        <ele>1638.026</ele>
        <time>2017-05-27T09:35:52Z</time>
      </trkpt>
      <trkpt lat="46.957324" lon="25.949884">
        <ele>1645.076</ele>
        <time>2017-05-27T09:36:10Z</time>
      </trkpt>
      <trkpt lat="46.957225" lon="25.949885">
        <ele>1649.099</ele>
        <time>2017-05-27T09:40:54Z</time>
      </trkpt>
      <trkpt lat="46.957147" lon="25.949789">
        <ele>1648.055</ele>
        <time>2017-05-27T09:41:06Z</time>
      </trkpt>
      <trkpt lat="46.957057" lon="25.949797">
        <ele>1651.007</ele>
        <time>2017-05-27T09:41:23Z</time>
      </trkpt>
      <trkpt lat="46.956993" lon="25.949892">
        <ele>1658.017</ele>
        <time>2017-05-27T09:41:59Z</time>
      </trkpt>
      <trkpt lat="46.956909" lon="25.949982">
        <ele>1660.008</ele>
        <time>2017-05-27T09:42:14Z</time>
      </trkpt>
      <trkpt lat="46.956817" lon="25.950063">
        <ele>1655.066</ele>
        <time>2017-05-27T09:42:26Z</time>
      </trkpt>
      <trkpt lat="46.956724" lon="25.950091">
        <ele>1658.052</ele>
        <time>2017-05-27T09:42:39Z</time>
      </trkpt>
      <trkpt lat="46.956632" lon="25.950130">
        <ele>1656.034</ele>
        <time>2017-05-27T09:42:50Z</time>
      </trkpt>
      <trkpt lat="46.956541" lon="25.950124">
        <ele>1654.073</ele>
        <time>2017-05-27T09:42:57Z</time>
      </trkpt>
      <trkpt lat="46.956459" lon="25.950213">
        <ele>1657.077</ele>
        <time>2017-05-27T09:43:12Z</time>
      </trkpt>
      <trkpt lat="46.956373" lon="25.950267">
        <ele>1651.058</ele>
        <time>2017-05-27T09:43:36Z</time>
      </trkpt>
      <trkpt lat="46.956278" lon="25.950281">
        <ele>1643.038</ele>
        <time>2017-05-27T09:43:46Z</time>
      </trkpt>
      <trkpt lat="46.956189" lon="25.950337">
        <ele>1640.081</ele>
        <time>2017-05-27T09:44:03Z</time>
      </trkpt>
      <trkpt lat="46.956103" lon="25.950380">
        <ele>1641.037</ele>
        <time>2017-05-27T09:44:13Z</time>
      </trkpt>
      <trkpt lat="46.956025" lon="25.950453">
        <ele>1640.049</ele>
        <time>2017-05-27T09:44:27Z</time>
      </trkpt>
      <trkpt lat="46.955941" lon="25.950534">
        <ele>1638.013</ele>
        <time>2017-05-27T09:44:37Z</time>
      </trkpt>
      <trkpt lat="46.955868" lon="25.950612">
        <ele>1640.008</ele>
        <time>2017-05-27T09:44:47Z</time>
      </trkpt>
      <trkpt lat="46.955777" lon="25.950648">
        <ele>1634.044</ele>
        <time>2017-05-27T09:45:03Z</time>
      </trkpt>
      <trkpt lat="46.955697" lon="25.950739">
        <ele>1633.030</ele>
        <time>2017-05-27T09:45:12Z</time>
      </trkpt>
      <trkpt lat="46.955626" lon="25.950828">
        <ele>1635.012</ele>
        <time>2017-05-27T09:45:19Z</time>
      </trkpt>
      <trkpt lat="46.955544" lon="25.950902">
        <ele>1635.011</ele>
        <time>2017-05-27T09:45:26Z</time>
      </trkpt>
      <trkpt lat="46.955459" lon="25.950960">
        <ele>1641.065</ele>
        <time>2017-05-27T09:45:37Z</time>
      </trkpt>
      <trkpt lat="46.955368" lon="25.950943">
        <ele>1637.016</ele>
        <time>2017-05-27T09:45:52Z</time>
      </trkpt>
      <trkpt lat="46.955277" lon="25.951012">
        <ele>1642.086</ele>
        <time>2017-05-27T09:46:16Z</time>
      </trkpt>
      <trkpt lat="46.955185" lon="25.951051">
        <ele>1640.059</ele>
        <time>2017-05-27T09:46:27Z</time>
      </trkpt>
      <trkpt lat="46.955089" lon="25.951063">
        <ele>1639.013</ele>
        <time>2017-05-27T09:46:45Z</time>
      </trkpt>
      <trkpt lat="46.955009" lon="25.951125">
        <ele>1643.043</ele>
        <time>2017-05-27T09:46:53Z</time>
      </trkpt>
      <trkpt lat="46.954925" lon="25.951191">
        <ele>1645.007</ele>
        <time>2017-05-27T09:47:15Z</time>
      </trkpt>
      <trkpt lat="46.954834" lon="25.951206">
        <ele>1646.008</ele>
        <time>2017-05-27T09:47:33Z</time>
      </trkpt>
      <trkpt lat="46.954725" lon="25.951240">
        <ele>1650.062</ele>
        <time>2017-05-27T09:49:13Z</time>
      </trkpt>
      <trkpt lat="46.954622" lon="25.951281">
        <ele>1651.098</ele>
        <time>2017-05-27T09:49:17Z</time>
      </trkpt>
      <trkpt lat="46.954524" lon="25.951308">
        <ele>1656.030</ele>
        <time>2017-05-27T09:50:26Z</time>
      </trkpt>
      <trkpt lat="46.954442" lon="25.951380">
        <ele>1654.049</ele>
        <time>2017-05-27T09:50:52Z</time>
      </trkpt>
      <trkpt lat="46.954360" lon="25.951441">
        <ele>1653.053</ele>
        <time>2017-05-27T09:51:08Z</time>
      </trkpt>
      <trkpt lat="46.954276" lon="25.951494">
        <ele>1648.094</ele>
        <time>2017-05-27T09:51:31Z</time>
      </trkpt>
      <trkpt lat="46.954195" lon="25.951559">
        <ele>1655.084</ele>
        <time>2017-05-27T09:51:59Z</time>
      </trkpt>
      <trkpt lat="46.954106" lon="25.951591">
        <ele>1657.077</ele>
        <time>2017-05-27T09:58:27Z</time>
      </trkpt>
      <trkpt lat="46.954020" lon="25.951539">
        <ele>1661.097</ele>
        <time>2017-05-27T09:58:50Z</time>
      </trkpt>
      <trkpt lat="46.953930" lon="25.951549">
        <ele>1663.023</ele>
        <time>2017-05-27T09:59:07Z</time>
      </trkpt>
      <trkpt lat="46.953839" lon="25.951607">
        <ele>1669.025</ele>
        <time>2017-05-27T09:59:17Z</time>
      </trkpt>
      <trkpt lat="46.953750" lon="25.951654">
        <ele>1667.008</ele>
        <time>2017-05-27T09:59:27Z</time>
      </trkpt>
      <trkpt lat="46.953680" lon="25.951748">
        <ele>1672.070</ele>
        <time>2017-05-27T09:59:44Z</time>
      </trkpt>
      <trkpt lat="46.953588" lon="25.951816">
        <ele>1668.086</ele>
        <time>2017-05-27T09:59:55Z</time>
      </trkpt>
      <trkpt lat="46.953508" lon="25.951885">
        <ele>1665.088</ele>
        <time>2017-05-27T10:00:07Z</time>
      </trkpt>
      <trkpt lat="46.953428" lon="25.951955">
        <ele>1664.077</ele>
        <time>2017-05-27T10:00:22Z</time>
      </trkpt>
      <trkpt lat="46.953363" lon="25.952047">
        <ele>1667.061</ele>
        <time>2017-05-27T10:00:35Z</time>
      </trkpt>
      <trkpt lat="46.953322" lon="25.952168">
        <ele>1672.042</ele>
        <time>2017-05-27T10:00:50Z</time>
      </trkpt>
      <trkpt lat="46.953223" lon="25.952199">
        <ele>1669.012</ele>
        <time>2017-05-27T10:01:02Z</time>
      </trkpt>
      <trkpt lat="46.953122" lon="25.952237">
        <ele>1668.065</ele>
        <time>2017-05-27T10:01:13Z</time>
      </trkpt>
      <trkpt lat="46.953044" lon="25.952302">
        <ele>1671.031</ele>
        <time>2017-05-27T10:01:22Z</time>
      </trkpt>
      <trkpt lat="46.952962" lon="25.952360">
        <ele>1676.061</ele>
        <time>2017-05-27T10:01:40Z</time>
      </trkpt>
      <trkpt lat="46.952878" lon="25.952436">
        <ele>1678.007</ele>
        <time>2017-05-27T10:01:51Z</time>
      </trkpt>
      <trkpt lat="46.952788" lon="25.952481">
        <ele>1676.008</ele>
        <time>2017-05-27T10:02:06Z</time>
      </trkpt>
      <trkpt lat="46.952706" lon="25.952562">
        <ele>1680.064</ele>
        <time>2017-05-27T10:02:14Z</time>
      </trkpt>
      <trkpt lat="46.952636" lon="25.952650">
        <ele>1678.050</ele>
        <time>2017-05-27T10:02:20Z</time>
      </trkpt>
      <trkpt lat="46.952546" lon="25.952716">
        <ele>1683.022</ele>
        <time>2017-05-27T10:02:32Z</time>
      </trkpt>
      <trkpt lat="46.952453" lon="25.952710">
        <ele>1687.041</ele>
        <time>2017-05-27T10:02:47Z</time>
      </trkpt>
      <trkpt lat="46.952394" lon="25.952587">
        <ele>1691.095</ele>
        <time>2017-05-27T10:03:16Z</time>
      </trkpt>
      <trkpt lat="46.952299" lon="25.952574">
        <ele>1692.086</ele>
        <time>2017-05-27T10:03:47Z</time>
      </trkpt>
      <trkpt lat="46.952200" lon="25.952593">
        <ele>1691.016</ele>
        <time>2017-05-27T10:04:08Z</time>
      </trkpt>
      <trkpt lat="46.952102" lon="25.952603">
        <ele>1691.069</ele>
        <time>2017-05-27T10:04:21Z</time>
      </trkpt>
      <trkpt lat="46.952012" lon="25.952635">
        <ele>1690.054</ele>
        <time>2017-05-27T10:04:35Z</time>
      </trkpt>
      <trkpt lat="46.951923" lon="25.952662">
        <ele>1690.056</ele>
        <time>2017-05-27T10:04:43Z</time>
      </trkpt>
      <trkpt lat="46.951826" lon="25.952697">
        <ele>1691.011</ele>
        <time>2017-05-27T10:04:54Z</time>
      </trkpt>
      <trkpt lat="46.951740" lon="25.952772">
        <ele>1702.008</ele>
        <time>2017-05-27T10:05:11Z</time>
      </trkpt>
      <trkpt lat="46.951656" lon="25.952823">
        <ele>1702.046</ele>
        <time>2017-05-27T10:05:19Z</time>
      </trkpt>
      <trkpt lat="46.951566" lon="25.952888">
        <ele>1702.062</ele>
        <time>2017-05-27T10:05:28Z</time>
      </trkpt>
      <trkpt lat="46.951472" lon="25.952856">
        <ele>1709.064</ele>
        <time>2017-05-27T10:05:44Z</time>
      </trkpt>
      <trkpt lat="46.951377" lon="25.952867">
        <ele>1712.063</ele>
        <time>2017-05-27T10:05:52Z</time>
      </trkpt>
      <trkpt lat="46.951289" lon="25.952819">
        <ele>1711.067</ele>
        <time>2017-05-27T10:06:00Z</time>
      </trkpt>
      <trkpt lat="46.951201" lon="25.952852">
        <ele>1719.018</ele>
        <time>2017-05-27T10:06:42Z</time>
      </trkpt>
      <trkpt lat="46.951107" lon="25.952902">
        <ele>1716.058</ele>
        <time>2017-05-27T10:07:40Z</time>
      </trkpt>
      <trkpt lat="46.951004" lon="25.952840">
        <ele>1712.061</ele>
        <time>2017-05-27T10:07:50Z</time>
      </trkpt>
      <trkpt lat="46.950901" lon="25.952908">
        <ele>1713.043</ele>
        <time>2017-05-27T10:07:55Z</time>
      </trkpt>
      <trkpt lat="46.950811" lon="25.952868">
        <ele>1714.064</ele>
        <time>2017-05-27T10:08:27Z</time>
      </trkpt>
      <trkpt lat="46.950716" lon="25.952841">
        <ele>1714.010</ele>
        <time>2017-05-27T10:08:38Z</time>
      </trkpt>
      <trkpt lat="46.950619" lon="25.952859">
        <ele>1715.008</ele>
        <time>2017-05-27T10:08:49Z</time>
      </trkpt>
      <trkpt lat="46.950530" lon="25.952884">
        <ele>1709.045</ele>
        <time>2017-05-27T10:09:06Z</time>
      </trkpt>
      <trkpt lat="46.950435" lon="25.952912">
        <ele>1713.081</ele>
        <time>2017-05-27T10:11:48Z</time>
      </trkpt>
      <trkpt lat="46.950332" lon="25.952895">
        <ele>1715.073</ele>
        <time>2017-05-27T10:11:54Z</time>
      </trkpt>
      <trkpt lat="46.950245" lon="25.952839">
        <ele>1714.062</ele>
        <time>2017-05-27T10:12:01Z</time>
      </trkpt>
      <trkpt lat="46.950149" lon="25.952857">
        <ele>1725.016</ele>
        <time>2017-05-27T10:12:24Z</time>
      </trkpt>
      <trkpt lat="46.950053" lon="25.952868">
        <ele>1725.067</ele>
        <time>2017-05-27T10:12:42Z</time>
      </trkpt>
      <trkpt lat="46.949961" lon="25.952860">
        <ele>1721.057</ele>
        <time>2017-05-27T10:12:53Z</time>
      </trkpt>
      <trkpt lat="46.949874" lon="25.952814">
        <ele>1722.090</ele>
        <time>2017-05-27T10:13:05Z</time>
      </trkpt>
      <trkpt lat="46.949782" lon="25.952794">
        <ele>1727.098</ele>
        <time>2017-05-27T10:13:18Z</time>
      </trkpt>
      <trkpt lat="46.949692" lon="25.952782">
        <ele>1724.015</ele>
        <time>2017-05-27T10:13:30Z</time>
      </trkpt>
      <trkpt lat="46.949601" lon="25.952782">
        <ele>1730.026</ele>
        <time>2017-05-27T10:13:47Z</time>
      </trkpt>
      <trkpt lat="46.949495" lon="25.952762">
        <ele>1734.008</ele>
        <time>2017-05-27T10:13:59Z</time>
      </trkpt>
      <trkpt lat="46.949392" lon="25.952746">
        <ele>1740.010</ele>
        <time>2017-05-27T10:14:14Z</time>
      </trkpt>
      <trkpt lat="46.949301" lon="25.952717">
        <ele>1739.096</ele>
        <time>2017-05-27T10:14:26Z</time>
      </trkpt>
      <trkpt lat="46.949199" lon="25.952693">
        <ele>1736.028</ele>
        <time>2017-05-27T10:14:35Z</time>
      </trkpt>
      <trkpt lat="46.949107" lon="25.952691">
        <ele>1734.057</ele>
        <time>2017-05-27T10:14:57Z</time>
      </trkpt>
      <trkpt lat="46.949013" lon="25.952646">
        <ele>1732.031</ele>
        <time>2017-05-27T10:15:09Z</time>
      </trkpt>
      <trkpt lat="46.948931" lon="25.952580">
        <ele>1727.082</ele>
        <time>2017-05-27T10:15:19Z</time>
      </trkpt>
      <trkpt lat="46.948847" lon="25.952523">
        <ele>1729.092</ele>
        <time>2017-05-27T10:15:27Z</time>
      </trkpt>
      <trkpt lat="46.948759" lon="25.952485">
        <ele>1742.015</ele>
        <time>2017-05-27T10:15:58Z</time>
      </trkpt>
      <trkpt lat="46.948668" lon="25.952425">
        <ele>1737.037</ele>
        <time>2017-05-27T10:16:41Z</time>
      </trkpt>
      <trkpt lat="46.948582" lon="25.952360">
        <ele>1741.049</ele>
        <time>2017-05-27T10:19:52Z</time>
      </trkpt>
      <trkpt lat="46.948500" lon="25.952305">
        <ele>1742.013</ele>
        <time>2017-05-27T10:20:00Z</time>
      </trkpt>
      <trkpt lat="46.948410" lon="25.952269">
        <ele>1742.008</ele>
        <time>2017-05-27T10:20:20Z</time>
      </trkpt>
      <trkpt lat="46.948324" lon="25.952212">
        <ele>1741.074</ele>
        <time>2017-05-27T10:22:06Z</time>
      </trkpt>
      <trkpt lat="46.948334" lon="25.952078">
        <ele>1743.080</ele>
        <time>2017-05-27T10:22:36Z</time>
      </trkpt>
      <trkpt lat="46.948299" lon="25.951952">
        <ele>1746.032</ele>
        <time>2017-05-27T10:22:48Z</time>
      </trkpt>
      <trkpt lat="46.948269" lon="25.951815">
        <ele>1746.081</ele>
        <time>2017-05-27T10:23:01Z</time>
      </trkpt>
      <trkpt lat="46.948293" lon="25.951681">
        <ele>1748.095</ele>
        <time>2017-05-27T10:25:10Z</time>
      </trkpt>
      <trkpt lat="46.948337" lon="25.951559">
        <ele>1752.086</ele>
        <time>2017-05-27T10:25:23Z</time>
      </trkpt>
      <trkpt lat="46.948361" lon="25.951427">
        <ele>1754.036</ele>
        <time>2017-05-27T10:25:41Z</time>
      </trkpt>
      <trkpt lat="46.948375" lon="25.951293">
        <ele>1756.099</ele>
        <time>2017-05-27T10:25:57Z</time>
      </trkpt>
      <trkpt lat="46.948397" lon="25.951160">
        <ele>1756.022</ele>
        <time>2017-05-27T10:26:47Z</time>
      </trkpt>
      <trkpt lat="46.948387" lon="25.951028">
        <ele>1757.062</ele>
        <time>2017-05-27T10:27:04Z</time>
      </trkpt>
      <trkpt lat="46.948342" lon="25.950909">
        <ele>1761.008</ele>
        <time>2017-05-27T10:27:22Z</time>
      </trkpt>
      <trkpt lat="46.948348" lon="25.950776">
        <ele>1765.008</ele>
        <time>2017-05-27T10:27:47Z</time>
      </trkpt>
      <trkpt lat="46.948368" lon="25.950647">
        <ele>1765.083</ele>
        <time>2017-05-27T10:28:11Z</time>
      </trkpt>
      <trkpt lat="46.948357" lon="25.950508">
        <ele>1770.039</ele>
        <time>2017-05-27T10:28:32Z</time>
      </trkpt>
      <trkpt lat="46.948343" lon="25.950376">
        <ele>1772.051</ele>
        <time>2017-05-27T10:28:50Z</time>
      </trkpt>
      <trkpt lat="46.948422" lon="25.950297">
        <ele>1776.010</ele>
        <time>2017-05-27T10:29:08Z</time>
      </trkpt>
      <trkpt lat="46.948479" lon="25.950194">
        <ele>1777.044</ele>
        <time>2017-05-27T10:29:25Z</time>
      </trkpt>
      <trkpt lat="46.948542" lon="25.950097">
        <ele>1777.035</ele>
        <time>2017-05-27T10:29:47Z</time>
      </trkpt>
      <trkpt lat="46.948633" lon="25.950105">
        <ele>1781.065</ele>
        <time>2017-05-27T10:30:17Z</time>
      </trkpt>
      <trkpt lat="46.948720" lon="25.950054">
        <ele>1783.028</ele>
        <time>2017-05-27T10:31:00Z</time>
      </trkpt>
      <trkpt lat="46.948798" lon="25.949985">
        <ele>1786.081</ele>
        <time>2017-05-27T10:31:43Z</time>
      </trkpt>
      <trkpt lat="46.948876" lon="25.949917">
        <ele>1789.061</ele>
        <time>2017-05-27T10:31:58Z</time>
      </trkpt>
      <trkpt lat="46.948939" lon="25.949810">
        <ele>1792.017</ele>
        <time>2017-05-27T10:33:30Z</time>
      </trkpt>
      <trkpt lat="46.949030" lon="25.949746">
        <ele>1796.008</ele>
        <time>2017-05-27T10:33:42Z</time>
      </trkpt>
      <trkpt lat="46.949102" lon="25.949666">
        <ele>1800.019</ele>
        <time>2017-05-27T10:35:25Z</time>
      </trkpt>
      <trkpt lat="46.949192" lon="25.949653">
        <ele>1803.065</ele>
        <time>2017-05-27T10:35:35Z</time>
      </trkpt>
      <trkpt lat="46.949275" lon="25.949596">
        <ele>1805.027</ele>
        <time>2017-05-27T10:35:47Z</time>
      </trkpt>
      <trkpt lat="46.949365" lon="25.949595">
        <ele>1809.026</ele>
        <time>2017-05-27T10:36:06Z</time>
      </trkpt>
      <trkpt lat="46.949433" lon="25.949507">
        <ele>1813.060</ele>
        <time>2017-05-27T10:37:34Z</time>
      </trkpt>
      <trkpt lat="46.949512" lon="25.949437">
        <ele>1813.081</ele>
        <time>2017-05-27T10:38:23Z</time>
      </trkpt>
      <trkpt lat="46.949595" lon="25.949378">
        <ele>1816.021</ele>
        <time>2017-05-27T10:38:37Z</time>
      </trkpt>
      <trkpt lat="46.949674" lon="25.949299">
        <ele>1818.094</ele>
        <time>2017-05-27T10:38:49Z</time>
      </trkpt>
      <trkpt lat="46.949766" lon="25.949256">
        <ele>1820.089</ele>
        <time>2017-05-27T10:39:06Z</time>
      </trkpt>
      <trkpt lat="46.949857" lon="25.949237">
        <ele>1820.006</ele>
        <time>2017-05-27T10:40:06Z</time>
      </trkpt>
      <trkpt lat="46.949943" lon="25.949176">
        <ele>1823.026</ele>
        <time>2017-05-27T10:44:10Z</time>
      </trkpt>
      <trkpt lat="46.950026" lon="25.949103">
        <ele>1821.008</ele>
        <time>2017-05-27T10:45:46Z</time>
      </trkpt>
      <trkpt lat="46.950071" lon="25.949219">
        <ele>1817.059</ele>
        <time>2017-05-27T10:46:06Z</time>
      </trkpt>
      <trkpt lat="46.950168" lon="25.949223">
        <ele>1820.085</ele>
        <time>2017-05-27T10:47:03Z</time>
      </trkpt>
      <trkpt lat="46.950259" lon="25.949224">
        <ele>1826.077</ele>
        <time>2017-05-27T10:47:30Z</time>
      </trkpt>
      <trkpt lat="46.950349" lon="25.949255">
        <ele>1824.036</ele>
        <time>2017-05-27T10:48:05Z</time>
      </trkpt>
      <trkpt lat="46.950439" lon="25.949262">
        <ele>1829.020</ele>
        <time>2017-05-27T10:48:17Z</time>
      </trkpt>
      <trkpt lat="46.950530" lon="25.949272">
        <ele>1835.091</ele>
        <time>2017-05-27T10:48:45Z</time>
      </trkpt>
      <trkpt lat="46.950619" lon="25.949216">
        <ele>1836.021</ele>
        <time>2017-05-27T10:49:08Z</time>
      </trkpt>
      <trkpt lat="46.950708" lon="25.949189">
        <ele>1840.034</ele>
        <time>2017-05-27T10:49:19Z</time>
      </trkpt>
      <trkpt lat="46.950641" lon="25.949092">
        <ele>1840.088</ele>
        <time>2017-05-27T10:49:32Z</time>
      </trkpt>
      <trkpt lat="46.950561" lon="25.949029">
        <ele>1846.024</ele>
        <time>2017-05-27T10:50:06Z</time>
      </trkpt>
      <trkpt lat="46.950488" lon="25.948948">
        <ele>1849.026</ele>
        <time>2017-05-27T10:50:27Z</time>
      </trkpt>
      <trkpt lat="46.950429" lon="25.948843">
        <ele>1854.008</ele>
        <time>2017-05-27T10:50:51Z</time>
      </trkpt>
      <trkpt lat="46.950341" lon="25.948801">
        <ele>1856.059</ele>
        <time>2017-05-27T10:51:07Z</time>
      </trkpt>
      <trkpt lat="46.950262" lon="25.948722">
        <ele>1858.075</ele>
        <time>2017-05-27T10:51:25Z</time>
      </trkpt>
      <trkpt lat="46.950222" lon="25.948603">
        <ele>1861.067</ele>
        <time>2017-05-27T10:51:44Z</time>
      </trkpt>
      <trkpt lat="46.950156" lon="25.948513">
        <ele>1862.036</ele>
        <time>2017-05-27T10:52:17Z</time>
      </trkpt>
      <trkpt lat="46.950245" lon="25.948468">
        <ele>1865.090</ele>
        <time>2017-05-27T11:03:50Z</time>
      </trkpt>
      <trkpt lat="46.950319" lon="25.948390">
        <ele>1867.041</ele>
        <time>2017-05-27T11:04:13Z</time>
      </trkpt>
      <trkpt lat="46.950417" lon="25.948352">
        <ele>1864.031</ele>
        <time>2017-05-27T11:06:26Z</time>
      </trkpt>
      <trkpt lat="46.950501" lon="25.948282">
        <ele>1867.044</ele>
        <time>2017-05-27T11:06:39Z</time>
      </trkpt>
      <trkpt lat="46.950571" lon="25.948192">
        <ele>1866.094</ele>
        <time>2017-05-27T11:06:49Z</time>
      </trkpt>
      <trkpt lat="46.950633" lon="25.948090">
        <ele>1867.057</ele>
        <time>2017-05-27T11:07:00Z</time>
      </trkpt>
      <trkpt lat="46.950706" lon="25.948002">
        <ele>1868.022</ele>
        <time>2017-05-27T11:07:14Z</time>
      </trkpt>
      <trkpt lat="46.950791" lon="25.947956">
        <ele>1867.008</ele>
        <time>2017-05-27T11:07:21Z</time>
      </trkpt>
      <trkpt lat="46.950850" lon="25.947851">
        <ele>1866.020</ele>
        <time>2017-05-27T11:07:31Z</time>
      </trkpt>
      <trkpt lat="46.950921" lon="25.947753">
        <ele>1864.086</ele>
        <time>2017-05-27T11:07:49Z</time>
      </trkpt>
      <trkpt lat="46.951001" lon="25.947683">
        <ele>1864.088</ele>
        <time>2017-05-27T11:07:56Z</time>
      </trkpt>
      <trkpt lat="46.951058" lon="25.947575">
        <ele>1862.077</ele>
        <time>2017-05-27T11:08:04Z</time>
      </trkpt>
      <trkpt lat="46.951105" lon="25.947454">
        <ele>1861.091</ele>
        <time>2017-05-27T11:08:12Z</time>
      </trkpt>
      <trkpt lat="46.951155" lon="25.947339">
        <ele>1861.082</ele>
        <time>2017-05-27T11:08:19Z</time>
      </trkpt>
      <trkpt lat="46.951193" lon="25.947209">
        <ele>1859.032</ele>
        <time>2017-05-27T11:08:28Z</time>
      </trkpt>
      <trkpt lat="46.951296" lon="25.947174">
        <ele>1859.035</ele>
        <time>2017-05-27T11:08:39Z</time>
      </trkpt>
      <trkpt lat="46.951370" lon="25.947251">
        <ele>1855.045</ele>
        <time>2017-05-27T11:08:55Z</time>
      </trkpt>
      <trkpt lat="46.951468" lon="25.947239">
        <ele>1856.047</ele>
        <time>2017-05-27T11:09:13Z</time>
      </trkpt>
      <trkpt lat="46.951565" lon="25.947199">
        <ele>1858.011</ele>
        <time>2017-05-27T11:10:08Z</time>
      </trkpt>
      <trkpt lat="46.951659" lon="25.947170">
        <ele>1856.008</ele>
        <time>2017-05-27T11:10:21Z</time>
      </trkpt>
      <trkpt lat="46.951753" lon="25.947153">
        <ele>1855.075</ele>
        <time>2017-05-27T11:10:34Z</time>
      </trkpt>
      <trkpt lat="46.951850" lon="25.947110">
        <ele>1854.081</ele>
        <time>2017-05-27T11:10:47Z</time>
      </trkpt>
      <trkpt lat="46.951938" lon="25.947135">
        <ele>1851.043</ele>
        <time>2017-05-27T11:11:09Z</time>
      </trkpt>
      <trkpt lat="46.952017" lon="25.947060">
        <ele>1855.052</ele>
        <time>2017-05-27T11:12:17Z</time>
      </trkpt>
      <trkpt lat="46.952061" lon="25.946941">
        <ele>1856.096</ele>
        <time>2017-05-27T11:13:09Z</time>
      </trkpt>
      <trkpt lat="46.952101" lon="25.946818">
        <ele>1858.037</ele>
        <time>2017-05-27T11:13:26Z</time>
      </trkpt>
      <trkpt lat="46.952142" lon="25.946699">
        <ele>1859.017</ele>
        <time>2017-05-27T11:13:41Z</time>
      </trkpt>
      <trkpt lat="46.952175" lon="25.946575">
        <ele>1859.060</ele>
        <time>2017-05-27T11:13:53Z</time>
      </trkpt>
      <trkpt lat="46.952218" lon="25.946457">
        <ele>1866.074</ele>
        <time>2017-05-27T11:14:23Z</time>
      </trkpt>
      <trkpt lat="46.952225" lon="25.946326">
        <ele>1868.056</ele>
        <time>2017-05-27T11:15:02Z</time>
      </trkpt>
      <trkpt lat="46.952292" lon="25.946236">
        <ele>1864.021</ele>
        <time>2017-05-27T11:15:21Z</time>
      </trkpt>
      <trkpt lat="46.952385" lon="25.946242">
        <ele>1864.008</ele>
        <time>2017-05-27T11:15:46Z</time>
      </trkpt>
      <trkpt lat="46.952475" lon="25.946220">
        <ele>1864.098</ele>
        <time>2017-05-27T11:15:59Z</time>
      </trkpt>
      <trkpt lat="46.952557" lon="25.946143">
        <ele>1864.064</ele>
        <time>2017-05-27T11:16:08Z</time>
      </trkpt>
      <trkpt lat="46.952619" lon="25.946039">
        <ele>1864.066</ele>
        <time>2017-05-27T11:16:17Z</time>
      </trkpt>
      <trkpt lat="46.952670" lon="25.945922">
        <ele>1860.025</ele>
        <time>2017-05-27T11:16:27Z</time>
      </trkpt>
      <trkpt lat="46.952696" lon="25.945795">
        <ele>1857.059</ele>
        <time>2017-05-27T11:16:39Z</time>
      </trkpt>
      <trkpt lat="46.952714" lon="25.945663">
        <ele>1857.090</ele>
        <time>2017-05-27T11:16:50Z</time>
      </trkpt>
      <trkpt lat="46.952748" lon="25.945540">
        <ele>1857.020</ele>
        <time>2017-05-27T11:17:35Z</time>
      </trkpt>
      <trkpt lat="46.952820" lon="25.945451">
        <ele>1858.083</ele>
        <time>2017-05-27T11:19:18Z</time>
      </trkpt>
      <trkpt lat="46.952915" lon="25.945391">
        <ele>1856.056</ele>
        <time>2017-05-27T11:19:29Z</time>
      </trkpt>
      <trkpt lat="46.952989" lon="25.945297">
        <ele>1855.059</ele>
        <time>2017-05-27T11:19:39Z</time>
      </trkpt>
      <trkpt lat="46.953074" lon="25.945230">
        <ele>1853.014</ele>
        <time>2017-05-27T11:19:50Z</time>
      </trkpt>
      <trkpt lat="46.953148" lon="25.945132">
        <ele>1851.008</ele>
        <time>2017-05-27T11:20:02Z</time>
      </trkpt>
      <trkpt lat="46.953193" lon="25.945013">
        <ele>1851.076</ele>
        <time>2017-05-27T11:20:12Z</time>
      </trkpt>
      <trkpt lat="46.953281" lon="25.944952">
        <ele>1848.082</ele>
        <time>2017-05-27T11:20:23Z</time>
      </trkpt>
      <trkpt lat="46.953358" lon="25.944869">
        <ele>1847.054</ele>
        <time>2017-05-27T11:20:32Z</time>
      </trkpt>
      <trkpt lat="46.953436" lon="25.944799">
        <ele>1845.083</ele>
        <time>2017-05-27T11:20:43Z</time>
      </trkpt>
      <trkpt lat="46.953522" lon="25.944740">
        <ele>1844.077</ele>
        <time>2017-05-27T11:20:53Z</time>
      </trkpt>
      <trkpt lat="46.953598" lon="25.944669">
        <ele>1846.078</ele>
        <time>2017-05-27T11:21:03Z</time>
      </trkpt>
      <trkpt lat="46.953657" lon="25.944567">
        <ele>1844.078</ele>
        <time>2017-05-27T11:21:15Z</time>
      </trkpt>
      <trkpt lat="46.953739" lon="25.944506">
        <ele>1841.011</ele>
        <time>2017-05-27T11:21:29Z</time>
      </trkpt>
      <trkpt lat="46.953827" lon="25.944478">
        <ele>1839.031</ele>
        <time>2017-05-27T11:21:39Z</time>
      </trkpt>
      <trkpt lat="46.953919" lon="25.944408">
        <ele>1837.061</ele>
        <time>2017-05-27T11:21:49Z</time>
      </trkpt>
      <trkpt lat="46.953978" lon="25.944299">
        <ele>1833.007</ele>
        <time>2017-05-27T11:22:04Z</time>
      </trkpt>
      <trkpt lat="46.954038" lon="25.944198">
        <ele>1833.008</ele>
        <time>2017-05-27T11:22:14Z</time>
      </trkpt>
      <trkpt lat="46.954127" lon="25.944119">
        <ele>1828.044</ele>
        <time>2017-05-27T11:22:41Z</time>
      </trkpt>
      <trkpt lat="46.954152" lon="25.943991">
        <ele>1825.090</ele>
        <time>2017-05-27T11:23:11Z</time>
      </trkpt>
      <trkpt lat="46.954120" lon="25.943868">
        <ele>1825.042</ele>
        <time>2017-05-27T11:23:53Z</time>
      </trkpt>
      <trkpt lat="46.954121" lon="25.943721">
        <ele>1822.041</ele>
        <time>2017-05-27T11:24:08Z</time>
      </trkpt>
      <trkpt lat="46.954085" lon="25.943589">
        <ele>1824.075</ele>
        <time>2017-05-27T11:24:15Z</time>
      </trkpt>
      <trkpt lat="46.954048" lon="25.943458">
        <ele>1825.016</ele>
        <time>2017-05-27T11:24:22Z</time>
      </trkpt>
      <trkpt lat="46.954013" lon="25.943332">
        <ele>1827.026</ele>
        <time>2017-05-27T11:24:29Z</time>
      </trkpt>
      <trkpt lat="46.954054" lon="25.943213">
        <ele>1824.019</ele>
        <time>2017-05-27T11:24:48Z</time>
      </trkpt>
      <trkpt lat="46.954009" lon="25.943329">
        <ele>1826.049</ele>
        <time>2017-05-27T11:25:44Z</time>
      </trkpt>
      <trkpt lat="46.954051" lon="25.943212">
        <ele>1823.002</ele>
        <time>2017-05-27T11:36:57Z</time>
      </trkpt>
      <trkpt lat="46.954137" lon="25.943159">
        <ele>1822.022</ele>
        <time>2017-05-27T11:37:16Z</time>
      </trkpt>
      <trkpt lat="46.954216" lon="25.943069">
        <ele>1824.008</ele>
        <time>2017-05-27T11:37:30Z</time>
      </trkpt>
      <trkpt lat="46.954305" lon="25.943049">
        <ele>1822.085</ele>
        <time>2017-05-27T11:37:48Z</time>
      </trkpt>
      <trkpt lat="46.954399" lon="25.943092">
        <ele>1822.061</ele>
        <time>2017-05-27T11:37:58Z</time>
      </trkpt>
      <trkpt lat="46.954486" lon="25.943024">
        <ele>1828.033</ele>
        <time>2017-05-27T11:38:10Z</time>
      </trkpt>
      <trkpt lat="46.954563" lon="25.943095">
        <ele>1829.042</ele>
        <time>2017-05-27T11:38:28Z</time>
      </trkpt>
      <trkpt lat="46.954655" lon="25.943118">
        <ele>1826.086</ele>
        <time>2017-05-27T11:38:37Z</time>
      </trkpt>
      <trkpt lat="46.954745" lon="25.943160">
        <ele>1822.047</ele>
        <time>2017-05-27T11:39:03Z</time>
      </trkpt>
      <trkpt lat="46.954830" lon="25.943112">
        <ele>1822.067</ele>
        <time>2017-05-27T11:39:12Z</time>
      </trkpt>
      <trkpt lat="46.954927" lon="25.943124">
        <ele>1819.020</ele>
        <time>2017-05-27T11:39:23Z</time>
      </trkpt>
      <trkpt lat="46.955017" lon="25.943105">
        <ele>1815.056</ele>
        <time>2017-05-27T11:39:36Z</time>
      </trkpt>
      <trkpt lat="46.954983" lon="25.943242">
        <ele>1808.059</ele>
        <time>2017-05-27T11:41:56Z</time>
      </trkpt>
      <trkpt lat="46.954953" lon="25.943099">
        <ele>1821.014</ele>
        <time>2017-05-27T11:42:24Z</time>
      </trkpt>
      <trkpt lat="46.955011" lon="25.942986">
        <ele>1825.008</ele>
        <time>2017-05-27T11:42:42Z</time>
      </trkpt>
      <trkpt lat="46.954997" lon="25.943119">
        <ele>1814.056</ele>
        <time>2017-05-27T11:43:36Z</time>
      </trkpt>
      <trkpt lat="46.954970" lon="25.943246">
        <ele>1810.022</ele>
        <time>2017-05-27T11:44:08Z</time>
      </trkpt>
      <trkpt lat="46.954910" lon="25.943147">
        <ele>1819.024</ele>
        <time>2017-05-27T11:45:12Z</time>
      </trkpt>
      <trkpt lat="46.954998" lon="25.943099">
        <ele>1819.023</ele>
        <time>2017-05-27T11:48:27Z</time>
      </trkpt>
      <trkpt lat="46.955083" lon="25.943044">
        <ele>1815.047</ele>
        <time>2017-05-27T11:48:40Z</time>
      </trkpt>
      <trkpt lat="46.955175" lon="25.943023">
        <ele>1811.098</ele>
        <time>2017-05-27T11:48:52Z</time>
      </trkpt>
      <trkpt lat="46.955268" lon="25.943042">
        <ele>1806.088</ele>
        <time>2017-05-27T11:49:03Z</time>
      </trkpt>
      <trkpt lat="46.955357" lon="25.943004">
        <ele>1802.011</ele>
        <time>2017-05-27T11:49:16Z</time>
      </trkpt>
      <trkpt lat="46.955440" lon="25.942941">
        <ele>1800.054</ele>
        <time>2017-05-27T11:49:26Z</time>
      </trkpt>
      <trkpt lat="46.955518" lon="25.942862">
        <ele>1798.056</ele>
        <time>2017-05-27T11:49:35Z</time>
      </trkpt>
      <trkpt lat="46.955615" lon="25.942846">
        <ele>1793.011</ele>
        <time>2017-05-27T11:49:45Z</time>
      </trkpt>
      <trkpt lat="46.955641" lon="25.942713">
        <ele>1793.008</ele>
        <time>2017-05-27T11:49:59Z</time>
      </trkpt>
      <trkpt lat="46.955651" lon="25.942572">
        <ele>1798.096</ele>
        <time>2017-05-27T11:50:08Z</time>
      </trkpt>
      <trkpt lat="46.955661" lon="25.942424">
        <ele>1802.042</ele>
        <time>2017-05-27T11:50:15Z</time>
      </trkpt>
      <trkpt lat="46.955677" lon="25.942294">
        <ele>1801.044</ele>
        <time>2017-05-27T11:50:25Z</time>
      </trkpt>
      <trkpt lat="46.955731" lon="25.942186">
        <ele>1801.033</ele>
        <time>2017-05-27T11:50:34Z</time>
      </trkpt>
      <trkpt lat="46.955808" lon="25.942087">
        <ele>1797.057</ele>
        <time>2017-05-27T11:50:50Z</time>
      </trkpt>
      <trkpt lat="46.955839" lon="25.941961">
        <ele>1797.098</ele>
        <time>2017-05-27T11:51:02Z</time>
      </trkpt>
      <trkpt lat="46.955817" lon="25.941826">
        <ele>1800.018</ele>
        <time>2017-05-27T11:51:18Z</time>
      </trkpt>
      <trkpt lat="46.955833" lon="25.941694">
        <ele>1795.021</ele>
        <time>2017-05-27T11:51:35Z</time>
      </trkpt>
      <trkpt lat="46.955823" lon="25.941562">
        <ele>1797.038</ele>
        <time>2017-05-27T11:51:49Z</time>
      </trkpt>
      <trkpt lat="46.955884" lon="25.941455">
        <ele>1799.070</ele>
        <time>2017-05-27T11:52:01Z</time>
      </trkpt>
      <trkpt lat="46.955927" lon="25.941338">
        <ele>1803.017</ele>
        <time>2017-05-27T11:52:31Z</time>
      </trkpt>
      <trkpt lat="46.956017" lon="25.941309">
        <ele>1801.008</ele>
        <time>2017-05-27T11:53:02Z</time>
      </trkpt>
      <trkpt lat="46.956047" lon="25.941178">
        <ele>1805.024</ele>
        <time>2017-05-27T11:53:18Z</time>
      </trkpt>
      <trkpt lat="46.956118" lon="25.941088">
        <ele>1804.050</ele>
        <time>2017-05-27T11:53:32Z</time>
      </trkpt>
      <trkpt lat="46.956204" lon="25.941029">
        <ele>1798.062</ele>
        <time>2017-05-27T11:53:47Z</time>
      </trkpt>
      <trkpt lat="46.956288" lon="25.940931">
        <ele>1797.061</ele>
        <time>2017-05-27T11:54:02Z</time>
      </trkpt>
      <trkpt lat="46.956324" lon="25.940810">
        <ele>1802.055</ele>
        <time>2017-05-27T11:55:33Z</time>
      </trkpt>
      <trkpt lat="46.956360" lon="25.940689">
        <ele>1795.036</ele>
        <time>2017-05-27T11:55:58Z</time>
      </trkpt>
      <trkpt lat="46.956360" lon="25.940555">
        <ele>1791.066</ele>
        <time>2017-05-27T11:56:09Z</time>
      </trkpt>
      <trkpt lat="46.956311" lon="25.940428">
        <ele>1797.069</ele>
        <time>2017-05-27T11:56:19Z</time>
      </trkpt>
      <trkpt lat="46.956368" lon="25.940316">
        <ele>1792.015</ele>
        <time>2017-05-27T11:56:28Z</time>
      </trkpt>
      <trkpt lat="46.956373" lon="25.940183">
        <ele>1787.065</ele>
        <time>2017-05-27T11:56:36Z</time>
      </trkpt>
      <trkpt lat="46.956417" lon="25.940046">
        <ele>1785.011</ele>
        <time>2017-05-27T11:56:51Z</time>
      </trkpt>
      <trkpt lat="46.956437" lon="25.939890">
        <ele>1788.008</ele>
        <time>2017-05-27T11:57:01Z</time>
      </trkpt>
      <trkpt lat="46.956414" lon="25.939763">
        <ele>1791.092</ele>
        <time>2017-05-27T11:57:22Z</time>
      </trkpt>
      <trkpt lat="46.956433" lon="25.939632">
        <ele>1788.018</ele>
        <time>2017-05-27T11:57:32Z</time>
      </trkpt>
      <trkpt lat="46.956476" lon="25.939500">
        <ele>1789.060</ele>
        <time>2017-05-27T11:57:46Z</time>
      </trkpt>
      <trkpt lat="46.956520" lon="25.939368">
        <ele>1789.069</ele>
        <time>2017-05-27T11:58:11Z</time>
      </trkpt>
      <trkpt lat="46.956551" lon="25.939231">
        <ele>1789.053</ele>
        <time>2017-05-27T11:58:19Z</time>
      </trkpt>
      <trkpt lat="46.956525" lon="25.939105">
        <ele>1790.074</ele>
        <time>2017-05-27T11:58:30Z</time>
      </trkpt>
      <trkpt lat="46.956591" lon="25.938999">
        <ele>1785.084</ele>
        <time>2017-05-27T11:58:42Z</time>
      </trkpt>
      <trkpt lat="46.956590" lon="25.938866">
        <ele>1787.057</ele>
        <time>2017-05-27T11:58:54Z</time>
      </trkpt>
      <trkpt lat="46.956600" lon="25.938735">
        <ele>1786.067</ele>
        <time>2017-05-27T11:59:17Z</time>
      </trkpt>
      <trkpt lat="46.956643" lon="25.938610">
        <ele>1787.081</ele>
        <time>2017-05-27T11:59:32Z</time>
      </trkpt>
      <trkpt lat="46.956693" lon="25.938469">
        <ele>1789.019</ele>
        <time>2017-05-27T11:59:49Z</time>
      </trkpt>
      <trkpt lat="46.956751" lon="25.938354">
        <ele>1791.008</ele>
        <time>2017-05-27T12:00:19Z</time>
      </trkpt>
      <trkpt lat="46.956841" lon="25.938298">
        <ele>1790.097</ele>
        <time>2017-05-27T12:00:32Z</time>
      </trkpt>
      <trkpt lat="46.956900" lon="25.938192">
        <ele>1788.053</ele>
        <time>2017-05-27T12:00:45Z</time>
      </trkpt>
      <trkpt lat="46.956977" lon="25.938109">
        <ele>1787.055</ele>
        <time>2017-05-27T12:01:09Z</time>
      </trkpt>
      <trkpt lat="46.957061" lon="25.938052">
        <ele>1785.024</ele>
        <time>2017-05-27T12:01:23Z</time>
      </trkpt>
      <trkpt lat="46.957087" lon="25.937913">
        <ele>1784.098</ele>
        <time>2017-05-27T12:01:35Z</time>
      </trkpt>
      <trkpt lat="46.957115" lon="25.937786">
        <ele>1788.099</ele>
        <time>2017-05-27T12:02:15Z</time>
      </trkpt>
      <trkpt lat="46.957127" lon="25.937647">
        <ele>1786.019</ele>
        <time>2017-05-27T12:02:53Z</time>
      </trkpt>
      <trkpt lat="46.957163" lon="25.937505">
        <ele>1785.052</ele>
        <time>2017-05-27T12:03:07Z</time>
      </trkpt>
      <trkpt lat="46.957182" lon="25.937356">
        <ele>1785.023</ele>
        <time>2017-05-27T12:03:15Z</time>
      </trkpt>
      <trkpt lat="46.957200" lon="25.937218">
        <ele>1790.083</ele>
        <time>2017-05-27T12:03:34Z</time>
      </trkpt>
      <trkpt lat="46.957220" lon="25.937082">
        <ele>1791.011</ele>
        <time>2017-05-27T12:03:43Z</time>
      </trkpt>
      <trkpt lat="46.957258" lon="25.936948">
        <ele>1790.008</ele>
        <time>2017-05-27T12:04:21Z</time>
      </trkpt>
      <trkpt lat="46.957335" lon="25.936868">
        <ele>1781.013</ele>
        <time>2017-05-27T12:04:34Z</time>
      </trkpt>
      <trkpt lat="46.957341" lon="25.936715">
        <ele>1781.019</ele>
        <time>2017-05-27T12:04:55Z</time>
      </trkpt>
      <trkpt lat="46.957369" lon="25.936584">
        <ele>1778.051</ele>
        <time>2017-05-27T12:05:05Z</time>
      </trkpt>
      <trkpt lat="46.957390" lon="25.936444">
        <ele>1777.070</ele>
        <time>2017-05-27T12:05:18Z</time>
      </trkpt>
      <trkpt lat="46.957399" lon="25.936303">
        <ele>1774.094</ele>
        <time>2017-05-27T12:05:29Z</time>
      </trkpt>
      <trkpt lat="46.957389" lon="25.936167">
        <ele>1775.035</ele>
        <time>2017-05-27T12:05:41Z</time>
      </trkpt>
      <trkpt lat="46.957388" lon="25.936034">
        <ele>1778.055</ele>
        <time>2017-05-27T12:05:50Z</time>
      </trkpt>
      <trkpt lat="46.957416" lon="25.935886">
        <ele>1774.018</ele>
        <time>2017-05-27T12:06:05Z</time>
      </trkpt>
      <trkpt lat="46.957457" lon="25.935769">
        <ele>1770.042</ele>
        <time>2017-05-27T12:06:13Z</time>
      </trkpt>
      <trkpt lat="46.957457" lon="25.935615">
        <ele>1767.022</ele>
        <time>2017-05-27T12:06:35Z</time>
      </trkpt>
      <trkpt lat="46.957445" lon="25.935481">
        <ele>1774.014</ele>
        <time>2017-05-27T12:07:14Z</time>
      </trkpt>
      <trkpt lat="46.957492" lon="25.935361">
        <ele>1772.008</ele>
        <time>2017-05-27T12:07:31Z</time>
      </trkpt>
      <trkpt lat="46.957565" lon="25.935280">
        <ele>1771.055</ele>
        <time>2017-05-27T12:09:33Z</time>
      </trkpt>
      <trkpt lat="46.957517" lon="25.935165">
        <ele>1766.021</ele>
        <time>2017-05-27T12:13:49Z</time>
      </trkpt>
      <trkpt lat="46.957424" lon="25.935135">
        <ele>1768.093</ele>
        <time>2017-05-27T12:15:09Z</time>
      </trkpt>
      <trkpt lat="46.957494" lon="25.935220">
        <ele>1769.042</ele>
        <time>2017-05-27T12:17:01Z</time>
      </trkpt>
      <trkpt lat="46.957547" lon="25.935348">
        <ele>1772.016</ele>
        <time>2017-05-27T12:18:25Z</time>
      </trkpt>
      <trkpt lat="46.957579" lon="25.935473">
        <ele>1773.037</ele>
        <time>2017-05-27T12:18:33Z</time>
      </trkpt>
      <trkpt lat="46.957628" lon="25.935596">
        <ele>1778.017</ele>
        <time>2017-05-27T12:18:44Z</time>
      </trkpt>
      <trkpt lat="46.957665" lon="25.935729">
        <ele>1781.080</ele>
        <time>2017-05-27T12:19:08Z</time>
      </trkpt>
      <trkpt lat="46.957636" lon="25.935855">
        <ele>1788.064</ele>
        <time>2017-05-27T12:19:35Z</time>
      </trkpt>
      <trkpt lat="46.957634" lon="25.935990">
        <ele>1791.006</ele>
        <time>2017-05-27T12:20:23Z</time>
      </trkpt>
      <trkpt lat="46.957667" lon="25.936121">
        <ele>1798.016</ele>
        <time>2017-05-27T12:20:50Z</time>
      </trkpt>
      <trkpt lat="46.957659" lon="25.936262">
        <ele>1802.008</ele>
        <time>2017-05-27T12:21:05Z</time>
      </trkpt>
      <trkpt lat="46.957729" lon="25.936346">
        <ele>1806.057</ele>
        <time>2017-05-27T12:22:05Z</time>
      </trkpt>
      <trkpt lat="46.957819" lon="25.936353">
        <ele>1809.013</ele>
        <time>2017-05-27T12:22:20Z</time>
      </trkpt>
      <trkpt lat="46.957838" lon="25.936482">
        <ele>1817.015</ele>
        <time>2017-05-27T12:23:16Z</time>
      </trkpt>
      <trkpt lat="46.957816" lon="25.936611">
        <ele>1821.034</ele>
        <time>2017-05-27T12:23:39Z</time>
      </trkpt>
      <trkpt lat="46.957893" lon="25.936690">
        <ele>1826.068</ele>
        <time>2017-05-27T12:24:38Z</time>
      </trkpt>
      <trkpt lat="46.957958" lon="25.936781">
        <ele>1827.029</ele>
        <time>2017-05-27T12:24:59Z</time>
      </trkpt>
      <trkpt lat="46.957984" lon="25.936909">
        <ele>1828.039</ele>
        <time>2017-05-27T12:25:20Z</time>
      </trkpt>
      <trkpt lat="46.958033" lon="25.937029">
        <ele>1832.092</ele>
        <time>2017-05-27T12:25:34Z</time>
      </trkpt>
      <trkpt lat="46.958040" lon="25.937162">
        <ele>1836.065</ele>
        <time>2017-05-27T12:28:43Z</time>
      </trkpt>
      <trkpt lat="46.958031" lon="25.937294">
        <ele>1838.068</ele>
        <time>2017-05-27T12:34:16Z</time>
      </trkpt>
      <trkpt lat="46.958000" lon="25.937439">
        <ele>1835.014</ele>
        <time>2017-05-27T12:35:07Z</time>
      </trkpt>
      <trkpt lat="46.957986" lon="25.937578">
        <ele>1834.008</ele>
        <time>2017-05-27T12:35:20Z</time>
      </trkpt>
      <trkpt lat="46.957968" lon="25.937714">
        <ele>1834.087</ele>
        <time>2017-05-27T12:35:43Z</time>
      </trkpt>
      <trkpt lat="46.957933" lon="25.937844">
        <ele>1835.093</ele>
        <time>2017-05-27T12:36:02Z</time>
      </trkpt>
      <trkpt lat="46.957926" lon="25.937977">
        <ele>1837.075</ele>
        <time>2017-05-27T12:36:18Z</time>
      </trkpt>
      <trkpt lat="46.957891" lon="25.938099">
        <ele>1838.034</ele>
        <time>2017-05-27T12:36:57Z</time>
      </trkpt>
      <trkpt lat="46.957878" lon="25.938233">
        <ele>1837.058</ele>
        <time>2017-05-27T12:37:37Z</time>
      </trkpt>
      <trkpt lat="46.957828" lon="25.938344">
        <ele>1838.049</ele>
        <time>2017-05-27T12:38:17Z</time>
      </trkpt>
      <trkpt lat="46.957764" lon="25.938450">
        <ele>1839.089</ele>
        <time>2017-05-27T12:38:50Z</time>
      </trkpt>
      <trkpt lat="46.957676" lon="25.938491">
        <ele>1839.082</ele>
        <time>2017-05-27T12:39:20Z</time>
      </trkpt>
      <trkpt lat="46.957587" lon="25.938527">
        <ele>1837.057</ele>
        <time>2017-05-27T12:39:37Z</time>
      </trkpt>
      <trkpt lat="46.957531" lon="25.938637">
        <ele>1836.000</ele>
        <time>2017-05-27T12:39:50Z</time>
      </trkpt>
      <trkpt lat="46.957487" lon="25.938759">
        <ele>1838.020</ele>
        <time>2017-05-27T12:40:11Z</time>
      </trkpt>
      <trkpt lat="46.957427" lon="25.938864">
        <ele>1840.008</ele>
        <time>2017-05-27T12:42:13Z</time>
      </trkpt>
      <trkpt lat="46.957397" lon="25.938994">
        <ele>1843.096</ele>
        <time>2017-05-27T12:42:26Z</time>
      </trkpt>
      <trkpt lat="46.957328" lon="25.939090">
        <ele>1845.052</ele>
        <time>2017-05-27T12:42:41Z</time>
      </trkpt>
      <trkpt lat="46.957370" lon="25.939214">
        <ele>1847.094</ele>
        <time>2017-05-27T12:43:20Z</time>
      </trkpt>
      <trkpt lat="46.957393" lon="25.939352">
        <ele>1851.093</ele>
        <time>2017-05-27T12:43:47Z</time>
      </trkpt>
      <trkpt lat="46.957379" lon="25.939482">
        <ele>1855.057</ele>
        <time>2017-05-27T12:44:28Z</time>
      </trkpt>
      <trkpt lat="46.957412" lon="25.939605">
        <ele>1856.078</ele>
        <time>2017-05-27T12:44:40Z</time>
      </trkpt>
      <trkpt lat="46.957495" lon="25.939670">
        <ele>1857.078</ele>
        <time>2017-05-27T12:44:52Z</time>
      </trkpt>
      <trkpt lat="46.957587" lon="25.939648">
        <ele>1857.011</ele>
        <time>2017-05-27T12:45:05Z</time>
      </trkpt>
      <trkpt lat="46.957690" lon="25.939629">
        <ele>1857.049</ele>
        <time>2017-05-27T12:46:30Z</time>
      </trkpt>
      <trkpt lat="46.957777" lon="25.939572">
        <ele>1858.002</ele>
        <time>2017-05-27T12:46:40Z</time>
      </trkpt>
      <trkpt lat="46.957870" lon="25.939549">
        <ele>1857.022</ele>
        <time>2017-05-27T12:47:01Z</time>
      </trkpt>
      <trkpt lat="46.957967" lon="25.939585">
        <ele>1855.008</ele>
        <time>2017-05-27T12:47:14Z</time>
      </trkpt>
      <trkpt lat="46.958061" lon="25.939589">
        <ele>1853.075</ele>
        <time>2017-05-27T12:48:27Z</time>
      </trkpt>
      <trkpt lat="46.958116" lon="25.939699">
        <ele>1851.061</ele>
        <time>2017-05-27T12:48:46Z</time>
      </trkpt>
      <trkpt lat="46.958204" lon="25.939732">
        <ele>1847.033</ele>
        <time>2017-05-27T12:49:26Z</time>
      </trkpt>
      <trkpt lat="46.958296" lon="25.939798">
        <ele>1847.032</ele>
        <time>2017-05-27T12:50:09Z</time>
      </trkpt>
      <trkpt lat="46.958390" lon="25.939800">
        <ele>1844.096</ele>
        <time>2017-05-27T12:50:26Z</time>
      </trkpt>
      <trkpt lat="46.958484" lon="25.939769">
        <ele>1843.027</ele>
        <time>2017-05-27T12:50:39Z</time>
      </trkpt>
      <trkpt lat="46.958566" lon="25.939714">
        <ele>1840.047</ele>
        <time>2017-05-27T12:50:51Z</time>
      </trkpt>
      <trkpt lat="46.958661" lon="25.939705">
        <ele>1839.030</ele>
        <time>2017-05-27T12:51:02Z</time>
      </trkpt>
      <trkpt lat="46.958729" lon="25.939805">
        <ele>1838.043</ele>
        <time>2017-05-27T12:51:13Z</time>
      </trkpt>
      <trkpt lat="46.958795" lon="25.939899">
        <ele>1837.064</ele>
        <time>2017-05-27T12:51:25Z</time>
      </trkpt>
      <trkpt lat="46.958877" lon="25.939977">
        <ele>1837.010</ele>
        <time>2017-05-27T12:51:36Z</time>
      </trkpt>
      <trkpt lat="46.958969" lon="25.940022">
        <ele>1838.008</ele>
        <time>2017-05-27T12:51:48Z</time>
      </trkpt>
      <trkpt lat="46.959063" lon="25.940012">
        <ele>1838.095</ele>
        <time>2017-05-27T12:51:58Z</time>
      </trkpt>
      <trkpt lat="46.959133" lon="25.939929">
        <ele>1837.091</ele>
        <time>2017-05-27T12:52:08Z</time>
      </trkpt>
      <trkpt lat="46.959201" lon="25.939831">
        <ele>1836.053</ele>
        <time>2017-05-27T12:52:17Z</time>
      </trkpt>
      <trkpt lat="46.959283" lon="25.939762">
        <ele>1834.082</ele>
        <time>2017-05-27T12:52:25Z</time>
      </trkpt>
      <trkpt lat="46.959371" lon="25.939734">
        <ele>1833.076</ele>
        <time>2017-05-27T12:52:32Z</time>
      </trkpt>
      <trkpt lat="46.959463" lon="25.939705">
        <ele>1831.027</ele>
        <time>2017-05-27T12:52:45Z</time>
      </trkpt>
      <trkpt lat="46.959537" lon="25.939625">
        <ele>1831.047</ele>
        <time>2017-05-27T12:52:55Z</time>
      </trkpt>
      <trkpt lat="46.959588" lon="25.939508">
        <ele>1828.010</ele>
        <time>2017-05-27T12:53:06Z</time>
      </trkpt>
      <trkpt lat="46.959660" lon="25.939417">
        <ele>1825.072</ele>
        <time>2017-05-27T12:53:30Z</time>
      </trkpt>
      <trkpt lat="46.959745" lon="25.939374">
        <ele>1825.013</ele>
        <time>2017-05-27T12:53:41Z</time>
      </trkpt>
      <trkpt lat="46.959791" lon="25.939250">
        <ele>1825.014</ele>
        <time>2017-05-27T12:53:52Z</time>
      </trkpt>
      <trkpt lat="46.959841" lon="25.939140">
        <ele>1825.008</ele>
        <time>2017-05-27T12:54:01Z</time>
      </trkpt>
      <trkpt lat="46.959915" lon="25.939043">
        <ele>1822.078</ele>
        <time>2017-05-27T12:54:12Z</time>
      </trkpt>
      <trkpt lat="46.959992" lon="25.938970">
        <ele>1820.074</ele>
        <time>2017-05-27T12:54:22Z</time>
      </trkpt>
      <trkpt lat="46.960077" lon="25.938911">
        <ele>1817.026</ele>
        <time>2017-05-27T12:54:30Z</time>
      </trkpt>
      <trkpt lat="46.960166" lon="25.938861">
        <ele>1816.085</ele>
        <time>2017-05-27T12:54:51Z</time>
      </trkpt>
      <trkpt lat="46.960254" lon="25.938825">
        <ele>1814.079</ele>
        <time>2017-05-27T12:55:03Z</time>
      </trkpt>
      <trkpt lat="46.960316" lon="25.938723">
        <ele>1812.060</ele>
        <time>2017-05-27T12:55:24Z</time>
      </trkpt>
      <trkpt lat="46.960364" lon="25.938610">
        <ele>1812.070</ele>
        <time>2017-05-27T12:55:39Z</time>
      </trkpt>
      <trkpt lat="46.960407" lon="25.938493">
        <ele>1811.083</ele>
        <time>2017-05-27T12:55:49Z</time>
      </trkpt>
      <trkpt lat="46.960464" lon="25.938380">
        <ele>1809.045</ele>
        <time>2017-05-27T12:55:57Z</time>
      </trkpt>
      <trkpt lat="46.960504" lon="25.938245">
        <ele>1810.047</ele>
        <time>2017-05-27T12:56:06Z</time>
      </trkpt>
      <trkpt lat="46.960501" lon="25.938104">
        <ele>1809.011</ele>
        <time>2017-05-27T12:56:48Z</time>
      </trkpt>
      <trkpt lat="46.960547" lon="25.937991">
        <ele>1807.008</ele>
        <time>2017-05-27T12:59:16Z</time>
      </trkpt>
      <trkpt lat="46.960600" lon="25.937870">
        <ele>1802.055</ele>
        <time>2017-05-27T12:59:32Z</time>
      </trkpt>
      <trkpt lat="46.960642" lon="25.937748">
        <ele>1800.051</ele>
        <time>2017-05-27T12:59:42Z</time>
      </trkpt>
      <trkpt lat="46.960688" lon="25.937622">
        <ele>1800.023</ele>
        <time>2017-05-27T12:59:51Z</time>
      </trkpt>
      <trkpt lat="46.960731" lon="25.937488">
        <ele>1804.072</ele>
        <time>2017-05-27T13:00:02Z</time>
      </trkpt>
      <trkpt lat="46.960787" lon="25.937381">
        <ele>1805.036</ele>
        <time>2017-05-27T13:00:13Z</time>
      </trkpt>
      <trkpt lat="46.960774" lon="25.937233">
        <ele>1804.057</ele>
        <time>2017-05-27T13:00:22Z</time>
      </trkpt>
      <trkpt lat="46.960773" lon="25.937100">
        <ele>1804.077</ele>
        <time>2017-05-27T13:00:29Z</time>
      </trkpt>
      <trkpt lat="46.960775" lon="25.936963">
        <ele>1802.030</ele>
        <time>2017-05-27T13:00:39Z</time>
      </trkpt>
      <trkpt lat="46.960862" lon="25.936915">
        <ele>1802.085</ele>
        <time>2017-05-27T13:05:17Z</time>
      </trkpt>
      <trkpt lat="46.960928" lon="25.937009">
        <ele>1803.089</ele>
        <time>2017-05-27T13:05:31Z</time>
      </trkpt>
      <trkpt lat="46.961013" lon="25.937077">
        <ele>1801.017</ele>
        <time>2017-05-27T13:05:40Z</time>
      </trkpt>
      <trkpt lat="46.961111" lon="25.937109">
        <ele>1802.008</ele>
        <time>2017-05-27T13:05:50Z</time>
      </trkpt>
      <trkpt lat="46.961200" lon="25.937176">
        <ele>1800.029</ele>
        <time>2017-05-27T13:06:01Z</time>
      </trkpt>
      <trkpt lat="46.961265" lon="25.937280">
        <ele>1801.085</ele>
        <time>2017-05-27T13:06:10Z</time>
      </trkpt>
      <trkpt lat="46.961330" lon="25.937379">
        <ele>1801.077</ele>
        <time>2017-05-27T13:06:20Z</time>
      </trkpt>
      <trkpt lat="46.961387" lon="25.937482">
        <ele>1804.096</ele>
        <time>2017-05-27T13:06:30Z</time>
      </trkpt>
      <trkpt lat="46.961447" lon="25.937580">
        <ele>1806.080</ele>
        <time>2017-05-27T13:06:40Z</time>
      </trkpt>
      <trkpt lat="46.961502" lon="25.937694">
        <ele>1806.081</ele>
        <time>2017-05-27T13:06:50Z</time>
      </trkpt>
      <trkpt lat="46.961566" lon="25.937796">
        <ele>1807.031</ele>
        <time>2017-05-27T13:07:00Z</time>
      </trkpt>
      <trkpt lat="46.961613" lon="25.937913">
        <ele>1810.054</ele>
        <time>2017-05-27T13:07:10Z</time>
      </trkpt>
      <trkpt lat="46.961668" lon="25.938017">
        <ele>1810.068</ele>
        <time>2017-05-27T13:07:22Z</time>
      </trkpt>
      <trkpt lat="46.961738" lon="25.938118">
        <ele>1812.042</ele>
        <time>2017-05-27T13:07:36Z</time>
      </trkpt>
      <trkpt lat="46.961791" lon="25.938246">
        <ele>1813.026</ele>
        <time>2017-05-27T13:07:52Z</time>
      </trkpt>
      <trkpt lat="46.961827" lon="25.938380">
        <ele>1814.008</ele>
        <time>2017-05-27T13:08:01Z</time>
      </trkpt>
      <trkpt lat="46.961867" lon="25.938501">
        <ele>1815.047</ele>
        <time>2017-05-27T13:08:17Z</time>
      </trkpt>
      <trkpt lat="46.961913" lon="25.938614">
        <ele>1815.083</ele>
        <time>2017-05-27T13:08:26Z</time>
      </trkpt>
      <trkpt lat="46.961978" lon="25.938726">
        <ele>1816.055</ele>
        <time>2017-05-27T13:08:36Z</time>
      </trkpt>
      <trkpt lat="46.962040" lon="25.938825">
        <ele>1815.084</ele>
        <time>2017-05-27T13:08:45Z</time>
      </trkpt>
      <trkpt lat="46.962107" lon="25.938923">
        <ele>1815.028</ele>
        <time>2017-05-27T13:08:52Z</time>
      </trkpt>
      <trkpt lat="46.962163" lon="25.939029">
        <ele>1815.099</ele>
        <time>2017-05-27T13:09:00Z</time>
      </trkpt>
      <trkpt lat="46.962219" lon="25.939133">
        <ele>1815.089</ele>
        <time>2017-05-27T13:09:08Z</time>
      </trkpt>
      <trkpt lat="46.962282" lon="25.939236">
        <ele>1815.062</ele>
        <time>2017-05-27T13:09:18Z</time>
      </trkpt>
      <trkpt lat="46.962319" lon="25.939362">
        <ele>1816.028</ele>
        <time>2017-05-27T13:09:30Z</time>
      </trkpt>
      <trkpt lat="46.962352" lon="25.939492">
        <ele>1818.089</ele>
        <time>2017-05-27T13:09:43Z</time>
      </trkpt>
      <trkpt lat="46.962416" lon="25.939597">
        <ele>1820.017</ele>
        <time>2017-05-27T13:09:54Z</time>
      </trkpt>
      <trkpt lat="46.962481" lon="25.939697">
        <ele>1820.008</ele>
        <time>2017-05-27T13:10:20Z</time>
      </trkpt>
      <trkpt lat="46.962565" lon="25.939750">
        <ele>1818.063</ele>
        <time>2017-05-27T13:10:31Z</time>
      </trkpt>
      <trkpt lat="46.962639" lon="25.939832">
        <ele>1820.019</ele>
        <time>2017-05-27T13:10:44Z</time>
      </trkpt>
      <trkpt lat="46.962692" lon="25.939939">
        <ele>1823.021</ele>
        <time>2017-05-27T13:10:56Z</time>
      </trkpt>
      <trkpt lat="46.962723" lon="25.940070">
        <ele>1827.030</ele>
        <time>2017-05-27T13:11:18Z</time>
      </trkpt>
      <trkpt lat="46.962755" lon="25.940198">
        <ele>1826.094</ele>
        <time>2017-05-27T13:12:09Z</time>
      </trkpt>
      <trkpt lat="46.962788" lon="25.940334">
        <ele>1825.025</ele>
        <time>2017-05-27T13:12:17Z</time>
      </trkpt>
      <trkpt lat="46.962841" lon="25.940452">
        <ele>1827.095</ele>
        <time>2017-05-27T13:12:25Z</time>
      </trkpt>
      <trkpt lat="46.962901" lon="25.940568">
        <ele>1830.028</ele>
        <time>2017-05-27T13:13:43Z</time>
      </trkpt>
      <trkpt lat="46.962941" lon="25.940713">
        <ele>1830.012</ele>
        <time>2017-05-27T13:13:52Z</time>
      </trkpt>
      <trkpt lat="46.962988" lon="25.940828">
        <ele>1826.032</ele>
        <time>2017-05-27T13:13:59Z</time>
      </trkpt>
      <trkpt lat="46.963032" lon="25.940957">
        <ele>1827.005</ele>
        <time>2017-05-27T13:14:06Z</time>
      </trkpt>
      <trkpt lat="46.963048" lon="25.941087">
        <ele>1829.008</ele>
        <time>2017-05-27T13:14:11Z</time>
      </trkpt>
      <trkpt lat="46.963110" lon="25.941195">
        <ele>1828.022</ele>
        <time>2017-05-27T13:14:21Z</time>
      </trkpt>
      <trkpt lat="46.963147" lon="25.941320">
        <ele>1827.068</ele>
        <time>2017-05-27T13:14:28Z</time>
      </trkpt>
      <trkpt lat="46.963190" lon="25.941437">
        <ele>1828.050</ele>
        <time>2017-05-27T13:15:59Z</time>
      </trkpt>
      <trkpt lat="46.963257" lon="25.941532">
        <ele>1828.079</ele>
        <time>2017-05-27T13:16:17Z</time>
      </trkpt>
      <trkpt lat="46.963327" lon="25.941645">
        <ele>1828.083</ele>
        <time>2017-05-27T13:16:32Z</time>
      </trkpt>
      <trkpt lat="46.963390" lon="25.941755">
        <ele>1828.034</ele>
        <time>2017-05-27T13:16:42Z</time>
      </trkpt>
      <trkpt lat="46.963462" lon="25.941850">
        <ele>1827.024</ele>
        <time>2017-05-27T13:16:52Z</time>
      </trkpt>
      <trkpt lat="46.963541" lon="25.941926">
        <ele>1824.067</ele>
        <time>2017-05-27T13:17:02Z</time>
      </trkpt>
      <trkpt lat="46.963619" lon="25.942012">
        <ele>1825.022</ele>
        <time>2017-05-27T13:17:10Z</time>
      </trkpt>
      <trkpt lat="46.963690" lon="25.942102">
        <ele>1823.062</ele>
        <time>2017-05-27T13:17:18Z</time>
      </trkpt>
      <trkpt lat="46.963743" lon="25.942209">
        <ele>1826.008</ele>
        <time>2017-05-27T13:17:30Z</time>
      </trkpt>
      <trkpt lat="46.963804" lon="25.942334">
        <ele>1825.008</ele>
        <time>2017-05-27T13:17:45Z</time>
      </trkpt>
      <trkpt lat="46.963894" lon="25.942409">
        <ele>1824.063</ele>
        <time>2017-05-27T13:17:55Z</time>
      </trkpt>
      <trkpt lat="46.963970" lon="25.942503">
        <ele>1823.089</ele>
        <time>2017-05-27T13:18:02Z</time>
      </trkpt>
      <trkpt lat="46.964025" lon="25.942622">
        <ele>1825.071</ele>
        <time>2017-05-27T13:18:10Z</time>
      </trkpt>
      <trkpt lat="46.964092" lon="25.942713">
        <ele>1826.080</ele>
        <time>2017-05-27T13:18:19Z</time>
      </trkpt>
      <trkpt lat="46.964110" lon="25.942858">
        <ele>1828.054</ele>
        <time>2017-05-27T13:18:31Z</time>
      </trkpt>
      <trkpt lat="46.964146" lon="25.942988">
        <ele>1825.095</ele>
        <time>2017-05-27T13:18:40Z</time>
      </trkpt>
      <trkpt lat="46.964178" lon="25.943116">
        <ele>1825.085</ele>
        <time>2017-05-27T13:18:50Z</time>
      </trkpt>
      <trkpt lat="46.964224" lon="25.943249">
        <ele>1825.038</ele>
        <time>2017-05-27T13:19:00Z</time>
      </trkpt>
      <trkpt lat="46.964271" lon="25.943365">
        <ele>1825.056</ele>
        <time>2017-05-27T13:19:09Z</time>
      </trkpt>
      <trkpt lat="46.964340" lon="25.943461">
        <ele>1825.059</ele>
        <time>2017-05-27T13:19:19Z</time>
      </trkpt>
      <trkpt lat="46.964356" lon="25.943590">
        <ele>1824.014</ele>
        <time>2017-05-27T13:19:51Z</time>
      </trkpt>
      <trkpt lat="46.964353" lon="25.943728">
        <ele>1832.008</ele>
        <time>2017-05-27T13:20:47Z</time>
      </trkpt>
      <trkpt lat="46.964377" lon="25.943859">
        <ele>1831.036</ele>
        <time>2017-05-27T13:20:55Z</time>
      </trkpt>
      <trkpt lat="46.964447" lon="25.943958">
        <ele>1831.092</ele>
        <time>2017-05-27T13:21:05Z</time>
      </trkpt>
      <trkpt lat="46.964485" lon="25.944090">
        <ele>1826.064</ele>
        <time>2017-05-27T13:21:14Z</time>
      </trkpt>
      <trkpt lat="46.964557" lon="25.944174">
        <ele>1827.053</ele>
        <time>2017-05-27T13:21:20Z</time>
      </trkpt>
      <trkpt lat="46.964620" lon="25.944276">
        <ele>1824.017</ele>
        <time>2017-05-27T13:21:26Z</time>
      </trkpt>
      <trkpt lat="46.964695" lon="25.944377">
        <ele>1823.018</ele>
        <time>2017-05-27T13:21:35Z</time>
      </trkpt>
      <trkpt lat="46.964755" lon="25.944491">
        <ele>1825.068</ele>
        <time>2017-05-27T13:21:44Z</time>
      </trkpt>
      <trkpt lat="46.964788" lon="25.944622">
        <ele>1825.091</ele>
        <time>2017-05-27T13:21:52Z</time>
      </trkpt>
      <trkpt lat="46.964811" lon="25.944752">
        <ele>1825.024</ele>
        <time>2017-05-27T13:22:01Z</time>
      </trkpt>
      <trkpt lat="46.964844" lon="25.944886">
        <ele>1823.004</ele>
        <time>2017-05-27T13:22:09Z</time>
      </trkpt>
      <trkpt lat="46.964916" lon="25.945024">
        <ele>1823.014</ele>
        <time>2017-05-27T13:22:17Z</time>
      </trkpt>
      <trkpt lat="46.964944" lon="25.945165">
        <ele>1827.008</ele>
        <time>2017-05-27T13:22:24Z</time>
      </trkpt>
      <trkpt lat="46.964977" lon="25.945298">
        <ele>1825.023</ele>
        <time>2017-05-27T13:22:36Z</time>
      </trkpt>
      <trkpt lat="46.965043" lon="25.945407">
        <ele>1825.089</ele>
        <time>2017-05-27T13:22:43Z</time>
      </trkpt>
      <trkpt lat="46.965078" lon="25.945533">
        <ele>1824.091</ele>
        <time>2017-05-27T13:22:51Z</time>
      </trkpt>
      <trkpt lat="46.965118" lon="25.945663">
        <ele>1821.030</ele>
        <time>2017-05-27T13:23:02Z</time>
      </trkpt>
      <trkpt lat="46.965159" lon="25.945785">
        <ele>1817.014</ele>
        <time>2017-05-27T13:23:12Z</time>
      </trkpt>
      <trkpt lat="46.965179" lon="25.945924">
        <ele>1818.025</ele>
        <time>2017-05-27T13:23:21Z</time>
      </trkpt>
      <trkpt lat="46.965244" lon="25.946023">
        <ele>1821.045</ele>
        <time>2017-05-27T13:23:30Z</time>
      </trkpt>
      <trkpt lat="46.965325" lon="25.946102">
        <ele>1823.018</ele>
        <time>2017-05-27T13:23:40Z</time>
      </trkpt>
      <trkpt lat="46.965399" lon="25.946200">
        <ele>1824.096</ele>
        <time>2017-05-27T13:23:48Z</time>
      </trkpt>
      <trkpt lat="46.965427" lon="25.946325">
        <ele>1820.031</ele>
        <time>2017-05-27T13:24:05Z</time>
      </trkpt>
      <trkpt lat="46.965487" lon="25.946442">
        <ele>1819.024</ele>
        <time>2017-05-27T13:24:29Z</time>
      </trkpt>
      <trkpt lat="46.965545" lon="25.946552">
        <ele>1818.008</ele>
        <time>2017-05-27T13:24:44Z</time>
      </trkpt>
      <trkpt lat="46.965576" lon="25.946696">
        <ele>1816.020</ele>
        <time>2017-05-27T13:24:53Z</time>
      </trkpt>
      <trkpt lat="46.965572" lon="25.946833">
        <ele>1815.046</ele>
        <time>2017-05-27T13:25:04Z</time>
      </trkpt>
      <trkpt lat="46.965551" lon="25.946972">
        <ele>1815.038</ele>
        <time>2017-05-27T13:25:11Z</time>
      </trkpt>
      <trkpt lat="46.965528" lon="25.947106">
        <ele>1818.087</ele>
        <time>2017-05-27T13:25:20Z</time>
      </trkpt>
      <trkpt lat="46.965493" lon="25.947237">
        <ele>1818.011</ele>
        <time>2017-05-27T13:25:28Z</time>
      </trkpt>
      <trkpt lat="46.965440" lon="25.947366">
        <ele>1817.022</ele>
        <time>2017-05-27T13:25:39Z</time>
      </trkpt>
      <trkpt lat="46.965401" lon="25.947490">
        <ele>1817.022</ele>
        <time>2017-05-27T13:25:47Z</time>
      </trkpt>
      <trkpt lat="46.965351" lon="25.947604">
        <ele>1815.055</ele>
        <time>2017-05-27T13:25:54Z</time>
      </trkpt>
      <trkpt lat="46.965317" lon="25.947735">
        <ele>1815.034</ele>
        <time>2017-05-27T13:26:03Z</time>
      </trkpt>
      <trkpt lat="46.965315" lon="25.947869">
        <ele>1815.055</ele>
        <time>2017-05-27T13:26:13Z</time>
      </trkpt>
      <trkpt lat="46.965276" lon="25.947992">
        <ele>1814.010</ele>
        <time>2017-05-27T13:26:21Z</time>
      </trkpt>
      <trkpt lat="46.965324" lon="25.948118">
        <ele>1811.008</ele>
        <time>2017-05-27T13:26:31Z</time>
      </trkpt>
      <trkpt lat="46.965408" lon="25.948187">
        <ele>1811.024</ele>
        <time>2017-05-27T13:26:43Z</time>
      </trkpt>
      <trkpt lat="46.965406" lon="25.948319">
        <ele>1809.010</ele>
        <time>2017-05-27T13:26:56Z</time>
      </trkpt>
      <trkpt lat="46.965415" lon="25.948453">
        <ele>1809.062</ele>
        <time>2017-05-27T13:28:37Z</time>
      </trkpt>
      <trkpt lat="46.965384" lon="25.948583">
        <ele>1810.091</ele>
        <time>2017-05-27T13:28:55Z</time>
      </trkpt>
      <trkpt lat="46.965352" lon="25.948709">
        <ele>1804.095</ele>
        <time>2017-05-27T13:29:08Z</time>
      </trkpt>
      <trkpt lat="46.965277" lon="25.948801">
        <ele>1799.036</ele>
        <time>2017-05-27T13:29:26Z</time>
      </trkpt>
      <trkpt lat="46.965180" lon="25.948825">
        <ele>1797.076</ele>
        <time>2017-05-27T13:29:37Z</time>
      </trkpt>
      <trkpt lat="46.965105" lon="25.948748">
        <ele>1800.069</ele>
        <time>2017-05-27T13:29:47Z</time>
      </trkpt>
    </trkseg>
  </trk></gpx>