<?xml version="1.0" encoding="UTF-8"?>
<gpx creator="Wikiloc - https://www.wikiloc.com" version="1.1" xmlns="http://www.topografix.com/GPX/1/1" xmlns:xsi="http://www.w3.org/2001/XMLSchema-instance" xsi:schemaLocation="http://www.topografix.com/GPX/1/1 http://www.topografix.com/GPX/1/1/gpx.xsd">
  <metadata>
    <name>Wikiloc - Cascada Varciorog</name>
    <author>
      <name>Toni Grecu</name>
      <link href="https://www.wikiloc.com/wikiloc/user.do?id=2082631">
        <text>Toni Grecu on Wikiloc</text>
      </link>
    </author>
    <link href="https://www.wikiloc.com/hiking-trails/cascada-varciorog-17556228">
      <text>Cascada Varciorog on Wikiloc</text>
    </link>
    <time>2017-04-29T09:31:17Z</time>
  </metadata>
  <wpt lat="46.480233" lon="22.691461">
    <ele>1135.4</ele>
    <time>2017-05-03T11:32:02.721Z</time>
    <name>Cascada Varciorog </name>
    <cmt>Cascada Varciorog </cmt>
    <desc>Cascada Varciorog </desc>
  </wpt>
  <wpt lat="46.477551" lon="22.701685">
    <ele>1033.5</ele>
    <time>2017-05-03T11:32:02.934Z</time>
    <name>Placintarie </name>
    <cmt>Placintarie </cmt>
    <desc>Placintarie </desc>
  </wpt>
  <wpt lat="46.481614" lon="22.725305">
    <ele>901.3</ele>
    <time>2017-05-03T11:32:03.209Z</time>
    <name>Intrare cascada </name>
    <cmt>Intrare cascada </cmt>
    <desc>Intrare cascada </desc>
  </wpt>
  <trk>
    <name>Cascada Varciorog - Wikiloc</name>
    <cmt>Cascada Vârciorog este o arie protejata situata în Munții Bihor, aflat la poalele Vârfului Piatra Grăitoare cu o cădere de 15 m. Coordonate: 46° 28′ 48″ N, 22° 41′ 31″ E</cmt>
    <desc>Cascada Vârciorog este o arie protejata situata în Munții Bihor, aflat la poalele Vârfului Piatra Grăitoare cu o cădere de 15 m. Coordonate: 46° 28′ 48″ N, 22° 41′ 31″ E</desc>
    <trkseg>
      <trkpt lat="46.481718" lon="22.725297">
        <ele>899.872</ele>
        <time>2017-04-29T08:31:46Z</time>
      </trkpt>
      <trkpt lat="46.481634" lon="22.725361">
        <ele>900.013</ele>
        <time>2017-04-29T08:48:32Z</time>
      </trkpt>
      <trkpt lat="46.481531" lon="22.725467">
        <ele>901.014</ele>
        <time>2017-04-29T08:48:43Z</time>
      </trkpt>
      <trkpt lat="46.481464" lon="22.725558">
        <ele>900.608</ele>
        <time>2017-04-29T08:48:50Z</time>
      </trkpt>
      <trkpt lat="46.481379" lon="22.725617">
        <ele>901.158</ele>
        <time>2017-04-29T08:48:58Z</time>
      </trkpt>
      <trkpt lat="46.481291" lon="22.725673">
        <ele>903.664</ele>
        <time>2017-04-29T08:49:09Z</time>
      </trkpt>
      <trkpt lat="46.481201" lon="22.725739">
        <ele>905.592</ele>
        <time>2017-04-29T08:49:18Z</time>
      </trkpt>
      <trkpt lat="46.481146" lon="22.725845">
        <ele>904.542</ele>
        <time>2017-04-29T08:49:24Z</time>
      </trkpt>
      <trkpt lat="46.481058" lon="22.725942">
        <ele>905.223</ele>
        <time>2017-04-29T08:49:31Z</time>
      </trkpt>
      <trkpt lat="46.480988" lon="22.726040">
        <ele>905.029</ele>
        <time>2017-04-29T08:49:38Z</time>
      </trkpt>
      <trkpt lat="46.480922" lon="22.726153">
        <ele>904.329</ele>
        <time>2017-04-29T08:49:45Z</time>
      </trkpt>
      <trkpt lat="46.480862" lon="22.726253">
        <ele>904.155</ele>
        <time>2017-04-29T08:49:52Z</time>
      </trkpt>
      <trkpt lat="46.480799" lon="22.726359">
        <ele>904.136</ele>
        <time>2017-04-29T08:50:00Z</time>
      </trkpt>
      <trkpt lat="46.480714" lon="22.726433">
        <ele>906.617</ele>
        <time>2017-04-29T08:50:07Z</time>
      </trkpt>
      <trkpt lat="46.480649" lon="22.726530">
        <ele>908.118</ele>
        <time>2017-04-29T08:50:15Z</time>
      </trkpt>
      <trkpt lat="46.480593" lon="22.726635">
        <ele>909.008</ele>
        <time>2017-04-29T08:50:24Z</time>
      </trkpt>
      <trkpt lat="46.480541" lon="22.726759">
        <ele>909.594</ele>
        <time>2017-04-29T08:50:33Z</time>
      </trkpt>
      <trkpt lat="46.480494" lon="22.726886">
        <ele>909.840</ele>
        <time>2017-04-29T08:50:41Z</time>
      </trkpt>
      <trkpt lat="46.480443" lon="22.727018">
        <ele>910.498</ele>
        <time>2017-04-29T08:50:51Z</time>
      </trkpt>
      <trkpt lat="46.480400" lon="22.727144">
        <ele>910.828</ele>
        <time>2017-04-29T08:50:59Z</time>
      </trkpt>
      <trkpt lat="46.480341" lon="22.727250">
        <ele>912.269</ele>
        <time>2017-04-29T08:51:06Z</time>
      </trkpt>
      <trkpt lat="46.480285" lon="22.727355">
        <ele>913.735</ele>
        <time>2017-04-29T08:51:13Z</time>
      </trkpt>
      <trkpt lat="46.480226" lon="22.727455">
        <ele>913.945</ele>
        <time>2017-04-29T08:51:20Z</time>
      </trkpt>
      <trkpt lat="46.480162" lon="22.727567">
        <ele>913.421</ele>
        <time>2017-04-29T08:51:27Z</time>
      </trkpt>
      <trkpt lat="46.480087" lon="22.727642">
        <ele>913.456</ele>
        <time>2017-04-29T08:51:35Z</time>
      </trkpt>
      <trkpt lat="46.479996" lon="22.727699">
        <ele>913.859</ele>
        <time>2017-04-29T08:51:43Z</time>
      </trkpt>
      <trkpt lat="46.479899" lon="22.727675">
        <ele>913.514</ele>
        <time>2017-04-29T08:51:52Z</time>
      </trkpt>
      <trkpt lat="46.479798" lon="22.727650">
        <ele>913.308</ele>
        <time>2017-04-29T08:52:05Z</time>
      </trkpt>
      <trkpt lat="46.479713" lon="22.727602">
        <ele>913.516</ele>
        <time>2017-04-29T08:52:12Z</time>
      </trkpt>
      <trkpt lat="46.479631" lon="22.727528">
        <ele>913.922</ele>
        <time>2017-04-29T08:52:20Z</time>
      </trkpt>
      <trkpt lat="46.479550" lon="22.727464">
        <ele>914.170</ele>
        <time>2017-04-29T08:52:28Z</time>
      </trkpt>
      <trkpt lat="46.479452" lon="22.727390">
        <ele>914.270</ele>
        <time>2017-04-29T08:52:35Z</time>
      </trkpt>
      <trkpt lat="46.479379" lon="22.727308">
        <ele>914.681</ele>
        <time>2017-04-29T08:52:50Z</time>
      </trkpt>
      <trkpt lat="46.479300" lon="22.727203">
        <ele>915.197</ele>
        <time>2017-04-29T08:52:58Z</time>
      </trkpt>
      <trkpt lat="46.479242" lon="22.727096">
        <ele>915.687</ele>
        <time>2017-04-29T08:53:04Z</time>
      </trkpt>
      <trkpt lat="46.479181" lon="22.726982">
        <ele>915.943</ele>
        <time>2017-04-29T08:53:14Z</time>
      </trkpt>
      <trkpt lat="46.479117" lon="22.726882">
        <ele>916.023</ele>
        <time>2017-04-29T08:53:21Z</time>
      </trkpt>
      <trkpt lat="46.479048" lon="22.726797">
        <ele>915.883</ele>
        <time>2017-04-29T08:53:26Z</time>
      </trkpt>
      <trkpt lat="46.478983" lon="22.726697">
        <ele>915.311</ele>
        <time>2017-04-29T08:53:33Z</time>
      </trkpt>
      <trkpt lat="46.478910" lon="22.726603">
        <ele>914.408</ele>
        <time>2017-04-29T08:53:39Z</time>
      </trkpt>
      <trkpt lat="46.478824" lon="22.726516">
        <ele>912.813</ele>
        <time>2017-04-29T08:53:46Z</time>
      </trkpt>
      <trkpt lat="46.478725" lon="22.726463">
        <ele>910.819</ele>
        <time>2017-04-29T08:53:52Z</time>
      </trkpt>
      <trkpt lat="46.478639" lon="22.726389">
        <ele>908.667</ele>
        <time>2017-04-29T08:53:58Z</time>
      </trkpt>
      <trkpt lat="46.478565" lon="22.726310">
        <ele>907.447</ele>
        <time>2017-04-29T08:54:05Z</time>
      </trkpt>
      <trkpt lat="46.478506" lon="22.726189">
        <ele>906.558</ele>
        <time>2017-04-29T08:54:12Z</time>
      </trkpt>
      <trkpt lat="46.478453" lon="22.726079">
        <ele>905.964</ele>
        <time>2017-04-29T08:54:20Z</time>
      </trkpt>
      <trkpt lat="46.478433" lon="22.725942">
        <ele>905.754</ele>
        <time>2017-04-29T08:54:28Z</time>
      </trkpt>
      <trkpt lat="46.478416" lon="22.725812">
        <ele>905.630</ele>
        <time>2017-04-29T08:54:36Z</time>
      </trkpt>
      <trkpt lat="46.478390" lon="22.725681">
        <ele>905.863</ele>
        <time>2017-04-29T08:54:51Z</time>
      </trkpt>
      <trkpt lat="46.478376" lon="22.725551">
        <ele>906.244</ele>
        <time>2017-04-29T08:55:00Z</time>
      </trkpt>
      <trkpt lat="46.478356" lon="22.725415">
        <ele>906.618</ele>
        <time>2017-04-29T08:55:09Z</time>
      </trkpt>
      <trkpt lat="46.478336" lon="22.725288">
        <ele>907.008</ele>
        <time>2017-04-29T08:55:18Z</time>
      </trkpt>
      <trkpt lat="46.478305" lon="22.725148">
        <ele>908.127</ele>
        <time>2017-04-29T08:55:26Z</time>
      </trkpt>
      <trkpt lat="46.478275" lon="22.725012">
        <ele>909.173</ele>
        <time>2017-04-29T08:55:36Z</time>
      </trkpt>
      <trkpt lat="46.478230" lon="22.724887">
        <ele>910.171</ele>
        <time>2017-04-29T08:55:43Z</time>
      </trkpt>
      <trkpt lat="46.478214" lon="22.724754">
        <ele>910.951</ele>
        <time>2017-04-29T08:55:52Z</time>
      </trkpt>
      <trkpt lat="46.478175" lon="22.724633">
        <ele>912.012</ele>
        <time>2017-04-29T08:55:59Z</time>
      </trkpt>
      <trkpt lat="46.478194" lon="22.724487">
        <ele>914.048</ele>
        <time>2017-04-29T08:56:08Z</time>
      </trkpt>
      <trkpt lat="46.478194" lon="22.724350">
        <ele>915.978</ele>
        <time>2017-04-29T08:56:16Z</time>
      </trkpt>
      <trkpt lat="46.478141" lon="22.724228">
        <ele>917.064</ele>
        <time>2017-04-29T08:56:25Z</time>
      </trkpt>
      <trkpt lat="46.478093" lon="22.724091">
        <ele>917.949</ele>
        <time>2017-04-29T08:56:34Z</time>
      </trkpt>
      <trkpt lat="46.478037" lon="22.723963">
        <ele>918.702</ele>
        <time>2017-04-29T08:56:43Z</time>
      </trkpt>
      <trkpt lat="46.477980" lon="22.723845">
        <ele>919.322</ele>
        <time>2017-04-29T08:56:51Z</time>
      </trkpt>
      <trkpt lat="46.477938" lon="22.723717">
        <ele>918.908</ele>
        <time>2017-04-29T08:56:58Z</time>
      </trkpt>
      <trkpt lat="46.477954" lon="22.723578">
        <ele>917.985</ele>
        <time>2017-04-29T08:57:05Z</time>
      </trkpt>
      <trkpt lat="46.477936" lon="22.723425">
        <ele>917.371</ele>
        <time>2017-04-29T08:57:12Z</time>
      </trkpt>
      <trkpt lat="46.477879" lon="22.723324">
        <ele>917.379</ele>
        <time>2017-04-29T08:57:17Z</time>
      </trkpt>
      <trkpt lat="46.477845" lon="22.723189">
        <ele>917.529</ele>
        <time>2017-04-29T08:57:23Z</time>
      </trkpt>
      <trkpt lat="46.477799" lon="22.723074">
        <ele>917.880</ele>
        <time>2017-04-29T08:57:30Z</time>
      </trkpt>
      <trkpt lat="46.477786" lon="22.722936">
        <ele>918.066</ele>
        <time>2017-04-29T08:57:38Z</time>
      </trkpt>
      <trkpt lat="46.477718" lon="22.722816">
        <ele>921.356</ele>
        <time>2017-04-29T08:57:45Z</time>
      </trkpt>
      <trkpt lat="46.477700" lon="22.722685">
        <ele>922.342</ele>
        <time>2017-04-29T08:57:54Z</time>
      </trkpt>
      <trkpt lat="46.477683" lon="22.722535">
        <ele>923.115</ele>
        <time>2017-04-29T08:58:04Z</time>
      </trkpt>
      <trkpt lat="46.477650" lon="22.722406">
        <ele>924.965</ele>
        <time>2017-04-29T08:58:12Z</time>
      </trkpt>
      <trkpt lat="46.477623" lon="22.722281">
        <ele>926.311</ele>
        <time>2017-04-29T08:58:22Z</time>
      </trkpt>
      <trkpt lat="46.477628" lon="22.722151">
        <ele>926.808</ele>
        <time>2017-04-29T09:00:01Z</time>
      </trkpt>
      <trkpt lat="46.477599" lon="22.722021">
        <ele>928.412</ele>
        <time>2017-04-29T09:00:09Z</time>
      </trkpt>
      <trkpt lat="46.477570" lon="22.721884">
        <ele>929.718</ele>
        <time>2017-04-29T09:00:20Z</time>
      </trkpt>
      <trkpt lat="46.477584" lon="22.721752">
        <ele>929.846</ele>
        <time>2017-04-29T09:00:30Z</time>
      </trkpt>
      <trkpt lat="46.477509" lon="22.721648">
        <ele>931.026</ele>
        <time>2017-04-29T09:00:38Z</time>
      </trkpt>
      <trkpt lat="46.477578" lon="22.721522">
        <ele>931.187</ele>
        <time>2017-04-29T09:00:44Z</time>
      </trkpt>
      <trkpt lat="46.477625" lon="22.721392">
        <ele>932.093</ele>
        <time>2017-04-29T09:00:52Z</time>
      </trkpt>
      <trkpt lat="46.477623" lon="22.721259">
        <ele>934.053</ele>
        <time>2017-04-29T09:01:01Z</time>
      </trkpt>
      <trkpt lat="46.477637" lon="22.721124">
        <ele>936.389</ele>
        <time>2017-04-29T09:01:12Z</time>
      </trkpt>
      <trkpt lat="46.477572" lon="22.721013">
        <ele>938.258</ele>
        <time>2017-04-29T09:01:23Z</time>
      </trkpt>
      <trkpt lat="46.477497" lon="22.720913">
        <ele>940.052</ele>
        <time>2017-04-29T09:01:29Z</time>
      </trkpt>
      <trkpt lat="46.477436" lon="22.720814">
        <ele>942.117</ele>
        <time>2017-04-29T09:01:36Z</time>
      </trkpt>
      <trkpt lat="46.477398" lon="22.720685">
        <ele>944.108</ele>
        <time>2017-04-29T09:01:43Z</time>
      </trkpt>
      <trkpt lat="46.477368" lon="22.720558">
        <ele>946.096</ele>
        <time>2017-04-29T09:01:51Z</time>
      </trkpt>
      <trkpt lat="46.477328" lon="22.720429">
        <ele>946.342</ele>
        <time>2017-04-29T09:01:59Z</time>
      </trkpt>
      <trkpt lat="46.477248" lon="22.720325">
        <ele>944.850</ele>
        <time>2017-04-29T09:02:05Z</time>
      </trkpt>
      <trkpt lat="46.477214" lon="22.720201">
        <ele>944.670</ele>
        <time>2017-04-29T09:02:12Z</time>
      </trkpt>
      <trkpt lat="46.477157" lon="22.720091">
        <ele>945.091</ele>
        <time>2017-04-29T09:02:21Z</time>
      </trkpt>
      <trkpt lat="46.477104" lon="22.719981">
        <ele>944.787</ele>
        <time>2017-04-29T09:02:30Z</time>
      </trkpt>
      <trkpt lat="46.477029" lon="22.719902">
        <ele>943.827</ele>
        <time>2017-04-29T09:02:35Z</time>
      </trkpt>
      <trkpt lat="46.476924" lon="22.719831">
        <ele>943.073</ele>
        <time>2017-04-29T09:02:50Z</time>
      </trkpt>
      <trkpt lat="46.476857" lon="22.719743">
        <ele>944.315</ele>
        <time>2017-04-29T09:02:56Z</time>
      </trkpt>
      <trkpt lat="46.476805" lon="22.719635">
        <ele>944.965</ele>
        <time>2017-04-29T09:03:07Z</time>
      </trkpt>
      <trkpt lat="46.476767" lon="22.719515">
        <ele>944.411</ele>
        <time>2017-04-29T09:03:33Z</time>
      </trkpt>
      <trkpt lat="46.476724" lon="22.719398">
        <ele>944.208</ele>
        <time>2017-04-29T09:03:59Z</time>
      </trkpt>
      <trkpt lat="46.476676" lon="22.719285">
        <ele>945.192</ele>
        <time>2017-04-29T09:04:09Z</time>
      </trkpt>
      <trkpt lat="46.476607" lon="22.719178">
        <ele>947.548</ele>
        <time>2017-04-29T09:04:17Z</time>
      </trkpt>
      <trkpt lat="46.476550" lon="22.719073">
        <ele>949.216</ele>
        <time>2017-04-29T09:04:24Z</time>
      </trkpt>
      <trkpt lat="46.476522" lon="22.718945">
        <ele>950.096</ele>
        <time>2017-04-29T09:04:38Z</time>
      </trkpt>
      <trkpt lat="46.476474" lon="22.718833">
        <ele>950.737</ele>
        <time>2017-04-29T09:04:50Z</time>
      </trkpt>
      <trkpt lat="46.476469" lon="22.718698">
        <ele>950.553</ele>
        <time>2017-04-29T09:04:58Z</time>
      </trkpt>
      <trkpt lat="46.476429" lon="22.718566">
        <ele>950.063</ele>
        <time>2017-04-29T09:05:07Z</time>
      </trkpt>
      <trkpt lat="46.476380" lon="22.718436">
        <ele>949.619</ele>
        <time>2017-04-29T09:05:13Z</time>
      </trkpt>
      <trkpt lat="46.476357" lon="22.718273">
        <ele>949.477</ele>
        <time>2017-04-29T09:05:23Z</time>
      </trkpt>
      <trkpt lat="46.476295" lon="22.718175">
        <ele>949.961</ele>
        <time>2017-04-29T09:05:38Z</time>
      </trkpt>
      <trkpt lat="46.476287" lon="22.718032">
        <ele>949.127</ele>
        <time>2017-04-29T09:05:44Z</time>
      </trkpt>
      <trkpt lat="46.476279" lon="22.717895">
        <ele>949.408</ele>
        <time>2017-04-29T09:06:01Z</time>
      </trkpt>
      <trkpt lat="46.476215" lon="22.717786">
        <ele>949.448</ele>
        <time>2017-04-29T09:06:09Z</time>
      </trkpt>
      <trkpt lat="46.476155" lon="22.717671">
        <ele>949.764</ele>
        <time>2017-04-29T09:06:21Z</time>
      </trkpt>
      <trkpt lat="46.476113" lon="22.717551">
        <ele>949.842</ele>
        <time>2017-04-29T09:06:27Z</time>
      </trkpt>
      <trkpt lat="46.476068" lon="22.717422">
        <ele>952.342</ele>
        <time>2017-04-29T09:06:37Z</time>
      </trkpt>
      <trkpt lat="46.476038" lon="22.717277">
        <ele>953.683</ele>
        <time>2017-04-29T09:06:50Z</time>
      </trkpt>
      <trkpt lat="46.476041" lon="22.717133">
        <ele>953.429</ele>
        <time>2017-04-29T09:06:59Z</time>
      </trkpt>
      <trkpt lat="46.476050" lon="22.716986">
        <ele>953.089</ele>
        <time>2017-04-29T09:07:07Z</time>
      </trkpt>
      <trkpt lat="46.476039" lon="22.716849">
        <ele>953.365</ele>
        <time>2017-04-29T09:07:13Z</time>
      </trkpt>
      <trkpt lat="46.476023" lon="22.716692">
        <ele>953.987</ele>
        <time>2017-04-29T09:07:19Z</time>
      </trkpt>
      <trkpt lat="46.476030" lon="22.716529">
        <ele>954.242</ele>
        <time>2017-04-29T09:07:28Z</time>
      </trkpt>
      <trkpt lat="46.476004" lon="22.716393">
        <ele>955.326</ele>
        <time>2017-04-29T09:07:36Z</time>
      </trkpt>
      <trkpt lat="46.476006" lon="22.716259">
        <ele>955.608</ele>
        <time>2017-04-29T09:07:48Z</time>
      </trkpt>
      <trkpt lat="46.476025" lon="22.716114">
        <ele>955.559</ele>
        <time>2017-04-29T09:07:56Z</time>
      </trkpt>
      <trkpt lat="46.476013" lon="22.715979">
        <ele>957.325</ele>
        <time>2017-04-29T09:08:02Z</time>
      </trkpt>
      <trkpt lat="46.476047" lon="22.715853">
        <ele>958.453</ele>
        <time>2017-04-29T09:08:12Z</time>
      </trkpt>
      <trkpt lat="46.476098" lon="22.715742">
        <ele>958.283</ele>
        <time>2017-04-29T09:08:20Z</time>
      </trkpt>
      <trkpt lat="46.476144" lon="22.715626">
        <ele>958.674</ele>
        <time>2017-04-29T09:08:36Z</time>
      </trkpt>
      <trkpt lat="46.476149" lon="22.715489">
        <ele>958.930</ele>
        <time>2017-04-29T09:08:48Z</time>
      </trkpt>
      <trkpt lat="46.476169" lon="22.715361">
        <ele>959.770</ele>
        <time>2017-04-29T09:08:59Z</time>
      </trkpt>
      <trkpt lat="46.476217" lon="22.715235">
        <ele>961.056</ele>
        <time>2017-04-29T09:09:09Z</time>
      </trkpt>
      <trkpt lat="46.476212" lon="22.715096">
        <ele>961.154</ele>
        <time>2017-04-29T09:09:17Z</time>
      </trkpt>
      <trkpt lat="46.476260" lon="22.714980">
        <ele>963.056</ele>
        <time>2017-04-29T09:09:25Z</time>
      </trkpt>
      <trkpt lat="46.476261" lon="22.714843">
        <ele>964.211</ele>
        <time>2017-04-29T09:09:37Z</time>
      </trkpt>
      <trkpt lat="46.476234" lon="22.714701">
        <ele>964.808</ele>
        <time>2017-04-29T09:09:45Z</time>
      </trkpt>
      <trkpt lat="46.476254" lon="22.714567">
        <ele>965.316</ele>
        <time>2017-04-29T09:09:52Z</time>
      </trkpt>
      <trkpt lat="46.476218" lon="22.714426">
        <ele>965.022</ele>
        <time>2017-04-29T09:10:01Z</time>
      </trkpt>
      <trkpt lat="46.476200" lon="22.714279">
        <ele>965.480</ele>
        <time>2017-04-29T09:10:10Z</time>
      </trkpt>
      <trkpt lat="46.476233" lon="22.714156">
        <ele>966.350</ele>
        <time>2017-04-29T09:10:19Z</time>
      </trkpt>
      <trkpt lat="46.476225" lon="22.714021">
        <ele>966.181</ele>
        <time>2017-04-29T09:10:26Z</time>
      </trkpt>
      <trkpt lat="46.476258" lon="22.713884">
        <ele>966.737</ele>
        <time>2017-04-29T09:10:36Z</time>
      </trkpt>
      <trkpt lat="46.476286" lon="22.713747">
        <ele>969.247</ele>
        <time>2017-04-29T09:10:46Z</time>
      </trkpt>
      <trkpt lat="46.476321" lon="22.713613">
        <ele>971.563</ele>
        <time>2017-04-29T09:10:57Z</time>
      </trkpt>
      <trkpt lat="46.476367" lon="22.713488">
        <ele>972.434</ele>
        <time>2017-04-29T09:11:03Z</time>
      </trkpt>
      <trkpt lat="46.476415" lon="22.713371">
        <ele>973.655</ele>
        <time>2017-04-29T09:11:10Z</time>
      </trkpt>
      <trkpt lat="46.476432" lon="22.713240">
        <ele>974.510</ele>
        <time>2017-04-29T09:11:18Z</time>
      </trkpt>
      <trkpt lat="46.476469" lon="22.713120">
        <ele>975.608</ele>
        <time>2017-04-29T09:11:26Z</time>
      </trkpt>
      <trkpt lat="46.476439" lon="22.712982">
        <ele>975.914</ele>
        <time>2017-04-29T09:11:36Z</time>
      </trkpt>
      <trkpt lat="46.476425" lon="22.712843">
        <ele>977.110</ele>
        <time>2017-04-29T09:11:45Z</time>
      </trkpt>
      <trkpt lat="46.476407" lon="22.712699">
        <ele>978.248</ele>
        <time>2017-04-29T09:11:54Z</time>
      </trkpt>
      <trkpt lat="46.476391" lon="22.712558">
        <ele>979.468</ele>
        <time>2017-04-29T09:12:03Z</time>
      </trkpt>
      <trkpt lat="46.476408" lon="22.712413">
        <ele>980.789</ele>
        <time>2017-04-29T09:12:13Z</time>
      </trkpt>
      <trkpt lat="46.476500" lon="22.712334">
        <ele>982.615</ele>
        <time>2017-04-29T09:13:31Z</time>
      </trkpt>
      <trkpt lat="46.476467" lon="22.712208">
        <ele>982.445</ele>
        <time>2017-04-29T09:14:37Z</time>
      </trkpt>
      <trkpt lat="46.476432" lon="22.712064">
        <ele>981.861</ele>
        <time>2017-04-29T09:14:49Z</time>
      </trkpt>
      <trkpt lat="46.476458" lon="22.711936">
        <ele>982.282</ele>
        <time>2017-04-29T09:15:00Z</time>
      </trkpt>
      <trkpt lat="46.476479" lon="22.711800">
        <ele>982.543</ele>
        <time>2017-04-29T09:15:17Z</time>
      </trkpt>
      <trkpt lat="46.476523" lon="22.711681">
        <ele>983.017</ele>
        <time>2017-04-29T09:15:31Z</time>
      </trkpt>
      <trkpt lat="46.476577" lon="22.711558">
        <ele>983.408</ele>
        <time>2017-04-29T09:15:43Z</time>
      </trkpt>
      <trkpt lat="46.476611" lon="22.711426">
        <ele>983.569</ele>
        <time>2017-04-29T09:15:53Z</time>
      </trkpt>
      <trkpt lat="46.476640" lon="22.711295">
        <ele>984.115</ele>
        <time>2017-04-29T09:16:02Z</time>
      </trkpt>
      <trkpt lat="46.476669" lon="22.711156">
        <ele>984.953</ele>
        <time>2017-04-29T09:16:08Z</time>
      </trkpt>
      <trkpt lat="46.476697" lon="22.711012">
        <ele>986.473</ele>
        <time>2017-04-29T09:16:14Z</time>
      </trkpt>
      <trkpt lat="46.476718" lon="22.710882">
        <ele>987.554</ele>
        <time>2017-04-29T09:16:21Z</time>
      </trkpt>
      <trkpt lat="46.476747" lon="22.710744">
        <ele>988.920</ele>
        <time>2017-04-29T09:16:30Z</time>
      </trkpt>
      <trkpt lat="46.476770" lon="22.710612">
        <ele>989.710</ele>
        <time>2017-04-29T09:16:39Z</time>
      </trkpt>
      <trkpt lat="46.476782" lon="22.710478">
        <ele>989.916</ele>
        <time>2017-04-29T09:16:45Z</time>
      </trkpt>
      <trkpt lat="46.476806" lon="22.710332">
        <ele>990.082</ele>
        <time>2017-04-29T09:16:53Z</time>
      </trkpt>
      <trkpt lat="46.476825" lon="22.710197">
        <ele>990.943</ele>
        <time>2017-04-29T09:16:59Z</time>
      </trkpt>
      <trkpt lat="46.476848" lon="22.710048">
        <ele>992.517</ele>
        <time>2017-04-29T09:17:04Z</time>
      </trkpt>
      <trkpt lat="46.476874" lon="22.709916">
        <ele>993.808</ele>
        <time>2017-04-29T09:17:09Z</time>
      </trkpt>
      <trkpt lat="46.476912" lon="22.709756">
        <ele>995.439</ele>
        <time>2017-04-29T09:17:15Z</time>
      </trkpt>
      <trkpt lat="46.476960" lon="22.709632">
        <ele>997.145</ele>
        <time>2017-04-29T09:17:23Z</time>
      </trkpt>
      <trkpt lat="46.476944" lon="22.709482">
        <ele>997.753</ele>
        <time>2017-04-29T09:17:34Z</time>
      </trkpt>
      <trkpt lat="46.476970" lon="22.709349">
        <ele>998.853</ele>
        <time>2017-04-29T09:17:41Z</time>
      </trkpt>
      <trkpt lat="46.476954" lon="22.709210">
        <ele>998.384</ele>
        <time>2017-04-29T09:17:48Z</time>
      </trkpt>
      <trkpt lat="46.476940" lon="22.709077">
        <ele>998.080</ele>
        <time>2017-04-29T09:17:56Z</time>
      </trkpt>
      <trkpt lat="46.476919" lon="22.708946">
        <ele>998.160</ele>
        <time>2017-04-29T09:18:11Z</time>
      </trkpt>
      <trkpt lat="46.476942" lon="22.708819">
        <ele>997.856</ele>
        <time>2017-04-29T09:18:40Z</time>
      </trkpt>
      <trkpt lat="46.476958" lon="22.708691">
        <ele>997.787</ele>
        <time>2017-04-29T09:19:04Z</time>
      </trkpt>
      <trkpt lat="46.476954" lon="22.708560">
        <ele>997.342</ele>
        <time>2017-04-29T09:19:14Z</time>
      </trkpt>
      <trkpt lat="46.476928" lon="22.708427">
        <ele>997.126</ele>
        <time>2017-04-29T09:19:32Z</time>
      </trkpt>
      <trkpt lat="46.476908" lon="22.708288">
        <ele>996.908</ele>
        <time>2017-04-29T09:19:45Z</time>
      </trkpt>
      <trkpt lat="46.476893" lon="22.708147">
        <ele>996.449</ele>
        <time>2017-04-29T09:19:57Z</time>
      </trkpt>
      <trkpt lat="46.476880" lon="22.708001">
        <ele>995.955</ele>
        <time>2017-04-29T09:20:05Z</time>
      </trkpt>
      <trkpt lat="46.476872" lon="22.707857">
        <ele>995.813</ele>
        <time>2017-04-29T09:20:13Z</time>
      </trkpt>
      <trkpt lat="46.476879" lon="22.707727">
        <ele>995.793</ele>
        <time>2017-04-29T09:20:21Z</time>
      </trkpt>
      <trkpt lat="46.476892" lon="22.707582">
        <ele>995.684</ele>
        <time>2017-04-29T09:20:31Z</time>
      </trkpt>
      <trkpt lat="46.476928" lon="22.707459">
        <ele>995.240</ele>
        <time>2017-04-29T09:20:38Z</time>
      </trkpt>
      <trkpt lat="46.476938" lon="22.707298">
        <ele>995.120</ele>
        <time>2017-04-29T09:20:47Z</time>
      </trkpt>
      <trkpt lat="46.476991" lon="22.707169">
        <ele>997.546</ele>
        <time>2017-04-29T09:20:56Z</time>
      </trkpt>
      <trkpt lat="46.477048" lon="22.707055">
        <ele>1001.159</ele>
        <time>2017-04-29T09:21:04Z</time>
      </trkpt>
      <trkpt lat="46.477046" lon="22.706921">
        <ele>1002.703</ele>
        <time>2017-04-29T09:21:17Z</time>
      </trkpt>
      <trkpt lat="46.477047" lon="22.706778">
        <ele>1003.823</ele>
        <time>2017-04-29T09:21:27Z</time>
      </trkpt>
      <trkpt lat="46.477046" lon="22.706636">
        <ele>1004.708</ele>
        <time>2017-04-29T09:21:37Z</time>
      </trkpt>
      <trkpt lat="46.477103" lon="22.706531">
        <ele>1006.436</ele>
        <time>2017-04-29T09:21:54Z</time>
      </trkpt>
      <trkpt lat="46.477126" lon="22.706401">
        <ele>1007.212</ele>
        <time>2017-04-29T09:22:12Z</time>
      </trkpt>
      <trkpt lat="46.477119" lon="22.706271">
        <ele>1007.320</ele>
        <time>2017-04-29T09:22:27Z</time>
      </trkpt>
      <trkpt lat="46.477111" lon="22.706139">
        <ele>1007.430</ele>
        <time>2017-04-29T09:22:42Z</time>
      </trkpt>
      <trkpt lat="46.477071" lon="22.706019">
        <ele>1008.021</ele>
        <time>2017-04-29T09:22:50Z</time>
      </trkpt>
      <trkpt lat="46.477114" lon="22.705904">
        <ele>1010.097</ele>
        <time>2017-04-29T09:22:56Z</time>
      </trkpt>
      <trkpt lat="46.477114" lon="22.705762">
        <ele>1011.437</ele>
        <time>2017-04-29T09:23:05Z</time>
      </trkpt>
      <trkpt lat="46.477102" lon="22.705630">
        <ele>1012.363</ele>
        <time>2017-04-29T09:23:17Z</time>
      </trkpt>
      <trkpt lat="46.477124" lon="22.705500">
        <ele>1013.612</ele>
        <time>2017-04-29T09:23:26Z</time>
      </trkpt>
      <trkpt lat="46.477133" lon="22.705365">
        <ele>1014.732</ele>
        <time>2017-04-29T09:23:33Z</time>
      </trkpt>
      <trkpt lat="46.477124" lon="22.705210">
        <ele>1015.905</ele>
        <time>2017-04-29T09:23:42Z</time>
      </trkpt>
      <trkpt lat="46.477145" lon="22.705080">
        <ele>1017.208</ele>
        <time>2017-04-29T09:23:48Z</time>
      </trkpt>
      <trkpt lat="46.477134" lon="22.704944">
        <ele>1018.172</ele>
        <time>2017-04-29T09:23:58Z</time>
      </trkpt>
      <trkpt lat="46.477141" lon="22.704805">
        <ele>1019.188</ele>
        <time>2017-04-29T09:24:08Z</time>
      </trkpt>
      <trkpt lat="46.477138" lon="22.704658">
        <ele>1020.076</ele>
        <time>2017-04-29T09:24:22Z</time>
      </trkpt>
      <trkpt lat="46.477143" lon="22.704521">
        <ele>1020.686</ele>
        <time>2017-04-29T09:24:31Z</time>
      </trkpt>
      <trkpt lat="46.477182" lon="22.704400">
        <ele>1020.987</ele>
        <time>2017-04-29T09:24:40Z</time>
      </trkpt>
      <trkpt lat="46.477191" lon="22.704251">
        <ele>1020.533</ele>
        <time>2017-04-29T09:24:49Z</time>
      </trkpt>
      <trkpt lat="46.477223" lon="22.704113">
        <ele>1020.083</ele>
        <time>2017-04-29T09:24:58Z</time>
      </trkpt>
      <trkpt lat="46.477238" lon="22.703973">
        <ele>1020.339</ele>
        <time>2017-04-29T09:25:07Z</time>
      </trkpt>
      <trkpt lat="46.477244" lon="22.703842">
        <ele>1020.763</ele>
        <time>2017-04-29T09:25:11Z</time>
      </trkpt>
      <trkpt lat="46.477248" lon="22.703687">
        <ele>1021.444</ele>
        <time>2017-04-29T09:25:36Z</time>
      </trkpt>
      <trkpt lat="46.477258" lon="22.703553">
        <ele>1022.518</ele>
        <time>2017-04-29T09:25:45Z</time>
      </trkpt>
      <trkpt lat="46.477350" lon="22.703542">
        <ele>1025.408</ele>
        <time>2017-04-29T09:26:17Z</time>
      </trkpt>
      <trkpt lat="46.477357" lon="22.703412">
        <ele>1027.017</ele>
        <time>2017-04-29T09:28:06Z</time>
      </trkpt>
      <trkpt lat="46.477401" lon="22.703293">
        <ele>1029.773</ele>
        <time>2017-04-29T09:28:19Z</time>
      </trkpt>
      <trkpt lat="46.477422" lon="22.703149">
        <ele>1031.431</ele>
        <time>2017-04-29T09:28:28Z</time>
      </trkpt>
      <trkpt lat="46.477473" lon="22.703032">
        <ele>1033.381</ele>
        <time>2017-04-29T09:28:50Z</time>
      </trkpt>
      <trkpt lat="46.477482" lon="22.702893">
        <ele>1033.212</ele>
        <time>2017-04-29T09:28:59Z</time>
      </trkpt>
      <trkpt lat="46.477505" lon="22.702759">
        <ele>1033.218</ele>
        <time>2017-04-29T09:29:06Z</time>
      </trkpt>
      <trkpt lat="46.477494" lon="22.702622">
        <ele>1033.068</ele>
        <time>2017-04-29T09:29:18Z</time>
      </trkpt>
      <trkpt lat="46.477483" lon="22.702477">
        <ele>1032.734</ele>
        <time>2017-04-29T09:29:26Z</time>
      </trkpt>
      <trkpt lat="46.477489" lon="22.702340">
        <ele>1031.857</ele>
        <time>2017-04-29T09:29:39Z</time>
      </trkpt>
      <trkpt lat="46.477505" lon="22.702198">
        <ele>1031.100</ele>
        <time>2017-04-29T09:29:46Z</time>
      </trkpt>
      <trkpt lat="46.477509" lon="22.702067">
        <ele>1031.220</ele>
        <time>2017-04-29T09:29:52Z</time>
      </trkpt>
      <trkpt lat="46.477483" lon="22.701927">
        <ele>1031.408</ele>
        <time>2017-04-29T09:29:59Z</time>
      </trkpt>
      <trkpt lat="46.477497" lon="22.701790">
        <ele>1032.226</ele>
        <time>2017-04-29T09:30:06Z</time>
      </trkpt>
      <trkpt lat="46.477516" lon="22.701655">
        <ele>1033.262</ele>
        <time>2017-04-29T09:30:16Z</time>
      </trkpt>
      <trkpt lat="46.477608" lon="22.701620">
        <ele>1034.260</ele>
        <time>2017-04-29T09:31:41Z</time>
      </trkpt>
      <trkpt lat="46.477581" lon="22.701485">
        <ele>1033.940</ele>
        <time>2017-04-29T09:33:03Z</time>
      </trkpt>
      <trkpt lat="46.477612" lon="22.701349">
        <ele>1034.881</ele>
        <time>2017-04-29T09:33:12Z</time>
      </trkpt>
      <trkpt lat="46.477655" lon="22.701229">
        <ele>1037.467</ele>
        <time>2017-04-29T09:33:28Z</time>
      </trkpt>
      <trkpt lat="46.477704" lon="22.701107">
        <ele>1040.547</ele>
        <time>2017-04-29T09:33:38Z</time>
      </trkpt>
      <trkpt lat="46.477734" lon="22.700979">
        <ele>1043.323</ele>
        <time>2017-04-29T09:33:47Z</time>
      </trkpt>
      <trkpt lat="46.477719" lon="22.700838">
        <ele>1045.228</ele>
        <time>2017-04-29T09:33:58Z</time>
      </trkpt>
      <trkpt lat="46.477732" lon="22.700696">
        <ele>1046.389</ele>
        <time>2017-04-29T09:34:07Z</time>
      </trkpt>
      <trkpt lat="46.477749" lon="22.700552">
        <ele>1047.317</ele>
        <time>2017-04-29T09:34:15Z</time>
      </trkpt>
      <trkpt lat="46.477773" lon="22.700408">
        <ele>1047.908</ele>
        <time>2017-04-29T09:34:24Z</time>
      </trkpt>
      <trkpt lat="46.477793" lon="22.700271">
        <ele>1048.583</ele>
        <time>2017-04-29T09:34:32Z</time>
      </trkpt>
      <trkpt lat="46.477788" lon="22.700133">
        <ele>1048.849</ele>
        <time>2017-04-29T09:34:40Z</time>
      </trkpt>
      <trkpt lat="46.477775" lon="22.699998">
        <ele>1049.087</ele>
        <time>2017-04-29T09:34:50Z</time>
      </trkpt>
      <trkpt lat="46.477742" lon="22.699869">
        <ele>1049.037</ele>
        <time>2017-04-29T09:34:59Z</time>
      </trkpt>
      <trkpt lat="46.477739" lon="22.699730">
        <ele>1049.458</ele>
        <time>2017-04-29T09:35:10Z</time>
      </trkpt>
      <trkpt lat="46.477767" lon="22.699597">
        <ele>1049.674</ele>
        <time>2017-04-29T09:35:18Z</time>
      </trkpt>
      <trkpt lat="46.477801" lon="22.699476">
        <ele>1050.844</ele>
        <time>2017-04-29T09:35:24Z</time>
      </trkpt>
      <trkpt lat="46.477794" lon="22.699342">
        <ele>1050.360</ele>
        <time>2017-04-29T09:35:40Z</time>
      </trkpt>
      <trkpt lat="46.477804" lon="22.699201">
        <ele>1050.171</ele>
        <time>2017-04-29T09:35:48Z</time>
      </trkpt>
      <trkpt lat="46.477826" lon="22.699074">
        <ele>1051.741</ele>
        <time>2017-04-29T09:35:54Z</time>
      </trkpt>
      <trkpt lat="46.477819" lon="22.698925">
        <ele>1053.015</ele>
        <time>2017-04-29T09:36:10Z</time>
      </trkpt>
      <trkpt lat="46.477859" lon="22.698799">
        <ele>1055.408</ele>
        <time>2017-04-29T09:36:16Z</time>
      </trkpt>
      <trkpt lat="46.477889" lon="22.698675">
        <ele>1057.348</ele>
        <time>2017-04-29T09:36:23Z</time>
      </trkpt>
      <trkpt lat="46.477888" lon="22.698537">
        <ele>1058.574</ele>
        <time>2017-04-29T09:36:38Z</time>
      </trkpt>
      <trkpt lat="46.477921" lon="22.698392">
        <ele>1060.552</ele>
        <time>2017-04-29T09:36:52Z</time>
      </trkpt>
      <trkpt lat="46.477959" lon="22.698272">
        <ele>1061.982</ele>
        <time>2017-04-29T09:37:00Z</time>
      </trkpt>
      <trkpt lat="46.478017" lon="22.698152">
        <ele>1062.863</ele>
        <time>2017-04-29T09:37:09Z</time>
      </trkpt>
      <trkpt lat="46.478076" lon="22.698001">
        <ele>1063.329</ele>
        <time>2017-04-29T09:37:17Z</time>
      </trkpt>
      <trkpt lat="46.478126" lon="22.697875">
        <ele>1064.089</ele>
        <time>2017-04-29T09:37:24Z</time>
      </trkpt>
      <trkpt lat="46.478171" lon="22.697759">
        <ele>1064.585</ele>
        <time>2017-04-29T09:37:32Z</time>
      </trkpt>
      <trkpt lat="46.478206" lon="22.697636">
        <ele>1064.199</ele>
        <time>2017-04-29T09:37:42Z</time>
      </trkpt>
      <trkpt lat="46.478251" lon="22.697510">
        <ele>1064.207</ele>
        <time>2017-04-29T09:37:51Z</time>
      </trkpt>
      <trkpt lat="46.478281" lon="22.697379">
        <ele>1065.127</ele>
        <time>2017-04-29T09:38:03Z</time>
      </trkpt>
      <trkpt lat="46.478295" lon="22.697239">
        <ele>1065.308</ele>
        <time>2017-04-29T09:38:12Z</time>
      </trkpt>
      <trkpt lat="46.478327" lon="22.697110">
        <ele>1066.390</ele>
        <time>2017-04-29T09:38:21Z</time>
      </trkpt>
      <trkpt lat="46.478346" lon="22.696962">
        <ele>1067.326</ele>
        <time>2017-04-29T09:38:30Z</time>
      </trkpt>
      <trkpt lat="46.478375" lon="22.696833">
        <ele>1068.834</ele>
        <time>2017-04-29T09:38:40Z</time>
      </trkpt>
      <trkpt lat="46.478399" lon="22.696702">
        <ele>1070.034</ele>
        <time>2017-04-29T09:38:46Z</time>
      </trkpt>
      <trkpt lat="46.478454" lon="22.696578">
        <ele>1071.265</ele>
        <time>2017-04-29T09:38:58Z</time>
      </trkpt>
      <trkpt lat="46.478529" lon="22.696488">
        <ele>1072.371</ele>
        <time>2017-04-29T09:39:08Z</time>
      </trkpt>
      <trkpt lat="46.478579" lon="22.696373">
        <ele>1072.771</ele>
        <time>2017-04-29T09:39:20Z</time>
      </trkpt>
      <trkpt lat="46.478614" lon="22.696245">
        <ele>1073.667</ele>
        <time>2017-04-29T09:39:29Z</time>
      </trkpt>
      <trkpt lat="46.478657" lon="22.696118">
        <ele>1075.686</ele>
        <time>2017-04-29T09:39:40Z</time>
      </trkpt>
      <trkpt lat="46.478717" lon="22.696006">
        <ele>1078.660</ele>
        <time>2017-04-29T09:39:49Z</time>
      </trkpt>
      <trkpt lat="46.478761" lon="22.695891">
        <ele>1080.426</ele>
        <time>2017-04-29T09:39:57Z</time>
      </trkpt>
      <trkpt lat="46.478812" lon="22.695771">
        <ele>1082.308</ele>
        <time>2017-04-29T09:40:06Z</time>
      </trkpt>
      <trkpt lat="46.478858" lon="22.695648">
        <ele>1084.179</ele>
        <time>2017-04-29T09:40:15Z</time>
      </trkpt>
      <trkpt lat="46.478829" lon="22.695523">
        <ele>1084.865</ele>
        <time>2017-04-29T09:40:25Z</time>
      </trkpt>
      <trkpt lat="46.478887" lon="22.695411">
        <ele>1084.593</ele>
        <time>2017-04-29T09:42:59Z</time>
      </trkpt>
      <trkpt lat="46.478968" lon="22.695335">
        <ele>1086.583</ele>
        <time>2017-04-29T09:43:24Z</time>
      </trkpt>
      <trkpt lat="46.478997" lon="22.695208">
        <ele>1086.914</ele>
        <time>2017-04-29T09:43:33Z</time>
      </trkpt>
      <trkpt lat="46.479020" lon="22.695071">
        <ele>1087.060</ele>
        <time>2017-04-29T09:43:43Z</time>
      </trkpt>
      <trkpt lat="46.479022" lon="22.694929">
        <ele>1087.220</ele>
        <time>2017-04-29T09:43:58Z</time>
      </trkpt>
      <trkpt lat="46.479071" lon="22.694816">
        <ele>1089.336</ele>
        <time>2017-04-29T09:44:06Z</time>
      </trkpt>
      <trkpt lat="46.479115" lon="22.694686">
        <ele>1091.812</ele>
        <time>2017-04-29T09:44:23Z</time>
      </trkpt>
      <trkpt lat="46.479169" lon="22.694566">
        <ele>1094.232</ele>
        <time>2017-04-29T09:44:35Z</time>
      </trkpt>
      <trkpt lat="46.479232" lon="22.694472">
        <ele>1097.705</ele>
        <time>2017-04-29T09:44:44Z</time>
      </trkpt>
      <trkpt lat="46.479251" lon="22.694341">
        <ele>1099.408</ele>
        <time>2017-04-29T09:44:52Z</time>
      </trkpt>
      <trkpt lat="46.479306" lon="22.694232">
        <ele>1102.222</ele>
        <time>2017-04-29T09:45:02Z</time>
      </trkpt>
      <trkpt lat="46.479321" lon="22.694096">
        <ele>1103.498</ele>
        <time>2017-04-29T09:45:12Z</time>
      </trkpt>
      <trkpt lat="46.479324" lon="22.693964">
        <ele>1104.126</ele>
        <time>2017-04-29T09:45:19Z</time>
      </trkpt>
      <trkpt lat="46.479366" lon="22.693833">
        <ele>1106.596</ele>
        <time>2017-04-29T09:45:27Z</time>
      </trkpt>
      <trkpt lat="46.479384" lon="22.693695">
        <ele>1108.717</ele>
        <time>2017-04-29T09:45:38Z</time>
      </trkpt>
      <trkpt lat="46.479430" lon="22.693577">
        <ele>1110.693</ele>
        <time>2017-04-29T09:45:48Z</time>
      </trkpt>
      <trkpt lat="46.479439" lon="22.693446">
        <ele>1110.343</ele>
        <time>2017-04-29T09:45:55Z</time>
      </trkpt>
      <trkpt lat="46.479486" lon="22.693325">
        <ele>1112.479</ele>
        <time>2017-04-29T09:46:03Z</time>
      </trkpt>
      <trkpt lat="46.479501" lon="22.693174">
        <ele>1113.418</ele>
        <time>2017-04-29T09:46:37Z</time>
      </trkpt>
      <trkpt lat="46.479519" lon="22.693038">
        <ele>1114.398</ele>
        <time>2017-04-29T09:46:51Z</time>
      </trkpt>
      <trkpt lat="46.479571" lon="22.692928">
        <ele>1116.617</ele>
        <time>2017-04-29T09:47:07Z</time>
      </trkpt>
      <trkpt lat="46.479649" lon="22.692858">
        <ele>1118.508</ele>
        <time>2017-04-29T09:47:23Z</time>
      </trkpt>
      <trkpt lat="46.479709" lon="22.692753">
        <ele>1118.852</ele>
        <time>2017-04-29T09:47:37Z</time>
      </trkpt>
      <trkpt lat="46.479718" lon="22.692616">
        <ele>1119.038</ele>
        <time>2017-04-29T09:47:47Z</time>
      </trkpt>
      <trkpt lat="46.479755" lon="22.692485">
        <ele>1120.366</ele>
        <time>2017-04-29T09:47:58Z</time>
      </trkpt>
      <trkpt lat="46.479749" lon="22.692352">
        <ele>1120.876</ele>
        <time>2017-04-29T09:48:07Z</time>
      </trkpt>
      <trkpt lat="46.479797" lon="22.692240">
        <ele>1122.687</ele>
        <time>2017-04-29T09:48:18Z</time>
      </trkpt>
      <trkpt lat="46.479862" lon="22.692150">
        <ele>1124.493</ele>
        <time>2017-04-29T09:48:33Z</time>
      </trkpt>
      <trkpt lat="46.479947" lon="22.692080">
        <ele>1125.833</ele>
        <time>2017-04-29T09:48:44Z</time>
      </trkpt>
      <trkpt lat="46.480034" lon="22.692023">
        <ele>1128.159</ele>
        <time>2017-04-29T09:48:52Z</time>
      </trkpt>
      <trkpt lat="46.480103" lon="22.691932">
        <ele>1131.272</ele>
        <time>2017-04-29T09:49:03Z</time>
      </trkpt>
      <trkpt lat="46.480185" lon="22.691877">
        <ele>1134.813</ele>
        <time>2017-04-29T09:49:32Z</time>
      </trkpt>
      <trkpt lat="46.480246" lon="22.691768">
        <ele>1135.914</ele>
        <time>2017-04-29T09:49:55Z</time>
      </trkpt>
      <trkpt lat="46.480271" lon="22.691640">
        <ele>1135.008</ele>
        <time>2017-04-29T09:50:12Z</time>
      </trkpt>
      <trkpt lat="46.480239" lon="22.691791">
        <ele>1136.018</ele>
        <time>2017-04-29T09:50:51Z</time>
      </trkpt>
      <trkpt lat="46.480222" lon="22.691924">
        <ele>1137.054</ele>
        <time>2017-04-29T09:50:59Z</time>
      </trkpt>
      <trkpt lat="46.480186" lon="22.692055">
        <ele>1136.322</ele>
        <time>2017-04-29T09:51:07Z</time>
      </trkpt>
      <trkpt lat="46.480176" lon="22.692195">
        <ele>1136.912</ele>
        <time>2017-04-29T09:51:14Z</time>
      </trkpt>
      <trkpt lat="46.480199" lon="22.692053">
        <ele>1137.023</ele>
        <time>2017-04-29T09:52:33Z</time>
      </trkpt>
      <trkpt lat="46.480230" lon="22.691926">
        <ele>1137.459</ele>
        <time>2017-04-29T09:52:40Z</time>
      </trkpt>
      <trkpt lat="46.480258" lon="22.691792">
        <ele>1136.629</ele>
        <time>2017-04-29T09:52:49Z</time>
      </trkpt>
      <trkpt lat="46.480264" lon="22.691661">
        <ele>1134.855</ele>
        <time>2017-04-29T09:52:58Z</time>
      </trkpt>
      <trkpt lat="46.480255" lon="22.691521">
        <ele>1135.378</ele>
        <time>2017-04-29T09:53:04Z</time>
      </trkpt>
      <trkpt lat="46.480279" lon="22.691392">
        <ele>1136.033</ele>
        <time>2017-04-29T09:56:07Z</time>
      </trkpt>
      <trkpt lat="46.480292" lon="22.691258">
        <ele>1139.826</ele>
        <time>2017-04-29T10:02:07Z</time>
      </trkpt>
      <trkpt lat="46.480273" lon="22.691387">
        <ele>1136.008</ele>
        <time>2017-04-29T10:03:20Z</time>
      </trkpt>
      <trkpt lat="46.480213" lon="22.691491">
        <ele>1135.118</ele>
        <time>2017-04-29T10:10:14Z</time>
      </trkpt>
      <trkpt lat="46.480242" lon="22.691658">
        <ele>1134.484</ele>
        <time>2017-04-29T10:10:19Z</time>
      </trkpt>
      <trkpt lat="46.480247" lon="22.691524">
        <ele>1135.272</ele>
        <time>2017-04-29T10:10:39Z</time>
      </trkpt>
      <trkpt lat="46.480143" lon="22.691516">
        <ele>1134.282</ele>
        <time>2017-04-29T10:23:38Z</time>
      </trkpt>
      <trkpt lat="46.480032" lon="22.691500">
        <ele>1133.313</ele>
        <time>2017-04-29T10:23:51Z</time>
      </trkpt>
      <trkpt lat="46.480140" lon="22.691480">
        <ele>1134.589</ele>
        <time>2017-04-29T10:23:57Z</time>
      </trkpt>
      <trkpt lat="46.480236" lon="22.691464">
        <ele>1135.459</ele>
        <time>2017-04-29T10:24:26Z</time>
      </trkpt>
      <trkpt lat="46.480284" lon="22.691577">
        <ele>1135.635</ele>
        <time>2017-04-29T10:25:31Z</time>
      </trkpt>
      <trkpt lat="46.480204" lon="22.691650">
        <ele>1133.865</ele>
        <time>2017-04-29T10:26:27Z</time>
      </trkpt>
      <trkpt lat="46.480185" lon="22.691785">
        <ele>1134.268</ele>
        <time>2017-04-29T10:26:49Z</time>
      </trkpt>
      <trkpt lat="46.480125" lon="22.691886">
        <ele>1132.314</ele>
        <time>2017-04-29T10:26:59Z</time>
      </trkpt>
      <trkpt lat="46.480050" lon="22.691971">
        <ele>1128.708</ele>
        <time>2017-04-29T10:27:28Z</time>
      </trkpt>
      <trkpt lat="46.479973" lon="22.692070">
        <ele>1126.117</ele>
        <time>2017-04-29T10:27:36Z</time>
      </trkpt>
      <trkpt lat="46.479981" lon="22.692208">
        <ele>1126.613</ele>
        <time>2017-04-29T10:29:11Z</time>
      </trkpt>
      <trkpt lat="46.479926" lon="22.692321">
        <ele>1125.731</ele>
        <time>2017-04-29T10:29:26Z</time>
      </trkpt>
      <trkpt lat="46.479888" lon="22.692451">
        <ele>1124.981</ele>
        <time>2017-04-29T10:29:40Z</time>
      </trkpt>
      <trkpt lat="46.479882" lon="22.692587">
        <ele>1126.012</ele>
        <time>2017-04-29T10:29:52Z</time>
      </trkpt>
      <trkpt lat="46.479796" lon="22.692669">
        <ele>1122.878</ele>
        <time>2017-04-29T10:30:04Z</time>
      </trkpt>
      <trkpt lat="46.479732" lon="22.692767">
        <ele>1119.648</ele>
        <time>2017-04-29T10:30:12Z</time>
      </trkpt>
      <trkpt lat="46.479661" lon="22.692847">
        <ele>1118.774</ele>
        <time>2017-04-29T10:30:25Z</time>
      </trkpt>
      <trkpt lat="46.479588" lon="22.692926">
        <ele>1117.167</ele>
        <time>2017-04-29T10:30:37Z</time>
      </trkpt>
      <trkpt lat="46.479529" lon="22.693056">
        <ele>1114.781</ele>
        <time>2017-04-29T10:30:49Z</time>
      </trkpt>
      <trkpt lat="46.479549" lon="22.693193">
        <ele>1115.819</ele>
        <time>2017-04-29T10:31:04Z</time>
      </trkpt>
      <trkpt lat="46.479483" lon="22.693299">
        <ele>1112.308</ele>
        <time>2017-04-29T10:31:14Z</time>
      </trkpt>
      <trkpt lat="46.479444" lon="22.693423">
        <ele>1110.337</ele>
        <time>2017-04-29T10:31:24Z</time>
      </trkpt>
      <trkpt lat="46.479375" lon="22.693523">
        <ele>1109.643</ele>
        <time>2017-04-29T10:31:33Z</time>
      </trkpt>
      <trkpt lat="46.479340" lon="22.693648">
        <ele>1108.271</ele>
        <time>2017-04-29T10:31:40Z</time>
      </trkpt>
      <trkpt lat="46.479295" lon="22.693764">
        <ele>1105.591</ele>
        <time>2017-04-29T10:31:46Z</time>
      </trkpt>
      <trkpt lat="46.479242" lon="22.693889">
        <ele>1102.282</ele>
        <time>2017-04-29T10:31:59Z</time>
      </trkpt>
      <trkpt lat="46.479227" lon="22.694036">
        <ele>1100.878</ele>
        <time>2017-04-29T10:32:09Z</time>
      </trkpt>
      <trkpt lat="46.479284" lon="22.694154">
        <ele>1101.918</ele>
        <time>2017-04-29T10:32:15Z</time>
      </trkpt>
      <trkpt lat="46.479248" lon="22.694283">
        <ele>1099.794</ele>
        <time>2017-04-29T10:32:22Z</time>
      </trkpt>
      <trkpt lat="46.479153" lon="22.694341">
        <ele>1096.151</ele>
        <time>2017-04-29T10:32:27Z</time>
      </trkpt>
      <trkpt lat="46.479108" lon="22.694471">
        <ele>1094.201</ele>
        <time>2017-04-29T10:32:34Z</time>
      </trkpt>
      <trkpt lat="46.479059" lon="22.694590">
        <ele>1091.811</ele>
        <time>2017-04-29T10:32:41Z</time>
      </trkpt>
      <trkpt lat="46.479057" lon="22.694750">
        <ele>1089.308</ele>
        <time>2017-04-29T10:32:46Z</time>
      </trkpt>
      <trkpt lat="46.479052" lon="22.694885">
        <ele>1088.446</ele>
        <time>2017-04-29T10:32:53Z</time>
      </trkpt>
      <trkpt lat="46.478991" lon="22.695000">
        <ele>1085.962</ele>
        <time>2017-04-29T10:33:05Z</time>
      </trkpt>
      <trkpt lat="46.478980" lon="22.695131">
        <ele>1086.130</ele>
        <time>2017-04-29T10:33:11Z</time>
      </trkpt>
      <trkpt lat="46.478915" lon="22.695246">
        <ele>1084.670</ele>
        <time>2017-04-29T10:33:20Z</time>
      </trkpt>
      <trkpt lat="46.478845" lon="22.695346">
        <ele>1084.741</ele>
        <time>2017-04-29T10:33:29Z</time>
      </trkpt>
      <trkpt lat="46.478768" lon="22.695439">
        <ele>1085.147</ele>
        <time>2017-04-29T10:33:37Z</time>
      </trkpt>
      <trkpt lat="46.478708" lon="22.695553">
        <ele>1084.417</ele>
        <time>2017-04-29T10:33:48Z</time>
      </trkpt>
      <trkpt lat="46.478734" lon="22.695695">
        <ele>1082.353</ele>
        <time>2017-04-29T10:33:58Z</time>
      </trkpt>
      <trkpt lat="46.478690" lon="22.695816">
        <ele>1079.753</ele>
        <time>2017-04-29T10:34:06Z</time>
      </trkpt>
      <trkpt lat="46.478636" lon="22.695937">
        <ele>1077.104</ele>
        <time>2017-04-29T10:34:16Z</time>
      </trkpt>
      <trkpt lat="46.478582" lon="22.696041">
        <ele>1075.014</ele>
        <time>2017-04-29T10:34:25Z</time>
      </trkpt>
      <trkpt lat="46.478515" lon="22.696151">
        <ele>1073.408</ele>
        <time>2017-04-29T10:34:33Z</time>
      </trkpt>
      <trkpt lat="46.478476" lon="22.696273">
        <ele>1072.496</ele>
        <time>2017-04-29T10:34:41Z</time>
      </trkpt>
      <trkpt lat="46.478456" lon="22.696404">
        <ele>1071.322</ele>
        <time>2017-04-29T10:34:52Z</time>
      </trkpt>
      <trkpt lat="46.478420" lon="22.696524">
        <ele>1070.810</ele>
        <time>2017-04-29T10:35:00Z</time>
      </trkpt>
      <trkpt lat="46.478391" lon="22.696651">
        <ele>1070.160</ele>
        <time>2017-04-29T10:35:21Z</time>
      </trkpt>
      <trkpt lat="46.478363" lon="22.696788">
        <ele>1068.891</ele>
        <time>2017-04-29T10:35:29Z</time>
      </trkpt>
      <trkpt lat="46.478297" lon="22.696878">
        <ele>1067.347</ele>
        <time>2017-04-29T10:35:37Z</time>
      </trkpt>
      <trkpt lat="46.478308" lon="22.697015">
        <ele>1066.537</ele>
        <time>2017-04-29T10:35:48Z</time>
      </trkpt>
      <trkpt lat="46.478362" lon="22.697145">
        <ele>1067.383</ele>
        <time>2017-04-29T10:35:55Z</time>
      </trkpt>
      <trkpt lat="46.478325" lon="22.697276">
        <ele>1066.036</ele>
        <time>2017-04-29T10:36:01Z</time>
      </trkpt>
      <trkpt lat="46.478291" lon="22.697399">
        <ele>1065.417</ele>
        <time>2017-04-29T10:36:08Z</time>
      </trkpt>
      <trkpt lat="46.478314" lon="22.697537">
        <ele>1066.718</ele>
        <time>2017-04-29T10:36:15Z</time>
      </trkpt>
      <trkpt lat="46.478232" lon="22.697644">
        <ele>1065.108</ele>
        <time>2017-04-29T10:36:21Z</time>
      </trkpt>
      <trkpt lat="46.478180" lon="22.697768">
        <ele>1064.914</ele>
        <time>2017-04-29T10:36:27Z</time>
      </trkpt>
      <trkpt lat="46.478109" lon="22.697877">
        <ele>1063.420</ele>
        <time>2017-04-29T10:36:34Z</time>
      </trkpt>
      <trkpt lat="46.478075" lon="22.698017">
        <ele>1063.468</ele>
        <time>2017-04-29T10:36:40Z</time>
      </trkpt>
      <trkpt lat="46.478066" lon="22.698163">
        <ele>1063.418</ele>
        <time>2017-04-29T10:36:49Z</time>
      </trkpt>
      <trkpt lat="46.478012" lon="22.698271">
        <ele>1062.529</ele>
        <time>2017-04-29T10:36:55Z</time>
      </trkpt>
      <trkpt lat="46.477961" lon="22.698379">
        <ele>1061.365</ele>
        <time>2017-04-29T10:37:02Z</time>
      </trkpt>
      <trkpt lat="46.477980" lon="22.698508">
        <ele>1060.875</ele>
        <time>2017-04-29T10:37:17Z</time>
      </trkpt>
      <trkpt lat="46.477992" lon="22.698645">
        <ele>1060.211</ele>
        <time>2017-04-29T10:37:29Z</time>
      </trkpt>
      <trkpt lat="46.478000" lon="22.698777">
        <ele>1059.815</ele>
        <time>2017-04-29T10:37:38Z</time>
      </trkpt>
      <trkpt lat="46.478020" lon="22.698905">
        <ele>1059.765</ele>
        <time>2017-04-29T10:37:49Z</time>
      </trkpt>
      <trkpt lat="46.477973" lon="22.699039">
        <ele>1057.111</ele>
        <time>2017-04-29T10:38:03Z</time>
      </trkpt>
      <trkpt lat="46.477962" lon="22.699197">
        <ele>1055.808</ele>
        <time>2017-04-29T10:38:14Z</time>
      </trkpt>
      <trkpt lat="46.477915" lon="22.699311">
        <ele>1054.792</ele>
        <time>2017-04-29T10:38:20Z</time>
      </trkpt>
      <trkpt lat="46.477896" lon="22.699448">
        <ele>1054.798</ele>
        <time>2017-04-29T10:38:24Z</time>
      </trkpt>
      <trkpt lat="46.477914" lon="22.699589">
        <ele>1054.946</ele>
        <time>2017-04-29T10:38:29Z</time>
      </trkpt>
      <trkpt lat="46.477905" lon="22.699739">
        <ele>1054.096</ele>
        <time>2017-04-29T10:38:35Z</time>
      </trkpt>
      <trkpt lat="46.477901" lon="22.699886">
        <ele>1053.177</ele>
        <time>2017-04-29T10:38:44Z</time>
      </trkpt>
      <trkpt lat="46.477887" lon="22.700027">
        <ele>1052.013</ele>
        <time>2017-04-29T10:38:52Z</time>
      </trkpt>
      <trkpt lat="46.477893" lon="22.700168">
        <ele>1051.723</ele>
        <time>2017-04-29T10:38:59Z</time>
      </trkpt>
      <trkpt lat="46.477805" lon="22.700240">
        <ele>1048.999</ele>
        <time>2017-04-29T10:39:12Z</time>
      </trkpt>
      <trkpt lat="46.477801" lon="22.700379">
        <ele>1048.836</ele>
        <time>2017-04-29T10:39:22Z</time>
      </trkpt>
      <trkpt lat="46.477803" lon="22.700518">
        <ele>1049.017</ele>
        <time>2017-04-29T10:39:30Z</time>
      </trkpt>
      <trkpt lat="46.477794" lon="22.700655">
        <ele>1048.318</ele>
        <time>2017-04-29T10:39:38Z</time>
      </trkpt>
      <trkpt lat="46.477817" lon="22.700797">
        <ele>1048.608</ele>
        <time>2017-04-29T10:39:46Z</time>
      </trkpt>
      <trkpt lat="46.477760" lon="22.700914">
        <ele>1045.174</ele>
        <time>2017-04-29T10:39:56Z</time>
      </trkpt>
      <trkpt lat="46.477766" lon="22.701053">
        <ele>1042.810</ele>
        <time>2017-04-29T10:40:08Z</time>
      </trkpt>
      <trkpt lat="46.477728" lon="22.701181">
        <ele>1039.648</ele>
        <time>2017-04-29T10:40:14Z</time>
      </trkpt>
      <trkpt lat="46.477718" lon="22.701315">
        <ele>1036.868</ele>
        <time>2017-04-29T10:40:20Z</time>
      </trkpt>
      <trkpt lat="46.477723" lon="22.701467">
        <ele>1035.439</ele>
        <time>2017-04-29T10:40:43Z</time>
      </trkpt>
      <trkpt lat="46.477680" lon="22.701589">
        <ele>1034.975</ele>
        <time>2017-04-29T10:40:50Z</time>
      </trkpt>
      <trkpt lat="46.477591" lon="22.701650">
        <ele>1034.055</ele>
        <time>2017-04-29T10:41:45Z</time>
      </trkpt>
      <trkpt lat="46.477558" lon="22.701779">
        <ele>1033.111</ele>
        <time>2017-04-29T10:43:28Z</time>
      </trkpt>
      <trkpt lat="46.477554" lon="22.701648">
        <ele>1033.654</ele>
        <time>2017-04-29T10:44:41Z</time>
      </trkpt>
      <trkpt lat="46.477456" lon="22.701693">
        <ele>1033.956</ele>
        <time>2017-04-29T10:46:17Z</time>
      </trkpt>
      <trkpt lat="46.477418" lon="22.701811">
        <ele>1033.711</ele>
        <time>2017-04-29T10:46:46Z</time>
      </trkpt>
      <trkpt lat="46.477406" lon="22.701677">
        <ele>1035.308</ele>
        <time>2017-04-29T10:47:14Z</time>
      </trkpt>
      <trkpt lat="46.477508" lon="22.701598">
        <ele>1033.196</ele>
        <time>2017-04-29T10:49:06Z</time>
      </trkpt>
      <trkpt lat="46.477577" lon="22.701684">
        <ele>1033.822</ele>
        <time>2017-04-29T10:50:04Z</time>
      </trkpt>
      <trkpt lat="46.477667" lon="22.701634">
        <ele>1034.820</ele>
        <time>2017-04-29T10:50:18Z</time>
      </trkpt>
      <trkpt lat="46.477567" lon="22.701578">
        <ele>1033.720</ele>
        <time>2017-04-29T10:52:22Z</time>
      </trkpt>
      <trkpt lat="46.477581" lon="22.701708">
        <ele>1033.711</ele>
        <time>2017-04-29T10:54:40Z</time>
      </trkpt>
      <trkpt lat="46.477536" lon="22.701822">
        <ele>1032.527</ele>
        <time>2017-04-29T10:54:54Z</time>
      </trkpt>
      <trkpt lat="46.477542" lon="22.701962">
        <ele>1031.967</ele>
        <time>2017-04-29T10:55:08Z</time>
      </trkpt>
      <trkpt lat="46.477565" lon="22.702092">
        <ele>1032.723</ele>
        <time>2017-04-29T10:55:24Z</time>
      </trkpt>
      <trkpt lat="46.477563" lon="22.702226">
        <ele>1032.889</ele>
        <time>2017-04-29T10:55:35Z</time>
      </trkpt>
      <trkpt lat="46.477557" lon="22.702357">
        <ele>1033.606</ele>
        <time>2017-04-29T10:55:49Z</time>
      </trkpt>
      <trkpt lat="46.477571" lon="22.702504">
        <ele>1035.026</ele>
        <time>2017-04-29T10:55:59Z</time>
      </trkpt>
      <trkpt lat="46.477531" lon="22.702632">
        <ele>1033.908</ele>
        <time>2017-04-29T10:56:11Z</time>
      </trkpt>
      <trkpt lat="46.477502" lon="22.702778">
        <ele>1033.139</ele>
        <time>2017-04-29T10:56:21Z</time>
      </trkpt>
      <trkpt lat="46.477475" lon="22.702917">
        <ele>1033.175</ele>
        <time>2017-04-29T10:56:31Z</time>
      </trkpt>
      <trkpt lat="46.477445" lon="22.703055">
        <ele>1032.633</ele>
        <time>2017-04-29T10:56:38Z</time>
      </trkpt>
      <trkpt lat="46.477381" lon="22.703157">
        <ele>1030.213</ele>
        <time>2017-04-29T10:56:49Z</time>
      </trkpt>
      <trkpt lat="46.477331" lon="22.703273">
        <ele>1027.574</ele>
        <time>2017-04-29T10:57:06Z</time>
      </trkpt>
      <trkpt lat="46.477275" lon="22.703390">
        <ele>1024.450</ele>
        <time>2017-04-29T10:57:17Z</time>
      </trkpt>
      <trkpt lat="46.477285" lon="22.703527">
        <ele>1023.690</ele>
        <time>2017-04-29T10:57:25Z</time>
      </trkpt>
      <trkpt lat="46.477274" lon="22.703669">
        <ele>1022.286</ele>
        <time>2017-04-29T10:57:34Z</time>
      </trkpt>
      <trkpt lat="46.477263" lon="22.703813">
        <ele>1021.249</ele>
        <time>2017-04-29T10:57:40Z</time>
      </trkpt>
      <trkpt lat="46.477241" lon="22.703953">
        <ele>1020.402</ele>
        <time>2017-04-29T10:57:46Z</time>
      </trkpt>
      <trkpt lat="46.477265" lon="22.704094">
        <ele>1020.922</ele>
        <time>2017-04-29T10:57:52Z</time>
      </trkpt>
      <trkpt lat="46.477242" lon="22.704229">
        <ele>1020.708</ele>
        <time>2017-04-29T10:58:03Z</time>
      </trkpt>
      <trkpt lat="46.477258" lon="22.704376">
        <ele>1021.635</ele>
        <time>2017-04-29T10:58:12Z</time>
      </trkpt>
      <trkpt lat="46.477276" lon="22.704517">
        <ele>1022.141</ele>
        <time>2017-04-29T10:58:23Z</time>
      </trkpt>
      <trkpt lat="46.477255" lon="22.704674">
        <ele>1021.129</ele>
        <time>2017-04-29T10:58:31Z</time>
      </trkpt>
      <trkpt lat="46.477257" lon="22.704820">
        <ele>1020.799</ele>
        <time>2017-04-29T10:58:38Z</time>
      </trkpt>
      <trkpt lat="46.477227" lon="22.704945">
        <ele>1019.390</ele>
        <time>2017-04-29T10:58:45Z</time>
      </trkpt>
      <trkpt lat="46.477235" lon="22.705077">
        <ele>1018.646</ele>
        <time>2017-04-29T10:58:55Z</time>
      </trkpt>
      <trkpt lat="46.477209" lon="22.705210">
        <ele>1016.676</ele>
        <time>2017-04-29T10:59:09Z</time>
      </trkpt>
      <trkpt lat="46.477232" lon="22.705344">
        <ele>1016.182</ele>
        <time>2017-04-29T10:59:19Z</time>
      </trkpt>
      <trkpt lat="46.477220" lon="22.705483">
        <ele>1015.225</ele>
        <time>2017-04-29T10:59:30Z</time>
      </trkpt>
      <trkpt lat="46.477217" lon="22.705627">
        <ele>1014.126</ele>
        <time>2017-04-29T10:59:39Z</time>
      </trkpt>
      <trkpt lat="46.477224" lon="22.705776">
        <ele>1012.708</ele>
        <time>2017-04-29T10:59:51Z</time>
      </trkpt>
      <trkpt lat="46.477230" lon="22.705908">
        <ele>1011.408</ele>
        <time>2017-04-29T10:59:59Z</time>
      </trkpt>
      <trkpt lat="46.477191" lon="22.706030">
        <ele>1009.533</ele>
        <time>2017-04-29T11:00:16Z</time>
      </trkpt>
      <trkpt lat="46.477163" lon="22.706170">
        <ele>1008.139</ele>
        <time>2017-04-29T11:00:23Z</time>
      </trkpt>
      <trkpt lat="46.477131" lon="22.706299">
        <ele>1007.527</ele>
        <time>2017-04-29T11:00:31Z</time>
      </trkpt>
      <trkpt lat="46.477124" lon="22.706443">
        <ele>1007.137</ele>
        <time>2017-04-29T11:00:43Z</time>
      </trkpt>
      <trkpt lat="46.477128" lon="22.706582">
        <ele>1006.858</ele>
        <time>2017-04-29T11:00:50Z</time>
      </trkpt>
      <trkpt lat="46.477061" lon="22.706724">
        <ele>1004.534</ele>
        <time>2017-04-29T11:00:56Z</time>
      </trkpt>
      <trkpt lat="46.477029" lon="22.706853">
        <ele>1002.874</ele>
        <time>2017-04-29T11:01:01Z</time>
      </trkpt>
      <trkpt lat="46.476993" lon="22.706972">
        <ele>1000.850</ele>
        <time>2017-04-29T11:01:05Z</time>
      </trkpt>
      <trkpt lat="46.476997" lon="22.707120">
        <ele>998.583</ele>
        <time>2017-04-29T11:01:12Z</time>
      </trkpt>
      <trkpt lat="46.476933" lon="22.707215">
        <ele>995.325</ele>
        <time>2017-04-29T11:01:20Z</time>
      </trkpt>
      <trkpt lat="46.476874" lon="22.707318">
        <ele>996.117</ele>
        <time>2017-04-29T11:01:27Z</time>
      </trkpt>
      <trkpt lat="46.476850" lon="22.707445">
        <ele>996.208</ele>
        <time>2017-04-29T11:01:35Z</time>
      </trkpt>
      <trkpt lat="46.476856" lon="22.707576">
        <ele>996.059</ele>
        <time>2017-04-29T11:01:43Z</time>
      </trkpt>
      <trkpt lat="46.476847" lon="22.707720">
        <ele>996.115</ele>
        <time>2017-04-29T11:01:52Z</time>
      </trkpt>
      <trkpt lat="46.476852" lon="22.707860">
        <ele>996.043</ele>
        <time>2017-04-29T11:02:01Z</time>
      </trkpt>
      <trkpt lat="46.476866" lon="22.708002">
        <ele>996.033</ele>
        <time>2017-04-29T11:02:09Z</time>
      </trkpt>
      <trkpt lat="46.476905" lon="22.708137">
        <ele>996.334</ele>
        <time>2017-04-29T11:02:16Z</time>
      </trkpt>
      <trkpt lat="46.476916" lon="22.708298">
        <ele>997.050</ele>
        <time>2017-04-29T11:02:23Z</time>
      </trkpt>
      <trkpt lat="46.476907" lon="22.708436">
        <ele>997.280</ele>
        <time>2017-04-29T11:02:30Z</time>
      </trkpt>
      <trkpt lat="46.476916" lon="22.708575">
        <ele>997.236</ele>
        <time>2017-04-29T11:02:36Z</time>
      </trkpt>
      <trkpt lat="46.476934" lon="22.708705">
        <ele>997.461</ele>
        <time>2017-04-29T11:02:44Z</time>
      </trkpt>
      <trkpt lat="46.476967" lon="22.708832">
        <ele>998.521</ele>
        <time>2017-04-29T11:03:04Z</time>
      </trkpt>
      <trkpt lat="46.476980" lon="22.708965">
        <ele>999.113</ele>
        <time>2017-04-29T11:03:13Z</time>
      </trkpt>
      <trkpt lat="46.476979" lon="22.709101">
        <ele>999.108</ele>
        <time>2017-04-29T11:03:23Z</time>
      </trkpt>
      <trkpt lat="46.476907" lon="22.709179">
        <ele>997.917</ele>
        <time>2017-04-29T11:04:25Z</time>
      </trkpt>
      <trkpt lat="46.476909" lon="22.709313">
        <ele>997.953</ele>
        <time>2017-04-29T11:04:35Z</time>
      </trkpt>
      <trkpt lat="46.476912" lon="22.709455">
        <ele>997.941</ele>
        <time>2017-04-29T11:04:43Z</time>
      </trkpt>
      <trkpt lat="46.476905" lon="22.709594">
        <ele>996.821</ele>
        <time>2017-04-29T11:04:52Z</time>
      </trkpt>
      <trkpt lat="46.476859" lon="22.709724">
        <ele>995.452</ele>
        <time>2017-04-29T11:05:02Z</time>
      </trkpt>
      <trkpt lat="46.476812" lon="22.709836">
        <ele>994.298</ele>
        <time>2017-04-29T11:05:09Z</time>
      </trkpt>
      <trkpt lat="46.476789" lon="22.709978">
        <ele>993.148</ele>
        <time>2017-04-29T11:05:15Z</time>
      </trkpt>
      <trkpt lat="46.476776" lon="22.710111">
        <ele>991.834</ele>
        <time>2017-04-29T11:05:23Z</time>
      </trkpt>
      <trkpt lat="46.476780" lon="22.710261">
        <ele>990.256</ele>
        <time>2017-04-29T11:05:32Z</time>
      </trkpt>
      <trkpt lat="46.476736" lon="22.710384">
        <ele>989.859</ele>
        <time>2017-04-29T11:05:42Z</time>
      </trkpt>
      <trkpt lat="46.476723" lon="22.710522">
        <ele>989.514</ele>
        <time>2017-04-29T11:05:50Z</time>
      </trkpt>
      <trkpt lat="46.476710" lon="22.710654">
        <ele>988.608</ele>
        <time>2017-04-29T11:05:53Z</time>
      </trkpt>
      <trkpt lat="46.476700" lon="22.710823">
        <ele>987.256</ele>
        <time>2017-04-29T11:06:01Z</time>
      </trkpt>
      <trkpt lat="46.476641" lon="22.710926">
        <ele>985.842</ele>
        <time>2017-04-29T11:06:06Z</time>
      </trkpt>
      <trkpt lat="46.476611" lon="22.711057">
        <ele>985.070</ele>
        <time>2017-04-29T11:06:13Z</time>
      </trkpt>
      <trkpt lat="46.476554" lon="22.711158">
        <ele>984.030</ele>
        <time>2017-04-29T11:06:20Z</time>
      </trkpt>
      <trkpt lat="46.476537" lon="22.711295">
        <ele>983.131</ele>
        <time>2017-04-29T11:06:30Z</time>
      </trkpt>
      <trkpt lat="46.476486" lon="22.711409">
        <ele>982.147</ele>
        <time>2017-04-29T11:06:38Z</time>
      </trkpt>
      <trkpt lat="46.476510" lon="22.711552">
        <ele>982.617</ele>
        <time>2017-04-29T11:06:46Z</time>
      </trkpt>
      <trkpt lat="46.476523" lon="22.711697">
        <ele>983.033</ele>
        <time>2017-04-29T11:06:57Z</time>
      </trkpt>
      <trkpt lat="46.476519" lon="22.711839">
        <ele>983.298</ele>
        <time>2017-04-29T11:07:05Z</time>
      </trkpt>
      <trkpt lat="46.476492" lon="22.711971">
        <ele>982.915</ele>
        <time>2017-04-29T11:07:13Z</time>
      </trkpt>
      <trkpt lat="46.476456" lon="22.712115">
        <ele>982.226</ele>
        <time>2017-04-29T11:07:20Z</time>
      </trkpt>
      <trkpt lat="46.476442" lon="22.712267">
        <ele>981.808</ele>
        <time>2017-04-29T11:07:29Z</time>
      </trkpt>
      <trkpt lat="46.476458" lon="22.712400">
        <ele>981.680</ele>
        <time>2017-04-29T11:07:36Z</time>
      </trkpt>
      <trkpt lat="46.476481" lon="22.712527">
        <ele>981.426</ele>
        <time>2017-04-29T11:07:40Z</time>
      </trkpt>
      <trkpt lat="46.476471" lon="22.712658">
        <ele>979.944</ele>
        <time>2017-04-29T11:07:45Z</time>
      </trkpt>
      <trkpt lat="46.476465" lon="22.712790">
        <ele>978.574</ele>
        <time>2017-04-29T11:07:49Z</time>
      </trkpt>
      <trkpt lat="46.476509" lon="22.712918">
        <ele>978.155</ele>
        <time>2017-04-29T11:07:56Z</time>
      </trkpt>
      <trkpt lat="46.476503" lon="22.713052">
        <ele>976.551</ele>
        <time>2017-04-29T11:08:07Z</time>
      </trkpt>
      <trkpt lat="46.476480" lon="22.713186">
        <ele>975.851</ele>
        <time>2017-04-29T11:08:16Z</time>
      </trkpt>
      <trkpt lat="46.476454" lon="22.713314">
        <ele>974.987</ele>
        <time>2017-04-29T11:08:25Z</time>
      </trkpt>
      <trkpt lat="46.476403" lon="22.713458">
        <ele>973.027</ele>
        <time>2017-04-29T11:08:32Z</time>
      </trkpt>
      <trkpt lat="46.476352" lon="22.713571">
        <ele>971.968</ele>
        <time>2017-04-29T11:08:37Z</time>
      </trkpt>
      <trkpt lat="46.476281" lon="22.713676">
        <ele>970.314</ele>
        <time>2017-04-29T11:08:45Z</time>
      </trkpt>
      <trkpt lat="46.476232" lon="22.713786">
        <ele>967.908</ele>
        <time>2017-04-29T11:08:51Z</time>
      </trkpt>
      <trkpt lat="46.476199" lon="22.713910">
        <ele>965.613</ele>
        <time>2017-04-29T11:08:59Z</time>
      </trkpt>
      <trkpt lat="46.476190" lon="22.714050">
        <ele>965.789</ele>
        <time>2017-04-29T11:09:09Z</time>
      </trkpt>
      <trkpt lat="46.476210" lon="22.714194">
        <ele>965.977</ele>
        <time>2017-04-29T11:09:17Z</time>
      </trkpt>
      <trkpt lat="46.476246" lon="22.714313">
        <ele>965.967</ele>
        <time>2017-04-29T11:09:24Z</time>
      </trkpt>
      <trkpt lat="46.476264" lon="22.714448">
        <ele>965.748</ele>
        <time>2017-04-29T11:09:30Z</time>
      </trkpt>
      <trkpt lat="46.476283" lon="22.714585">
        <ele>965.874</ele>
        <time>2017-04-29T11:09:42Z</time>
      </trkpt>
      <trkpt lat="46.476277" lon="22.714729">
        <ele>965.324</ele>
        <time>2017-04-29T11:09:50Z</time>
      </trkpt>
      <trkpt lat="46.476270" lon="22.714873">
        <ele>964.150</ele>
        <time>2017-04-29T11:09:58Z</time>
      </trkpt>
      <trkpt lat="46.476239" lon="22.715018">
        <ele>962.163</ele>
        <time>2017-04-29T11:10:06Z</time>
      </trkpt>
      <trkpt lat="46.476208" lon="22.715156">
        <ele>960.944</ele>
        <time>2017-04-29T11:10:18Z</time>
      </trkpt>
      <trkpt lat="46.476238" lon="22.715291">
        <ele>961.218</ele>
        <time>2017-04-29T11:10:26Z</time>
      </trkpt>
      <trkpt lat="46.476201" lon="22.715419">
        <ele>960.108</ele>
        <time>2017-04-29T11:10:35Z</time>
      </trkpt>
      <trkpt lat="46.476159" lon="22.715553">
        <ele>958.937</ele>
        <time>2017-04-29T11:10:42Z</time>
      </trkpt>
      <trkpt lat="46.476099" lon="22.715663">
        <ele>958.243</ele>
        <time>2017-04-29T11:10:59Z</time>
      </trkpt>
      <trkpt lat="46.476052" lon="22.715782">
        <ele>958.831</ele>
        <time>2017-04-29T11:11:06Z</time>
      </trkpt>
      <trkpt lat="46.476022" lon="22.715919">
        <ele>957.981</ele>
        <time>2017-04-29T11:11:17Z</time>
      </trkpt>
      <trkpt lat="46.475995" lon="22.716053">
        <ele>956.832</ele>
        <time>2017-04-29T11:11:25Z</time>
      </trkpt>
      <trkpt lat="46.476008" lon="22.716183">
        <ele>955.788</ele>
        <time>2017-04-29T11:11:33Z</time>
      </trkpt>
      <trkpt lat="46.476036" lon="22.716312">
        <ele>954.818</ele>
        <time>2017-04-29T11:11:42Z</time>
      </trkpt>
      <trkpt lat="46.476031" lon="22.716442">
        <ele>954.554</ele>
        <time>2017-04-29T11:12:33Z</time>
      </trkpt>
      <trkpt lat="46.476033" lon="22.716586">
        <ele>953.925</ele>
        <time>2017-04-29T11:12:48Z</time>
      </trkpt>
      <trkpt lat="46.476043" lon="22.716734">
        <ele>953.226</ele>
        <time>2017-04-29T11:12:57Z</time>
      </trkpt>
      <trkpt lat="46.476061" lon="22.716864">
        <ele>952.608</ele>
        <time>2017-04-29T11:13:03Z</time>
      </trkpt>
      <trkpt lat="46.476049" lon="22.716997">
        <ele>953.108</ele>
        <time>2017-04-29T11:13:11Z</time>
      </trkpt>
      <trkpt lat="46.476040" lon="22.717128">
        <ele>953.593</ele>
        <time>2017-04-29T11:13:19Z</time>
      </trkpt>
      <trkpt lat="46.476069" lon="22.717252">
        <ele>952.599</ele>
        <time>2017-04-29T11:13:27Z</time>
      </trkpt>
      <trkpt lat="46.476107" lon="22.717374">
        <ele>950.617</ele>
        <time>2017-04-29T11:13:34Z</time>
      </trkpt>
      <trkpt lat="46.476124" lon="22.717515">
        <ele>950.137</ele>
        <time>2017-04-29T11:13:43Z</time>
      </trkpt>
      <trkpt lat="46.476144" lon="22.717649">
        <ele>949.768</ele>
        <time>2017-04-29T11:13:50Z</time>
      </trkpt>
      <trkpt lat="46.476195" lon="22.717774">
        <ele>949.364</ele>
        <time>2017-04-29T11:13:58Z</time>
      </trkpt>
      <trkpt lat="46.476250" lon="22.717877">
        <ele>949.544</ele>
        <time>2017-04-29T11:14:05Z</time>
      </trkpt>
      <trkpt lat="46.476291" lon="22.718005">
        <ele>949.280</ele>
        <time>2017-04-29T11:14:13Z</time>
      </trkpt>
      <trkpt lat="46.476311" lon="22.718144">
        <ele>949.487</ele>
        <time>2017-04-29T11:14:23Z</time>
      </trkpt>
      <trkpt lat="46.476353" lon="22.718265">
        <ele>949.442</ele>
        <time>2017-04-29T11:14:30Z</time>
      </trkpt>
      <trkpt lat="46.476413" lon="22.718365">
        <ele>949.326</ele>
        <time>2017-04-29T11:14:40Z</time>
      </trkpt>
      <trkpt lat="46.476482" lon="22.718510">
        <ele>950.108</ele>
        <time>2017-04-29T11:14:48Z</time>
      </trkpt>
      <trkpt lat="46.476500" lon="22.718650">
        <ele>950.469</ele>
        <time>2017-04-29T11:14:55Z</time>
      </trkpt>
      <trkpt lat="46.476527" lon="22.718780">
        <ele>950.285</ele>
        <time>2017-04-29T11:15:00Z</time>
      </trkpt>
      <trkpt lat="46.476559" lon="22.718909">
        <ele>949.533</ele>
        <time>2017-04-29T11:15:07Z</time>
      </trkpt>
      <trkpt lat="46.476616" lon="22.719010">
        <ele>948.123</ele>
        <time>2017-04-29T11:15:14Z</time>
      </trkpt>
      <trkpt lat="46.476670" lon="22.719128">
        <ele>946.324</ele>
        <time>2017-04-29T11:15:21Z</time>
      </trkpt>
      <trkpt lat="46.476668" lon="22.719270">
        <ele>945.310</ele>
        <time>2017-04-29T11:15:28Z</time>
      </trkpt>
      <trkpt lat="46.476711" lon="22.719391">
        <ele>944.350</ele>
        <time>2017-04-29T11:15:35Z</time>
      </trkpt>
      <trkpt lat="46.476788" lon="22.719486">
        <ele>943.956</ele>
        <time>2017-04-29T11:15:42Z</time>
      </trkpt>
      <trkpt lat="46.476846" lon="22.719589">
        <ele>943.962</ele>
        <time>2017-04-29T11:15:51Z</time>
      </trkpt>
      <trkpt lat="46.476857" lon="22.719726">
        <ele>944.283</ele>
        <time>2017-04-29T11:15:59Z</time>
      </trkpt>
      <trkpt lat="46.476944" lon="22.719819">
        <ele>942.411</ele>
        <time>2017-04-29T11:16:06Z</time>
      </trkpt>
      <trkpt lat="46.477004" lon="22.719919">
        <ele>943.508</ele>
        <time>2017-04-29T11:16:13Z</time>
      </trkpt>
      <trkpt lat="46.477066" lon="22.720027">
        <ele>944.477</ele>
        <time>2017-04-29T11:16:21Z</time>
      </trkpt>
      <trkpt lat="46.477124" lon="22.720135">
        <ele>944.823</ele>
        <time>2017-04-29T11:16:28Z</time>
      </trkpt>
      <trkpt lat="46.477210" lon="22.720217">
        <ele>944.521</ele>
        <time>2017-04-29T11:16:35Z</time>
      </trkpt>
      <trkpt lat="46.477280" lon="22.720327">
        <ele>945.691</ele>
        <time>2017-04-29T11:16:42Z</time>
      </trkpt>
      <trkpt lat="46.477276" lon="22.720468">
        <ele>945.412</ele>
        <time>2017-04-29T11:16:49Z</time>
      </trkpt>
      <trkpt lat="46.477303" lon="22.720592">
        <ele>945.048</ele>
        <time>2017-04-29T11:16:55Z</time>
      </trkpt>
      <trkpt lat="46.477281" lon="22.720724">
        <ele>942.978</ele>
        <time>2017-04-29T11:17:04Z</time>
      </trkpt>
      <trkpt lat="46.477357" lon="22.720809">
        <ele>941.914</ele>
        <time>2017-04-29T11:17:11Z</time>
      </trkpt>
      <trkpt lat="46.477418" lon="22.720909">
        <ele>940.599</ele>
        <time>2017-04-29T11:17:21Z</time>
      </trkpt>
      <trkpt lat="46.477460" lon="22.721027">
        <ele>937.907</ele>
        <time>2017-04-29T11:17:26Z</time>
      </trkpt>
      <trkpt lat="46.477481" lon="22.721159">
        <ele>935.127</ele>
        <time>2017-04-29T11:17:34Z</time>
      </trkpt>
      <trkpt lat="46.477497" lon="22.721303">
        <ele>933.008</ele>
        <time>2017-04-29T11:17:41Z</time>
      </trkpt>
      <trkpt lat="46.477489" lon="22.721433">
        <ele>932.320</ele>
        <time>2017-04-29T11:17:47Z</time>
      </trkpt>
      <trkpt lat="46.477533" lon="22.721547">
        <ele>931.236</ele>
        <time>2017-04-29T11:17:55Z</time>
      </trkpt>
      <trkpt lat="46.477547" lon="22.721696">
        <ele>930.454</ele>
        <time>2017-04-29T11:18:04Z</time>
      </trkpt>
      <trkpt lat="46.477583" lon="22.721831">
        <ele>929.674</ele>
        <time>2017-04-29T11:18:11Z</time>
      </trkpt>
      <trkpt lat="46.477633" lon="22.721955">
        <ele>928.115</ele>
        <time>2017-04-29T11:18:19Z</time>
      </trkpt>
      <trkpt lat="46.477655" lon="22.722096">
        <ele>926.521</ele>
        <time>2017-04-29T11:18:27Z</time>
      </trkpt>
      <trkpt lat="46.477682" lon="22.722226">
        <ele>924.791</ele>
        <time>2017-04-29T11:18:35Z</time>
      </trkpt>
      <trkpt lat="46.477693" lon="22.722369">
        <ele>923.557</ele>
        <time>2017-04-29T11:18:44Z</time>
      </trkpt>
      <trkpt lat="46.477712" lon="22.722509">
        <ele>921.864</ele>
        <time>2017-04-29T11:18:52Z</time>
      </trkpt>
      <trkpt lat="46.477745" lon="22.722635">
        <ele>920.106</ele>
        <time>2017-04-29T11:19:07Z</time>
      </trkpt>
      <trkpt lat="46.477772" lon="22.722760">
        <ele>918.416</ele>
        <time>2017-04-29T11:19:15Z</time>
      </trkpt>
      <trkpt lat="46.477804" lon="22.722891">
        <ele>917.908</ele>
        <time>2017-04-29T11:19:24Z</time>
      </trkpt>
      <trkpt lat="46.477817" lon="22.723030">
        <ele>917.757</ele>
        <time>2017-04-29T11:19:32Z</time>
      </trkpt>
      <trkpt lat="46.477859" lon="22.723151">
        <ele>917.433</ele>
        <time>2017-04-29T11:19:40Z</time>
      </trkpt>
      <trkpt lat="46.477884" lon="22.723290">
        <ele>917.241</ele>
        <time>2017-04-29T11:19:48Z</time>
      </trkpt>
      <trkpt lat="46.477918" lon="22.723416">
        <ele>917.461</ele>
        <time>2017-04-29T11:19:56Z</time>
      </trkpt>
      <trkpt lat="46.477950" lon="22.723546">
        <ele>917.892</ele>
        <time>2017-04-29T11:20:04Z</time>
      </trkpt>
      <trkpt lat="46.477979" lon="22.723671">
        <ele>918.278</ele>
        <time>2017-04-29T11:20:11Z</time>
      </trkpt>
      <trkpt lat="46.477993" lon="22.723802">
        <ele>918.988</ele>
        <time>2017-04-29T11:20:19Z</time>
      </trkpt>
      <trkpt lat="46.478016" lon="22.723929">
        <ele>919.114</ele>
        <time>2017-04-29T11:20:26Z</time>
      </trkpt>
      <trkpt lat="46.478050" lon="22.724075">
        <ele>917.797</ele>
        <time>2017-04-29T11:20:36Z</time>
      </trkpt>
      <trkpt lat="46.478076" lon="22.724218">
        <ele>916.523</ele>
        <time>2017-04-29T11:20:44Z</time>
      </trkpt>
      <trkpt lat="46.478108" lon="22.724346">
        <ele>915.025</ele>
        <time>2017-04-29T11:20:51Z</time>
      </trkpt>
      <trkpt lat="46.478139" lon="22.724478">
        <ele>913.508</ele>
        <time>2017-04-29T11:21:00Z</time>
      </trkpt>
      <trkpt lat="46.478162" lon="22.724605">
        <ele>912.260</ele>
        <time>2017-04-29T11:21:07Z</time>
      </trkpt>
      <trkpt lat="46.478183" lon="22.724733">
        <ele>910.936</ele>
        <time>2017-04-29T11:21:15Z</time>
      </trkpt>
      <trkpt lat="46.478200" lon="22.724870">
        <ele>910.284</ele>
        <time>2017-04-29T11:21:23Z</time>
      </trkpt>
      <trkpt lat="46.478224" lon="22.724999">
        <ele>909.484</ele>
        <time>2017-04-29T11:21:30Z</time>
      </trkpt>
      <trkpt lat="46.478257" lon="22.725137">
        <ele>908.665</ele>
        <time>2017-04-29T11:21:38Z</time>
      </trkpt>
      <trkpt lat="46.478293" lon="22.725270">
        <ele>907.581</ele>
        <time>2017-04-29T11:21:46Z</time>
      </trkpt>
      <trkpt lat="46.478316" lon="22.725410">
        <ele>906.861</ele>
        <time>2017-04-29T11:21:54Z</time>
      </trkpt>
      <trkpt lat="46.478341" lon="22.725538">
        <ele>906.177</ele>
        <time>2017-04-29T11:22:03Z</time>
      </trkpt>
      <trkpt lat="46.478367" lon="22.725668">
        <ele>905.865</ele>
        <time>2017-04-29T11:23:05Z</time>
      </trkpt>
      <trkpt lat="46.478400" lon="22.725802">
        <ele>905.668</ele>
        <time>2017-04-29T11:23:15Z</time>
      </trkpt>
      <trkpt lat="46.478435" lon="22.725928">
        <ele>905.714</ele>
        <time>2017-04-29T11:23:25Z</time>
      </trkpt>
      <trkpt lat="46.478493" lon="22.726034">
        <ele>906.208</ele>
        <time>2017-04-29T11:23:34Z</time>
      </trkpt>
      <trkpt lat="46.478529" lon="22.726167">
        <ele>906.667</ele>
        <time>2017-04-29T11:23:44Z</time>
      </trkpt>
      <trkpt lat="46.478597" lon="22.726279">
        <ele>907.543</ele>
        <time>2017-04-29T11:23:52Z</time>
      </trkpt>
      <trkpt lat="46.478668" lon="22.726371">
        <ele>909.211</ele>
        <time>2017-04-29T11:24:02Z</time>
      </trkpt>
      <trkpt lat="46.478759" lon="22.726421">
        <ele>911.311</ele>
        <time>2017-04-29T11:24:09Z</time>
      </trkpt>
      <trkpt lat="46.478843" lon="22.726488">
        <ele>913.122</ele>
        <time>2017-04-29T11:24:16Z</time>
      </trkpt>
      <trkpt lat="46.478921" lon="22.726586">
        <ele>914.698</ele>
        <time>2017-04-29T11:24:25Z</time>
      </trkpt>
      <trkpt lat="46.478995" lon="22.726664">
        <ele>915.518</ele>
        <time>2017-04-29T11:24:35Z</time>
      </trkpt>
      <trkpt lat="46.479057" lon="22.726771">
        <ele>916.094</ele>
        <time>2017-04-29T11:24:44Z</time>
      </trkpt>
      <trkpt lat="46.479113" lon="22.726876">
        <ele>916.049</ele>
        <time>2017-04-29T11:24:52Z</time>
      </trkpt>
      <trkpt lat="46.479184" lon="22.726967">
        <ele>916.002</ele>
        <time>2017-04-29T11:25:00Z</time>
      </trkpt>
      <trkpt lat="46.479246" lon="22.727077">
        <ele>915.822</ele>
        <time>2017-04-29T11:25:08Z</time>
      </trkpt>
      <trkpt lat="46.479306" lon="22.727182">
        <ele>915.408</ele>
        <time>2017-04-29T11:25:16Z</time>
      </trkpt>
      <trkpt lat="46.479375" lon="22.727289">
        <ele>914.895</ele>
        <time>2017-04-29T11:25:25Z</time>
      </trkpt>
      <trkpt lat="46.479451" lon="22.727379">
        <ele>914.481</ele>
        <time>2017-04-29T11:25:36Z</time>
      </trkpt>
      <trkpt lat="46.479527" lon="22.727454">
        <ele>914.179</ele>
        <time>2017-04-29T11:25:47Z</time>
      </trkpt>
      <trkpt lat="46.479618" lon="22.727517">
        <ele>914.089</ele>
        <time>2017-04-29T11:25:55Z</time>
      </trkpt>
      <trkpt lat="46.479708" lon="22.727597">
        <ele>913.590</ele>
        <time>2017-04-29T11:26:05Z</time>
      </trkpt>
      <trkpt lat="46.479799" lon="22.727653">
        <ele>913.256</ele>
        <time>2017-04-29T11:26:12Z</time>
      </trkpt>
      <trkpt lat="46.479894" lon="22.727689">
        <ele>913.396</ele>
        <time>2017-04-29T11:26:21Z</time>
      </trkpt>
      <trkpt lat="46.479997" lon="22.727685">
        <ele>914.072</ele>
        <time>2017-04-29T11:26:32Z</time>
      </trkpt>
      <trkpt lat="46.480109" lon="22.727610">
        <ele>913.597</ele>
        <time>2017-04-29T11:26:41Z</time>
      </trkpt>
      <trkpt lat="46.480170" lon="22.727512">
        <ele>914.023</ele>
        <time>2017-04-29T11:26:48Z</time>
      </trkpt>
      <trkpt lat="46.480236" lon="22.727422">
        <ele>914.025</ele>
        <time>2017-04-29T11:26:57Z</time>
      </trkpt>
      <trkpt lat="46.480298" lon="22.727327">
        <ele>913.408</ele>
        <time>2017-04-29T11:27:06Z</time>
      </trkpt>
      <trkpt lat="46.480348" lon="22.727216">
        <ele>912.370</ele>
        <time>2017-04-29T11:27:14Z</time>
      </trkpt>
      <trkpt lat="46.480395" lon="22.727092">
        <ele>911.516</ele>
        <time>2017-04-29T11:27:22Z</time>
      </trkpt>
      <trkpt lat="46.480424" lon="22.726966">
        <ele>911.574</ele>
        <time>2017-04-29T11:27:30Z</time>
      </trkpt>
      <trkpt lat="46.480474" lon="22.726839">
        <ele>911.074</ele>
        <time>2017-04-29T11:28:51Z</time>
      </trkpt>
      <trkpt lat="46.480512" lon="22.726717">
        <ele>910.995</ele>
        <time>2017-04-29T11:28:59Z</time>
      </trkpt>
      <trkpt lat="46.480553" lon="22.726600">
        <ele>911.091</ele>
        <time>2017-04-29T11:29:06Z</time>
      </trkpt>
      <trkpt lat="46.480607" lon="22.726480">
        <ele>910.551</ele>
        <time>2017-04-29T11:29:15Z</time>
      </trkpt>
      <trkpt lat="46.480680" lon="22.726353">
        <ele>909.327</ele>
        <time>2017-04-29T11:29:23Z</time>
      </trkpt>
      <trkpt lat="46.480761" lon="22.726295">
        <ele>907.199</ele>
        <time>2017-04-29T11:29:30Z</time>
      </trkpt>
      <trkpt lat="46.480839" lon="22.726215">
        <ele>905.607</ele>
        <time>2017-04-29T11:29:37Z</time>
      </trkpt>
      <trkpt lat="46.480897" lon="22.726111">
        <ele>905.927</ele>
        <time>2017-04-29T11:29:44Z</time>
      </trkpt>
      <trkpt lat="46.480964" lon="22.726021">
        <ele>906.408</ele>
        <time>2017-04-29T11:29:52Z</time>
      </trkpt>
      <trkpt lat="46.481038" lon="22.725946">
        <ele>905.850</ele>
        <time>2017-04-29T11:30:00Z</time>
      </trkpt>
      <trkpt lat="46.481113" lon="22.725870">
        <ele>905.096</ele>
        <time>2017-04-29T11:30:09Z</time>
      </trkpt>
      <trkpt lat="46.481176" lon="22.725771">
        <ele>905.584</ele>
        <time>2017-04-29T11:30:18Z</time>
      </trkpt>
      <trkpt lat="46.481267" lon="22.725694">
        <ele>904.134</ele>
        <time>2017-04-29T11:30:26Z</time>
      </trkpt>
      <trkpt lat="46.481356" lon="22.725617">
        <ele>902.145</ele>
        <time>2017-04-29T11:30:35Z</time>
      </trkpt>
      <trkpt lat="46.481477" lon="22.725536">
        <ele>900.871</ele>
        <time>2017-04-29T11:30:45Z</time>
      </trkpt>
      <trkpt lat="46.481544" lon="22.725430">
        <ele>901.411</ele>
        <time>2017-04-29T11:30:56Z</time>
      </trkpt>
      <trkpt lat="46.481605" lon="22.725320">
        <ele>901.457</ele>
        <time>2017-04-29T11:31:06Z</time>
      </trkpt>
      <trkpt lat="46.481684" lon="22.725255">
        <ele>900.428</ele>
        <time>2017-04-29T11:31:17Z</time>
      </trkpt>
    </trkseg>
  </trk></gpx>