<?xml version="1.0" encoding="UTF-8"?>
<gpx creator="Wikiloc - https://www.wikiloc.com" version="1.1" xmlns="http://www.topografix.com/GPX/1/1" xmlns:xsi="http://www.w3.org/2001/XMLSchema-instance" xsi:schemaLocation="http://www.topografix.com/GPX/1/1 http://www.topografix.com/GPX/1/1/gpx.xsd">
  <metadata>
    <name>Wikiloc - Cetatile RadeseiHiking 5/3/16 10:50 am</name>
    <author>
      <name>Toni Grecu</name>
      <link href="https://www.wikiloc.com/wikiloc/user.do?id=2082631">
        <text>Toni Grecu on Wikiloc</text>
      </link>
    </author>
    <link href="https://www.wikiloc.com/hiking-trails/cetatile-radeseihiking-5-3-16-10-50-am-18029060">
      <text>Cetatile RadeseiHiking 5/3/16 10:50 am on Wikiloc</text>
    </link>
    <time>2016-05-03T08:40:11Z</time>
  </metadata>
  <trk>
    <name>Cetatile RadeseiHiking 5/3/16 10:50 am - Wikiloc</name>
    <cmt></cmt>
    <desc></desc>
    <trkseg>
      <trkpt lat="46.623899" lon="22.705882">
        <ele>1313.082</ele>
        <time>2016-05-03T05:50:31Z</time>
      </trkpt>
      <trkpt lat="46.623914" lon="22.705998">
        <ele>1313.043</ele>
        <time>2016-05-03T05:52:17Z</time>
      </trkpt>
      <trkpt lat="46.623992" lon="22.705939">
        <ele>1313.017</ele>
        <time>2016-05-03T05:52:54Z</time>
      </trkpt>
      <trkpt lat="46.624074" lon="22.705931">
        <ele>1313.008</ele>
        <time>2016-05-03T05:53:03Z</time>
      </trkpt>
      <trkpt lat="46.624158" lon="22.705932">
        <ele>1313.089</ele>
        <time>2016-05-03T05:53:11Z</time>
      </trkpt>
      <trkpt lat="46.624243" lon="22.705915">
        <ele>1313.416</ele>
        <time>2016-05-03T05:53:19Z</time>
      </trkpt>
      <trkpt lat="46.624330" lon="22.705930">
        <ele>1313.728</ele>
        <time>2016-05-03T05:53:27Z</time>
      </trkpt>
      <trkpt lat="46.624410" lon="22.705947">
        <ele>1314.160</ele>
        <time>2016-05-03T05:53:34Z</time>
      </trkpt>
      <trkpt lat="46.624490" lon="22.705980">
        <ele>1314.577</ele>
        <time>2016-05-03T05:53:41Z</time>
      </trkpt>
      <trkpt lat="46.624576" lon="22.705990">
        <ele>1314.858</ele>
        <time>2016-05-03T05:55:13Z</time>
      </trkpt>
      <trkpt lat="46.624647" lon="22.706071">
        <ele>1315.274</ele>
        <time>2016-05-03T05:55:21Z</time>
      </trkpt>
      <trkpt lat="46.624713" lon="22.706148">
        <ele>1315.558</ele>
        <time>2016-05-03T05:55:26Z</time>
      </trkpt>
      <trkpt lat="46.624788" lon="22.706207">
        <ele>1315.983</ele>
        <time>2016-05-03T05:55:33Z</time>
      </trkpt>
      <trkpt lat="46.624868" lon="22.706251">
        <ele>1316.325</ele>
        <time>2016-05-03T05:55:38Z</time>
      </trkpt>
      <trkpt lat="46.624959" lon="22.706259">
        <ele>1316.917</ele>
        <time>2016-05-03T05:55:50Z</time>
      </trkpt>
      <trkpt lat="46.625037" lon="22.706220">
        <ele>1317.508</ele>
        <time>2016-05-03T05:55:58Z</time>
      </trkpt>
      <trkpt lat="46.625112" lon="22.706269">
        <ele>1318.739</ele>
        <time>2016-05-03T05:56:09Z</time>
      </trkpt>
      <trkpt lat="46.625191" lon="22.706322">
        <ele>1319.946</ele>
        <time>2016-05-03T05:56:18Z</time>
      </trkpt>
      <trkpt lat="46.625268" lon="22.706360">
        <ele>1321.198</ele>
        <time>2016-05-03T05:56:25Z</time>
      </trkpt>
      <trkpt lat="46.625348" lon="22.706397">
        <ele>1322.380</ele>
        <time>2016-05-03T05:56:33Z</time>
      </trkpt>
      <trkpt lat="46.625421" lon="22.706462">
        <ele>1323.517</ele>
        <time>2016-05-03T05:56:40Z</time>
      </trkpt>
      <trkpt lat="46.625502" lon="22.706463">
        <ele>1324.628</ele>
        <time>2016-05-03T05:56:49Z</time>
      </trkpt>
      <trkpt lat="46.625578" lon="22.706540">
        <ele>1325.854</ele>
        <time>2016-05-03T05:56:57Z</time>
      </trkpt>
      <trkpt lat="46.625642" lon="22.706618">
        <ele>1327.058</ele>
        <time>2016-05-03T05:57:05Z</time>
      </trkpt>
      <trkpt lat="46.625717" lon="22.706669">
        <ele>1328.239</ele>
        <time>2016-05-03T05:57:13Z</time>
      </trkpt>
      <trkpt lat="46.625787" lon="22.706744">
        <ele>1329.101</ele>
        <time>2016-05-03T05:57:21Z</time>
      </trkpt>
      <trkpt lat="46.625854" lon="22.706811">
        <ele>1330.021</ele>
        <time>2016-05-03T05:57:29Z</time>
      </trkpt>
      <trkpt lat="46.625936" lon="22.706814">
        <ele>1329.508</ele>
        <time>2016-05-03T05:57:47Z</time>
      </trkpt>
      <trkpt lat="46.626016" lon="22.706849">
        <ele>1328.954</ele>
        <time>2016-05-03T05:58:41Z</time>
      </trkpt>
      <trkpt lat="46.626092" lon="22.706889">
        <ele>1328.421</ele>
        <time>2016-05-03T05:58:52Z</time>
      </trkpt>
      <trkpt lat="46.626163" lon="22.706959">
        <ele>1327.893</ele>
        <time>2016-05-03T05:58:59Z</time>
      </trkpt>
      <trkpt lat="46.626236" lon="22.707019">
        <ele>1327.265</ele>
        <time>2016-05-03T05:59:06Z</time>
      </trkpt>
      <trkpt lat="46.626311" lon="22.706966">
        <ele>1326.542</ele>
        <time>2016-05-03T05:59:47Z</time>
      </trkpt>
      <trkpt lat="46.626379" lon="22.707045">
        <ele>1325.993</ele>
        <time>2016-05-03T05:59:58Z</time>
      </trkpt>
      <trkpt lat="46.626447" lon="22.707115">
        <ele>1325.399</ele>
        <time>2016-05-03T06:00:08Z</time>
      </trkpt>
      <trkpt lat="46.626529" lon="22.707117">
        <ele>1324.683</ele>
        <time>2016-05-03T06:00:46Z</time>
      </trkpt>
      <trkpt lat="46.626553" lon="22.707234">
        <ele>1324.026</ele>
        <time>2016-05-03T06:01:11Z</time>
      </trkpt>
      <trkpt lat="46.626631" lon="22.707273">
        <ele>1323.447</ele>
        <time>2016-05-03T06:01:25Z</time>
      </trkpt>
      <trkpt lat="46.626714" lon="22.707295">
        <ele>1323.311</ele>
        <time>2016-05-03T06:01:54Z</time>
      </trkpt>
      <trkpt lat="46.626796" lon="22.707335">
        <ele>1323.208</ele>
        <time>2016-05-03T06:02:03Z</time>
      </trkpt>
      <trkpt lat="46.626874" lon="22.707398">
        <ele>1323.173</ele>
        <time>2016-05-03T06:02:11Z</time>
      </trkpt>
      <trkpt lat="46.626953" lon="22.707344">
        <ele>1322.190</ele>
        <time>2016-05-03T06:02:36Z</time>
      </trkpt>
      <trkpt lat="46.627022" lon="22.707250">
        <ele>1321.232</ele>
        <time>2016-05-03T06:02:41Z</time>
      </trkpt>
      <trkpt lat="46.627102" lon="22.707220">
        <ele>1320.384</ele>
        <time>2016-05-03T06:02:54Z</time>
      </trkpt>
      <trkpt lat="46.627079" lon="22.707341">
        <ele>1319.471</ele>
        <time>2016-05-03T06:03:56Z</time>
      </trkpt>
      <trkpt lat="46.627143" lon="22.707414">
        <ele>1318.582</ele>
        <time>2016-05-03T06:04:07Z</time>
      </trkpt>
      <trkpt lat="46.627209" lon="22.707497">
        <ele>1317.578</ele>
        <time>2016-05-03T06:05:16Z</time>
      </trkpt>
      <trkpt lat="46.627279" lon="22.707556">
        <ele>1316.692</ele>
        <time>2016-05-03T06:05:26Z</time>
      </trkpt>
      <trkpt lat="46.627356" lon="22.707517">
        <ele>1315.785</ele>
        <time>2016-05-03T06:05:36Z</time>
      </trkpt>
      <trkpt lat="46.627398" lon="22.707621">
        <ele>1314.889</ele>
        <time>2016-05-03T06:05:56Z</time>
      </trkpt>
      <trkpt lat="46.627461" lon="22.707719">
        <ele>1313.917</ele>
        <time>2016-05-03T06:06:02Z</time>
      </trkpt>
      <trkpt lat="46.627527" lon="22.707789">
        <ele>1313.408</ele>
        <time>2016-05-03T06:06:09Z</time>
      </trkpt>
      <trkpt lat="46.627593" lon="22.707876">
        <ele>1313.489</ele>
        <time>2016-05-03T06:06:24Z</time>
      </trkpt>
      <trkpt lat="46.627656" lon="22.707962">
        <ele>1313.416</ele>
        <time>2016-05-03T06:06:32Z</time>
      </trkpt>
      <trkpt lat="46.627740" lon="22.707969">
        <ele>1313.478</ele>
        <time>2016-05-03T06:06:41Z</time>
      </trkpt>
      <trkpt lat="46.627825" lon="22.708004">
        <ele>1312.640</ele>
        <time>2016-05-03T06:06:50Z</time>
      </trkpt>
      <trkpt lat="46.627900" lon="22.708071">
        <ele>1311.917</ele>
        <time>2016-05-03T06:07:01Z</time>
      </trkpt>
      <trkpt lat="46.627976" lon="22.708118">
        <ele>1311.258</ele>
        <time>2016-05-03T06:07:27Z</time>
      </trkpt>
      <trkpt lat="46.628058" lon="22.708112">
        <ele>1310.524</ele>
        <time>2016-05-03T06:08:11Z</time>
      </trkpt>
      <trkpt lat="46.628134" lon="22.708061">
        <ele>1309.778</ele>
        <time>2016-05-03T06:08:15Z</time>
      </trkpt>
      <trkpt lat="46.628214" lon="22.708004">
        <ele>1309.088</ele>
        <time>2016-05-03T06:08:21Z</time>
      </trkpt>
      <trkpt lat="46.628289" lon="22.707948">
        <ele>1308.324</ele>
        <time>2016-05-03T06:09:05Z</time>
      </trkpt>
      <trkpt lat="46.628369" lon="22.707992">
        <ele>1307.226</ele>
        <time>2016-05-03T06:09:38Z</time>
      </trkpt>
      <trkpt lat="46.628453" lon="22.707956">
        <ele>1305.808</ele>
        <time>2016-05-03T06:09:56Z</time>
      </trkpt>
      <trkpt lat="46.628538" lon="22.707946">
        <ele>1304.549</ele>
        <time>2016-05-03T06:10:06Z</time>
      </trkpt>
      <trkpt lat="46.628616" lon="22.707887">
        <ele>1303.176</ele>
        <time>2016-05-03T06:10:14Z</time>
      </trkpt>
      <trkpt lat="46.628702" lon="22.707837">
        <ele>1302.568</ele>
        <time>2016-05-03T06:10:22Z</time>
      </trkpt>
      <trkpt lat="46.628790" lon="22.707822">
        <ele>1301.880</ele>
        <time>2016-05-03T06:10:51Z</time>
      </trkpt>
      <trkpt lat="46.628827" lon="22.707713">
        <ele>1301.267</ele>
        <time>2016-05-03T06:11:16Z</time>
      </trkpt>
      <trkpt lat="46.628918" lon="22.707716">
        <ele>1300.568</ele>
        <time>2016-05-03T06:11:44Z</time>
      </trkpt>
      <trkpt lat="46.629007" lon="22.707733">
        <ele>1300.574</ele>
        <time>2016-05-03T06:12:03Z</time>
      </trkpt>
      <trkpt lat="46.629078" lon="22.707791">
        <ele>1300.548</ele>
        <time>2016-05-03T06:12:14Z</time>
      </trkpt>
      <trkpt lat="46.629158" lon="22.707806">
        <ele>1300.514</ele>
        <time>2016-05-03T06:12:30Z</time>
      </trkpt>
      <trkpt lat="46.629237" lon="22.707839">
        <ele>1300.554</ele>
        <time>2016-05-03T06:12:55Z</time>
      </trkpt>
      <trkpt lat="46.629297" lon="22.707924">
        <ele>1300.009</ele>
        <time>2016-05-03T06:13:02Z</time>
      </trkpt>
      <trkpt lat="46.629351" lon="22.708021">
        <ele>1299.508</ele>
        <time>2016-05-03T06:13:14Z</time>
      </trkpt>
      <trkpt lat="46.629432" lon="22.708054">
        <ele>1298.982</ele>
        <time>2016-05-03T06:13:43Z</time>
      </trkpt>
      <trkpt lat="46.629508" lon="22.708110">
        <ele>1298.459</ele>
        <time>2016-05-03T06:13:56Z</time>
      </trkpt>
      <trkpt lat="46.629565" lon="22.708213">
        <ele>1297.861</ele>
        <time>2016-05-03T06:14:20Z</time>
      </trkpt>
      <trkpt lat="46.629636" lon="22.708286">
        <ele>1297.383</ele>
        <time>2016-05-03T06:14:45Z</time>
      </trkpt>
      <trkpt lat="46.629709" lon="22.708340">
        <ele>1297.240</ele>
        <time>2016-05-03T06:15:04Z</time>
      </trkpt>
      <trkpt lat="46.629788" lon="22.708288">
        <ele>1296.521</ele>
        <time>2016-05-03T06:15:25Z</time>
      </trkpt>
      <trkpt lat="46.629872" lon="22.708274">
        <ele>1295.737</ele>
        <time>2016-05-03T06:16:15Z</time>
      </trkpt>
      <trkpt lat="46.629914" lon="22.708158">
        <ele>1294.571</ele>
        <time>2016-05-03T06:16:54Z</time>
      </trkpt>
      <trkpt lat="46.629983" lon="22.708088">
        <ele>1293.877</ele>
        <time>2016-05-03T06:18:47Z</time>
      </trkpt>
      <trkpt lat="46.629948" lon="22.707974">
        <ele>1294.361</ele>
        <time>2016-05-03T06:19:56Z</time>
      </trkpt>
      <trkpt lat="46.630018" lon="22.707914">
        <ele>1294.327</ele>
        <time>2016-05-03T06:23:51Z</time>
      </trkpt>
      <trkpt lat="46.630103" lon="22.707951">
        <ele>1294.308</ele>
        <time>2016-05-03T06:25:14Z</time>
      </trkpt>
      <trkpt lat="46.630156" lon="22.708045">
        <ele>1294.358</ele>
        <time>2016-05-03T06:26:06Z</time>
      </trkpt>
      <trkpt lat="46.630075" lon="22.708003">
        <ele>1294.725</ele>
        <time>2016-05-03T06:32:01Z</time>
      </trkpt>
      <trkpt lat="46.629998" lon="22.707943">
        <ele>1294.787</ele>
        <time>2016-05-03T06:32:09Z</time>
      </trkpt>
      <trkpt lat="46.630064" lon="22.708070">
        <ele>1294.349</ele>
        <time>2016-05-03T06:33:04Z</time>
      </trkpt>
      <trkpt lat="46.630104" lon="22.708192">
        <ele>1293.856</ele>
        <time>2016-05-03T06:33:12Z</time>
      </trkpt>
      <trkpt lat="46.630323" lon="22.708269">
        <ele>1293.417</ele>
        <time>2016-05-03T06:33:17Z</time>
      </trkpt>
      <trkpt lat="46.630527" lon="22.708449">
        <ele>1289.473</ele>
        <time>2016-05-03T06:33:19Z</time>
      </trkpt>
      <trkpt lat="46.630296" lon="22.708231">
        <ele>1287.367</ele>
        <time>2016-05-03T06:33:21Z</time>
      </trkpt>
      <trkpt lat="46.630132" lon="22.708138">
        <ele>1285.259</ele>
        <time>2016-05-03T06:33:22Z</time>
      </trkpt>
      <trkpt lat="46.630048" lon="22.708104">
        <ele>1283.503</ele>
        <time>2016-05-03T06:33:26Z</time>
      </trkpt>
      <trkpt lat="46.629961" lon="22.708080">
        <ele>1281.923</ele>
        <time>2016-05-03T06:33:28Z</time>
      </trkpt>
      <trkpt lat="46.632353" lon="22.709195">
        <ele>1280.308</ele>
        <time>2016-05-03T07:12:04Z</time>
      </trkpt>
      <trkpt lat="46.631773" lon="22.708967">
        <ele>1278.266</ele>
        <time>2016-05-03T07:12:21Z</time>
      </trkpt>
      <trkpt lat="46.631809" lon="22.709074">
        <ele>1276.593</ele>
        <time>2016-05-03T07:14:42Z</time>
      </trkpt>
      <trkpt lat="46.631889" lon="22.709035">
        <ele>1272.575</ele>
        <time>2016-05-03T07:14:46Z</time>
      </trkpt>
      <trkpt lat="46.631989" lon="22.709073">
        <ele>1268.527</ele>
        <time>2016-05-03T07:14:56Z</time>
      </trkpt>
      <trkpt lat="46.632038" lon="22.709167">
        <ele>1264.544</ele>
        <time>2016-05-03T07:15:32Z</time>
      </trkpt>
      <trkpt lat="46.632135" lon="22.709228">
        <ele>1264.555</ele>
        <time>2016-05-03T07:16:20Z</time>
      </trkpt>
      <trkpt lat="46.632142" lon="22.709357">
        <ele>1262.231</ele>
        <time>2016-05-03T07:17:22Z</time>
      </trkpt>
      <trkpt lat="46.632197" lon="22.709460">
        <ele>1259.855</ele>
        <time>2016-05-03T07:17:38Z</time>
      </trkpt>
      <trkpt lat="46.632286" lon="22.709437">
        <ele>1258.461</ele>
        <time>2016-05-03T07:18:18Z</time>
      </trkpt>
      <trkpt lat="46.632368" lon="22.709468">
        <ele>1256.721</ele>
        <time>2016-05-03T07:19:06Z</time>
      </trkpt>
      <trkpt lat="46.632449" lon="22.709440">
        <ele>1254.513</ele>
        <time>2016-05-03T07:20:35Z</time>
      </trkpt>
      <trkpt lat="46.632375" lon="22.709389">
        <ele>1251.708</ele>
        <time>2016-05-03T07:23:53Z</time>
      </trkpt>
      <trkpt lat="46.632375" lon="22.709389">
        <ele>1248.057</ele>
        <time>2016-05-03T07:23:53Z</time>
      </trkpt>
      <trkpt lat="46.632744" lon="22.710217">
        <ele>1245.084</ele>
        <time>2016-05-03T07:31:12Z</time>
      </trkpt>
      <trkpt lat="46.632817" lon="22.710293">
        <ele>1245.026</ele>
        <time>2016-05-03T07:33:00Z</time>
      </trkpt>
      <trkpt lat="46.632744" lon="22.710234">
        <ele>1245.028</ele>
        <time>2016-05-03T07:34:47Z</time>
      </trkpt>
      <trkpt lat="46.632779" lon="22.710124">
        <ele>1245.335</ele>
        <time>2016-05-03T07:36:27Z</time>
      </trkpt>
      <trkpt lat="46.632831" lon="22.710023">
        <ele>1245.636</ele>
        <time>2016-05-03T07:38:09Z</time>
      </trkpt>
      <trkpt lat="46.632795" lon="22.709900">
        <ele>1245.852</ele>
        <time>2016-05-03T07:38:19Z</time>
      </trkpt>
      <trkpt lat="46.632772" lon="22.709778">
        <ele>1246.156</ele>
        <time>2016-05-03T07:38:34Z</time>
      </trkpt>
      <trkpt lat="46.632756" lon="22.709661">
        <ele>1246.431</ele>
        <time>2016-05-03T07:38:46Z</time>
      </trkpt>
      <trkpt lat="46.632741" lon="22.709540">
        <ele>1246.661</ele>
        <time>2016-05-03T07:38:58Z</time>
      </trkpt>
      <trkpt lat="46.632642" lon="22.709468">
        <ele>1246.907</ele>
        <time>2016-05-03T07:39:02Z</time>
      </trkpt>
      <trkpt lat="46.632599" lon="22.709367">
        <ele>1247.208</ele>
        <time>2016-05-03T07:39:22Z</time>
      </trkpt>
      <trkpt lat="46.632537" lon="22.709291">
        <ele>1247.574</ele>
        <time>2016-05-03T07:39:34Z</time>
      </trkpt>
      <trkpt lat="46.632460" lon="22.709338">
        <ele>1247.761</ele>
        <time>2016-05-03T07:43:42Z</time>
      </trkpt>
      <trkpt lat="46.632543" lon="22.709298">
        <ele>1248.083</ele>
        <time>2016-05-03T07:45:29Z</time>
      </trkpt>
      <trkpt lat="46.632626" lon="22.709282">
        <ele>1248.095</ele>
        <time>2016-05-03T07:46:13Z</time>
      </trkpt>
      <trkpt lat="46.632722" lon="22.709283">
        <ele>1248.062</ele>
        <time>2016-05-03T07:47:28Z</time>
      </trkpt>
      <trkpt lat="46.632637" lon="22.709247">
        <ele>1248.013</ele>
        <time>2016-05-03T07:50:34Z</time>
      </trkpt>
      <trkpt lat="46.632547" lon="22.709284">
        <ele>1248.099</ele>
        <time>2016-05-03T07:51:25Z</time>
      </trkpt>
      <trkpt lat="46.632484" lon="22.709361">
        <ele>1248.073</ele>
        <time>2016-05-03T07:51:31Z</time>
      </trkpt>
      <trkpt lat="46.632401" lon="22.709378">
        <ele>1248.096</ele>
        <time>2016-05-03T07:53:32Z</time>
      </trkpt>
      <trkpt lat="46.632445" lon="22.709276">
        <ele>1248.031</ele>
        <time>2016-05-03T07:54:52Z</time>
      </trkpt>
      <trkpt lat="46.632491" lon="22.709172">
        <ele>1248.024</ele>
        <time>2016-05-03T07:55:36Z</time>
      </trkpt>
      <trkpt lat="46.632495" lon="22.709035">
        <ele>1248.708</ele>
        <time>2016-05-03T07:56:07Z</time>
      </trkpt>
      <trkpt lat="46.632413" lon="22.709009">
        <ele>1249.530</ele>
        <time>2016-05-03T07:56:16Z</time>
      </trkpt>
      <trkpt lat="46.632316" lon="22.709017">
        <ele>1252.537</ele>
        <time>2016-05-03T07:56:31Z</time>
      </trkpt>
      <trkpt lat="46.632233" lon="22.708984">
        <ele>1255.519</ele>
        <time>2016-05-03T07:57:50Z</time>
      </trkpt>
      <trkpt lat="46.632206" lon="22.708872">
        <ele>1258.531</ele>
        <time>2016-05-03T07:58:26Z</time>
      </trkpt>
      <trkpt lat="46.632271" lon="22.708773">
        <ele>1261.568</ele>
        <time>2016-05-03T07:58:36Z</time>
      </trkpt>
      <trkpt lat="46.632189" lon="22.708781">
        <ele>1264.549</ele>
        <time>2016-05-03T07:59:30Z</time>
      </trkpt>
      <trkpt lat="46.632137" lon="22.708680">
        <ele>1267.575</ele>
        <time>2016-05-03T08:00:01Z</time>
      </trkpt>
      <trkpt lat="46.632075" lon="22.708600">
        <ele>1270.559</ele>
        <time>2016-05-03T08:00:10Z</time>
      </trkpt>
      <trkpt lat="46.632049" lon="22.708473">
        <ele>1273.522</ele>
        <time>2016-05-03T08:00:24Z</time>
      </trkpt>
      <trkpt lat="46.631984" lon="22.708399">
        <ele>1276.962</ele>
        <time>2016-05-03T08:00:38Z</time>
      </trkpt>
      <trkpt lat="46.631935" lon="22.708300">
        <ele>1279.608</ele>
        <time>2016-05-03T08:00:48Z</time>
      </trkpt>
      <trkpt lat="46.631933" lon="22.708180">
        <ele>1282.408</ele>
        <time>2016-05-03T08:01:28Z</time>
      </trkpt>
      <trkpt lat="46.631864" lon="22.708118">
        <ele>1282.823</ele>
        <time>2016-05-03T08:01:33Z</time>
      </trkpt>
      <trkpt lat="46.631808" lon="22.708031">
        <ele>1282.850</ele>
        <time>2016-05-03T08:01:47Z</time>
      </trkpt>
      <trkpt lat="46.631742" lon="22.707945">
        <ele>1282.812</ele>
        <time>2016-05-03T08:01:54Z</time>
      </trkpt>
      <trkpt lat="46.631668" lon="22.707881">
        <ele>1282.824</ele>
        <time>2016-05-03T08:02:15Z</time>
      </trkpt>
      <trkpt lat="46.631587" lon="22.707902">
        <ele>1282.841</ele>
        <time>2016-05-03T08:02:22Z</time>
      </trkpt>
      <trkpt lat="46.631502" lon="22.707905">
        <ele>1282.812</ele>
        <time>2016-05-03T08:02:42Z</time>
      </trkpt>
      <trkpt lat="46.631507" lon="22.708048">
        <ele>1282.828</ele>
        <time>2016-05-03T08:03:43Z</time>
      </trkpt>
      <trkpt lat="46.631455" lon="22.708162">
        <ele>1284.322</ele>
        <time>2016-05-03T08:03:53Z</time>
      </trkpt>
      <trkpt lat="46.631473" lon="22.708278">
        <ele>1285.387</ele>
        <time>2016-05-03T08:04:32Z</time>
      </trkpt>
      <trkpt lat="46.631391" lon="22.708288">
        <ele>1286.342</ele>
        <time>2016-05-03T08:05:10Z</time>
      </trkpt>
      <trkpt lat="46.631377" lon="22.708413">
        <ele>1287.326</ele>
        <time>2016-05-03T08:05:29Z</time>
      </trkpt>
      <trkpt lat="46.631309" lon="22.708498">
        <ele>1288.308</ele>
        <time>2016-05-03T08:05:42Z</time>
      </trkpt>
      <trkpt lat="46.631223" lon="22.708542">
        <ele>1289.719</ele>
        <time>2016-05-03T08:06:55Z</time>
      </trkpt>
      <trkpt lat="46.631134" lon="22.708580">
        <ele>1291.276</ele>
        <time>2016-05-03T08:07:46Z</time>
      </trkpt>
      <trkpt lat="46.631076" lon="22.708676">
        <ele>1292.618</ele>
        <time>2016-05-03T08:07:57Z</time>
      </trkpt>
      <trkpt lat="46.631014" lon="22.708755">
        <ele>1294.190</ele>
        <time>2016-05-03T08:08:12Z</time>
      </trkpt>
      <trkpt lat="46.630927" lon="22.708792">
        <ele>1295.587</ele>
        <time>2016-05-03T08:08:39Z</time>
      </trkpt>
      <trkpt lat="46.630836" lon="22.708812">
        <ele>1297.068</ele>
        <time>2016-05-03T08:08:55Z</time>
      </trkpt>
      <trkpt lat="46.630858" lon="22.708687">
        <ele>1297.094</ele>
        <time>2016-05-03T08:09:43Z</time>
      </trkpt>
      <trkpt lat="46.630854" lon="22.708558">
        <ele>1297.048</ele>
        <time>2016-05-03T08:09:57Z</time>
      </trkpt>
      <trkpt lat="46.630839" lon="22.708435">
        <ele>1297.089</ele>
        <time>2016-05-03T08:10:11Z</time>
      </trkpt>
      <trkpt lat="46.630747" lon="22.708438">
        <ele>1297.006</ele>
        <time>2016-05-03T08:10:16Z</time>
      </trkpt>
      <trkpt lat="46.630676" lon="22.708375">
        <ele>1297.526</ele>
        <time>2016-05-03T08:10:33Z</time>
      </trkpt>
      <trkpt lat="46.630593" lon="22.708367">
        <ele>1297.908</ele>
        <time>2016-05-03T08:10:56Z</time>
      </trkpt>
      <trkpt lat="46.630583" lon="22.708490">
        <ele>1298.439</ele>
        <time>2016-05-03T08:11:09Z</time>
      </trkpt>
      <trkpt lat="46.630580" lon="22.708614">
        <ele>1298.866</ele>
        <time>2016-05-03T08:11:29Z</time>
      </trkpt>
      <trkpt lat="46.630556" lon="22.708738">
        <ele>1299.398</ele>
        <time>2016-05-03T08:11:43Z</time>
      </trkpt>
      <trkpt lat="46.630585" lon="22.708849">
        <ele>1299.790</ele>
        <time>2016-05-03T08:12:15Z</time>
      </trkpt>
      <trkpt lat="46.630627" lon="22.708957">
        <ele>1299.787</ele>
        <time>2016-05-03T08:12:53Z</time>
      </trkpt>
      <trkpt lat="46.630699" lon="22.709018">
        <ele>1299.738</ele>
        <time>2016-05-03T08:13:01Z</time>
      </trkpt>
      <trkpt lat="46.630780" lon="22.709041">
        <ele>1299.734</ele>
        <time>2016-05-03T08:13:10Z</time>
      </trkpt>
      <trkpt lat="46.630815" lon="22.708934">
        <ele>1299.768</ele>
        <time>2016-05-03T08:13:18Z</time>
      </trkpt>
      <trkpt lat="46.630884" lon="22.708868">
        <ele>1299.793</ele>
        <time>2016-05-03T08:13:39Z</time>
      </trkpt>
      <trkpt lat="46.630926" lon="22.708767">
        <ele>1299.365</ele>
        <time>2016-05-03T08:13:54Z</time>
      </trkpt>
      <trkpt lat="46.630932" lon="22.708649">
        <ele>1298.821</ele>
        <time>2016-05-03T08:14:24Z</time>
      </trkpt>
      <trkpt lat="46.630897" lon="22.708537">
        <ele>1298.608</ele>
        <time>2016-05-03T08:14:40Z</time>
      </trkpt>
      <trkpt lat="46.630901" lon="22.708419">
        <ele>1298.510</ele>
        <time>2016-05-03T08:14:59Z</time>
      </trkpt>
      <trkpt lat="46.630855" lon="22.708298">
        <ele>1298.397</ele>
        <time>2016-05-03T08:15:06Z</time>
      </trkpt>
      <trkpt lat="46.630802" lon="22.708197">
        <ele>1298.139</ele>
        <time>2016-05-03T08:15:15Z</time>
      </trkpt>
      <trkpt lat="46.630782" lon="22.708079">
        <ele>1298.461</ele>
        <time>2016-05-03T08:15:23Z</time>
      </trkpt>
      <trkpt lat="46.630740" lon="22.707975">
        <ele>1298.668</ele>
        <time>2016-05-03T08:15:33Z</time>
      </trkpt>
      <trkpt lat="46.630744" lon="22.707825">
        <ele>1298.629</ele>
        <time>2016-05-03T08:16:11Z</time>
      </trkpt>
      <trkpt lat="46.630664" lon="22.707807">
        <ele>1298.655</ele>
        <time>2016-05-03T08:16:54Z</time>
      </trkpt>
      <trkpt lat="46.630619" lon="22.707706">
        <ele>1298.649</ele>
        <time>2016-05-03T08:17:17Z</time>
      </trkpt>
      <trkpt lat="46.630573" lon="22.707602">
        <ele>1298.619</ele>
        <time>2016-05-03T08:17:31Z</time>
      </trkpt>
      <trkpt lat="46.630468" lon="22.707578">
        <ele>1298.609</ele>
        <time>2016-05-03T08:17:50Z</time>
      </trkpt>
      <trkpt lat="46.630394" lon="22.707517">
        <ele>1298.419</ele>
        <time>2016-05-03T08:18:08Z</time>
      </trkpt>
      <trkpt lat="46.630304" lon="22.707473">
        <ele>1298.108</ele>
        <time>2016-05-03T08:18:18Z</time>
      </trkpt>
      <trkpt lat="46.630220" lon="22.707439">
        <ele>1297.822</ele>
        <time>2016-05-03T08:18:39Z</time>
      </trkpt>
      <trkpt lat="46.630141" lon="22.707463">
        <ele>1297.569</ele>
        <time>2016-05-03T08:19:24Z</time>
      </trkpt>
      <trkpt lat="46.630110" lon="22.707576">
        <ele>1296.811</ele>
        <time>2016-05-03T08:19:45Z</time>
      </trkpt>
      <trkpt lat="46.630050" lon="22.707661">
        <ele>1296.113</ele>
        <time>2016-05-03T08:20:06Z</time>
      </trkpt>
      <trkpt lat="46.630001" lon="22.707766">
        <ele>1295.670</ele>
        <time>2016-05-03T08:20:37Z</time>
      </trkpt>
      <trkpt lat="46.629939" lon="22.707855">
        <ele>1295.261</ele>
        <time>2016-05-03T08:21:12Z</time>
      </trkpt>
      <trkpt lat="46.629957" lon="22.707975">
        <ele>1294.797</ele>
        <time>2016-05-03T08:21:24Z</time>
      </trkpt>
      <trkpt lat="46.629883" lon="22.708034">
        <ele>1294.371</ele>
        <time>2016-05-03T08:22:16Z</time>
      </trkpt>
      <trkpt lat="46.629852" lon="22.708149">
        <ele>1293.886</ele>
        <time>2016-05-03T08:22:46Z</time>
      </trkpt>
      <trkpt lat="46.629748" lon="22.708095">
        <ele>1293.960</ele>
        <time>2016-05-03T08:23:11Z</time>
      </trkpt>
      <trkpt lat="46.629761" lon="22.708224">
        <ele>1294.026</ele>
        <time>2016-05-03T08:23:31Z</time>
      </trkpt>
      <trkpt lat="46.629821" lon="22.708140">
        <ele>1294.108</ele>
        <time>2016-05-03T08:24:30Z</time>
      </trkpt>
      <trkpt lat="46.629741" lon="22.708116">
        <ele>1294.219</ele>
        <time>2016-05-03T08:24:41Z</time>
      </trkpt>
      <trkpt lat="46.629667" lon="22.708064">
        <ele>1294.776</ele>
        <time>2016-05-03T08:24:57Z</time>
      </trkpt>
      <trkpt lat="46.629590" lon="22.707993">
        <ele>1295.358</ele>
        <time>2016-05-03T08:25:20Z</time>
      </trkpt>
      <trkpt lat="46.629496" lon="22.707988">
        <ele>1295.860</ele>
        <time>2016-05-03T08:25:28Z</time>
      </trkpt>
      <trkpt lat="46.629417" lon="22.707913">
        <ele>1296.417</ele>
        <time>2016-05-03T08:26:23Z</time>
      </trkpt>
      <trkpt lat="46.629384" lon="22.707803">
        <ele>1296.938</ele>
        <time>2016-05-03T08:26:38Z</time>
      </trkpt>
      <trkpt lat="46.629304" lon="22.707771">
        <ele>1297.524</ele>
        <time>2016-05-03T08:26:46Z</time>
      </trkpt>
      <trkpt lat="46.629281" lon="22.707654">
        <ele>1298.038</ele>
        <time>2016-05-03T08:26:53Z</time>
      </trkpt>
      <trkpt lat="46.629216" lon="22.707575">
        <ele>1298.059</ele>
        <time>2016-05-03T08:27:05Z</time>
      </trkpt>
      <trkpt lat="46.629131" lon="22.707556">
        <ele>1298.603</ele>
        <time>2016-05-03T08:27:15Z</time>
      </trkpt>
      <trkpt lat="46.629038" lon="22.707562">
        <ele>1299.323</ele>
        <time>2016-05-03T08:27:22Z</time>
      </trkpt>
      <trkpt lat="46.628958" lon="22.707597">
        <ele>1299.908</ele>
        <time>2016-05-03T08:27:31Z</time>
      </trkpt>
      <trkpt lat="46.628872" lon="22.707588">
        <ele>1300.576</ele>
        <time>2016-05-03T08:27:47Z</time>
      </trkpt>
      <trkpt lat="46.628795" lon="22.707548">
        <ele>1301.273</ele>
        <time>2016-05-03T08:28:01Z</time>
      </trkpt>
      <trkpt lat="46.628747" lon="22.707654">
        <ele>1301.845</ele>
        <time>2016-05-03T08:28:17Z</time>
      </trkpt>
      <trkpt lat="46.628662" lon="22.707664">
        <ele>1302.557</ele>
        <time>2016-05-03T08:28:39Z</time>
      </trkpt>
      <trkpt lat="46.628581" lon="22.707728">
        <ele>1303.114</ele>
        <time>2016-05-03T08:28:52Z</time>
      </trkpt>
      <trkpt lat="46.628498" lon="22.707714">
        <ele>1303.755</ele>
        <time>2016-05-03T08:29:01Z</time>
      </trkpt>
      <trkpt lat="46.628426" lon="22.707772">
        <ele>1304.441</ele>
        <time>2016-05-03T08:29:17Z</time>
      </trkpt>
      <trkpt lat="46.628345" lon="22.707822">
        <ele>1305.765</ele>
        <time>2016-05-03T08:29:41Z</time>
      </trkpt>
      <trkpt lat="46.628250" lon="22.707849">
        <ele>1306.553</ele>
        <time>2016-05-03T08:29:46Z</time>
      </trkpt>
      <trkpt lat="46.628156" lon="22.707892">
        <ele>1307.204</ele>
        <time>2016-05-03T08:29:58Z</time>
      </trkpt>
      <trkpt lat="46.628067" lon="22.707901">
        <ele>1307.914</ele>
        <time>2016-05-03T08:30:36Z</time>
      </trkpt>
      <trkpt lat="46.627982" lon="22.707885">
        <ele>1308.608</ele>
        <time>2016-05-03T08:30:46Z</time>
      </trkpt>
      <trkpt lat="46.627891" lon="22.707895">
        <ele>1309.476</ele>
        <time>2016-05-03T08:30:54Z</time>
      </trkpt>
      <trkpt lat="46.627803" lon="22.707857">
        <ele>1310.193</ele>
        <time>2016-05-03T08:31:05Z</time>
      </trkpt>
      <trkpt lat="46.627756" lon="22.707759">
        <ele>1310.865</ele>
        <time>2016-05-03T08:31:17Z</time>
      </trkpt>
      <trkpt lat="46.627695" lon="22.707671">
        <ele>1311.597</ele>
        <time>2016-05-03T08:31:30Z</time>
      </trkpt>
      <trkpt lat="46.627597" lon="22.707681">
        <ele>1312.374</ele>
        <time>2016-05-03T08:31:53Z</time>
      </trkpt>
      <trkpt lat="46.627534" lon="22.707762">
        <ele>1313.065</ele>
        <time>2016-05-03T08:32:27Z</time>
      </trkpt>
      <trkpt lat="46.627459" lon="22.707713">
        <ele>1313.011</ele>
        <time>2016-05-03T08:32:46Z</time>
      </trkpt>
      <trkpt lat="46.627404" lon="22.707625">
        <ele>1313.945</ele>
        <time>2016-05-03T08:32:52Z</time>
      </trkpt>
      <trkpt lat="46.627341" lon="22.707541">
        <ele>1314.846</ele>
        <time>2016-05-03T08:33:03Z</time>
      </trkpt>
      <trkpt lat="46.627270" lon="22.707483">
        <ele>1315.788</ele>
        <time>2016-05-03T08:33:17Z</time>
      </trkpt>
      <trkpt lat="46.627209" lon="22.707404">
        <ele>1316.616</ele>
        <time>2016-05-03T08:33:29Z</time>
      </trkpt>
      <trkpt lat="46.627150" lon="22.707320">
        <ele>1317.508</ele>
        <time>2016-05-03T08:33:46Z</time>
      </trkpt>
      <trkpt lat="46.627095" lon="22.707223">
        <ele>1318.575</ele>
        <time>2016-05-03T08:33:57Z</time>
      </trkpt>
      <trkpt lat="46.627008" lon="22.707204">
        <ele>1319.522</ele>
        <time>2016-05-03T08:34:02Z</time>
      </trkpt>
      <trkpt lat="46.626924" lon="22.707214">
        <ele>1320.554</ele>
        <time>2016-05-03T08:34:25Z</time>
      </trkpt>
      <trkpt lat="46.626840" lon="22.707203">
        <ele>1321.586</ele>
        <time>2016-05-03T08:34:39Z</time>
      </trkpt>
      <trkpt lat="46.626753" lon="22.707198">
        <ele>1322.523</ele>
        <time>2016-05-03T08:35:05Z</time>
      </trkpt>
      <trkpt lat="46.626670" lon="22.707155">
        <ele>1323.554</ele>
        <time>2016-05-03T08:35:17Z</time>
      </trkpt>
      <trkpt lat="46.626601" lon="22.707093">
        <ele>1324.250</ele>
        <time>2016-05-03T08:35:25Z</time>
      </trkpt>
      <trkpt lat="46.626562" lon="22.706984">
        <ele>1324.844</ele>
        <time>2016-05-03T08:35:34Z</time>
      </trkpt>
      <trkpt lat="46.626479" lon="22.706940">
        <ele>1325.531</ele>
        <time>2016-05-03T08:35:41Z</time>
      </trkpt>
      <trkpt lat="46.626392" lon="22.706908">
        <ele>1326.161</ele>
        <time>2016-05-03T08:35:51Z</time>
      </trkpt>
      <trkpt lat="46.626307" lon="22.706870">
        <ele>1326.707</ele>
        <time>2016-05-03T08:35:55Z</time>
      </trkpt>
      <trkpt lat="46.626217" lon="22.706836">
        <ele>1327.308</ele>
        <time>2016-05-03T08:36:02Z</time>
      </trkpt>
      <trkpt lat="46.626125" lon="22.706813">
        <ele>1327.844</ele>
        <time>2016-05-03T08:36:11Z</time>
      </trkpt>
      <trkpt lat="46.626044" lon="22.706762">
        <ele>1328.491</ele>
        <time>2016-05-03T08:36:20Z</time>
      </trkpt>
      <trkpt lat="46.625957" lon="22.706745">
        <ele>1328.923</ele>
        <time>2016-05-03T08:36:28Z</time>
      </trkpt>
      <trkpt lat="46.625877" lon="22.706706">
        <ele>1329.585</ele>
        <time>2016-05-03T08:36:36Z</time>
      </trkpt>
      <trkpt lat="46.625797" lon="22.706669">
        <ele>1329.192</ele>
        <time>2016-05-03T08:36:43Z</time>
      </trkpt>
      <trkpt lat="46.625719" lon="22.706633">
        <ele>1328.213</ele>
        <time>2016-05-03T08:36:50Z</time>
      </trkpt>
      <trkpt lat="46.625638" lon="22.706652">
        <ele>1327.079</ele>
        <time>2016-05-03T08:36:59Z</time>
      </trkpt>
      <trkpt lat="46.625550" lon="22.706613">
        <ele>1325.813</ele>
        <time>2016-05-03T08:37:12Z</time>
      </trkpt>
      <trkpt lat="46.625476" lon="22.706564">
        <ele>1324.645</ele>
        <time>2016-05-03T08:37:34Z</time>
      </trkpt>
      <trkpt lat="46.625404" lon="22.706479">
        <ele>1323.547</ele>
        <time>2016-05-03T08:37:42Z</time>
      </trkpt>
      <trkpt lat="46.625323" lon="22.706426">
        <ele>1322.311</ele>
        <time>2016-05-03T08:37:49Z</time>
      </trkpt>
      <trkpt lat="46.625246" lon="22.706353">
        <ele>1321.108</ele>
        <time>2016-05-03T08:37:56Z</time>
      </trkpt>
      <trkpt lat="46.625167" lon="22.706294">
        <ele>1319.915</ele>
        <time>2016-05-03T08:38:03Z</time>
      </trkpt>
      <trkpt lat="46.625082" lon="22.706277">
        <ele>1318.732</ele>
        <time>2016-05-03T08:38:10Z</time>
      </trkpt>
      <trkpt lat="46.625001" lon="22.706272">
        <ele>1317.214</ele>
        <time>2016-05-03T08:38:16Z</time>
      </trkpt>
      <trkpt lat="46.624914" lon="22.706254">
        <ele>1316.596</ele>
        <time>2016-05-03T08:38:23Z</time>
      </trkpt>
      <trkpt lat="46.624823" lon="22.706200">
        <ele>1315.923</ele>
        <time>2016-05-03T08:38:34Z</time>
      </trkpt>
      <trkpt lat="46.624741" lon="22.706233">
        <ele>1315.544</ele>
        <time>2016-05-03T08:38:46Z</time>
      </trkpt>
      <trkpt lat="46.624664" lon="22.706150">
        <ele>1315.230</ele>
        <time>2016-05-03T08:38:54Z</time>
      </trkpt>
      <trkpt lat="46.624599" lon="22.706075">
        <ele>1314.844</ele>
        <time>2016-05-03T08:39:03Z</time>
      </trkpt>
      <trkpt lat="46.624532" lon="22.705998">
        <ele>1314.511</ele>
        <time>2016-05-03T08:39:12Z</time>
      </trkpt>
      <trkpt lat="46.624465" lon="22.705928">
        <ele>1314.121</ele>
        <time>2016-05-03T08:39:20Z</time>
      </trkpt>
      <trkpt lat="46.624392" lon="22.705866">
        <ele>1313.703</ele>
        <time>2016-05-03T08:39:27Z</time>
      </trkpt>
      <trkpt lat="46.624303" lon="22.705887">
        <ele>1313.408</ele>
        <time>2016-05-03T08:39:38Z</time>
      </trkpt>
      <trkpt lat="46.624226" lon="22.705923">
        <ele>1313.092</ele>
        <time>2016-05-03T08:39:47Z</time>
      </trkpt>
      <trkpt lat="46.624140" lon="22.705958">
        <ele>1313.079</ele>
        <time>2016-05-03T08:39:54Z</time>
      </trkpt>
      <trkpt lat="46.624056" lon="22.705993">
        <ele>1313.061</ele>
        <time>2016-05-03T08:40:02Z</time>
      </trkpt>
      <trkpt lat="46.623971" lon="22.706030">
        <ele>1313.063</ele>
        <time>2016-05-03T08:40:11Z</time>
      </trkpt>
    </trkseg>
  </trk></gpx>