<?xml version="1.0" encoding="UTF-8"?>
<gpx creator="Wikiloc - https://www.wikiloc.com" version="1.1" xmlns="http://www.topografix.com/GPX/1/1" xmlns:xsi="http://www.w3.org/2001/XMLSchema-instance" xsi:schemaLocation="http://www.topografix.com/GPX/1/1 http://www.topografix.com/GPX/1/1/gpx.xsd">
  <metadata>
    <name>Wikiloc - Cetățile Radesei - Padis</name>
    <author>
      <name>Toni Grecu</name>
      <link href="https://www.wikiloc.com/wikiloc/user.do?id=2082631">
        <text>Toni Grecu on Wikiloc</text>
      </link>
    </author>
    <link href="https://www.wikiloc.com/hiking-trails/cetatile-radesei-padis-18103733">
      <text>Cetățile Radesei - Padis on Wikiloc</text>
    </link>
    <time>2017-06-05T10:46:31Z</time>
  </metadata>
  <wpt lat="46.624518" lon="22.706010">
    <ele>1313.2</ele>
    <time>2017-06-06T05:29:02.554Z</time>
    <name>Spre cetățile radesei</name>
    <cmt>Spre cetățile radesei 
 
aici abandonati banda rosie si intrati pe marcaj punct rosu</cmt>
    <desc>Spre cetățile radesei 
 
aici abandonati banda rosie si intrati pe marcaj punct rosu</desc>
  </wpt>
  <wpt lat="46.630007" lon="22.708207">
    <ele>1289.1</ele>
    <time>2017-06-06T05:29:03.338Z</time>
    <name>intrare Cetățile radesei</name>
    <cmt>Cetățile radesei</cmt>
    <desc>Cetățile radesei</desc>
  </wpt>
  <wpt lat="46.632331" lon="22.709255">
    <ele>1248.2</ele>
    <time>2017-06-06T05:29:03.899Z</time>
    <name>iesire Pestera Cetățile radesei</name>
    <cmt>Pestera Cetățile radesei</cmt>
    <desc>Pestera Cetățile radesei</desc>
  </wpt>
  <trk>
    <name>Cetățile Radesei - Padis - Wikiloc</name>
    <cmt>Cabana Varasoaia - Cetățile Radesei - Cheile Somesului Cald (prin apa - ) 
(la intrare in pestera am oprit track-ul.)</cmt>
    <desc>Cabana Varasoaia - Cetățile Radesei - Cheile Somesului Cald (prin apa - ) 
(la intrare in pestera am oprit track-ul.)</desc>
    <trkseg>
      <trkpt lat="46.612557" lon="22.706802">
        <ele>1271.189</ele>
        <time>2017-06-05T09:27:02Z</time>
      </trkpt>
      <trkpt lat="46.612653" lon="22.706779">
        <ele>1271.906</ele>
        <time>2017-06-05T09:29:32Z</time>
      </trkpt>
      <trkpt lat="46.612745" lon="22.706746">
        <ele>1272.526</ele>
        <time>2017-06-05T09:29:40Z</time>
      </trkpt>
      <trkpt lat="46.612834" lon="22.706703">
        <ele>1272.608</ele>
        <time>2017-06-05T09:29:48Z</time>
      </trkpt>
      <trkpt lat="46.612922" lon="22.706648">
        <ele>1272.389</ele>
        <time>2017-06-05T09:29:56Z</time>
      </trkpt>
      <trkpt lat="46.613008" lon="22.706571">
        <ele>1271.886</ele>
        <time>2017-06-05T09:30:04Z</time>
      </trkpt>
      <trkpt lat="46.613089" lon="22.706506">
        <ele>1271.849</ele>
        <time>2017-06-05T09:30:13Z</time>
      </trkpt>
      <trkpt lat="46.613168" lon="22.706441">
        <ele>1272.358</ele>
        <time>2017-06-05T09:30:21Z</time>
      </trkpt>
      <trkpt lat="46.613262" lon="22.706388">
        <ele>1273.071</ele>
        <time>2017-06-05T09:30:31Z</time>
      </trkpt>
      <trkpt lat="46.613357" lon="22.706389">
        <ele>1274.355</ele>
        <time>2017-06-05T09:30:41Z</time>
      </trkpt>
      <trkpt lat="46.613446" lon="22.706415">
        <ele>1276.191</ele>
        <time>2017-06-05T09:30:49Z</time>
      </trkpt>
      <trkpt lat="46.613541" lon="22.706436">
        <ele>1277.971</ele>
        <time>2017-06-05T09:30:57Z</time>
      </trkpt>
      <trkpt lat="46.613639" lon="22.706459">
        <ele>1280.091</ele>
        <time>2017-06-05T09:31:05Z</time>
      </trkpt>
      <trkpt lat="46.613729" lon="22.706461">
        <ele>1281.781</ele>
        <time>2017-06-05T09:31:12Z</time>
      </trkpt>
      <trkpt lat="46.613832" lon="22.706459">
        <ele>1283.519</ele>
        <time>2017-06-05T09:31:21Z</time>
      </trkpt>
      <trkpt lat="46.613928" lon="22.706464">
        <ele>1285.308</ele>
        <time>2017-06-05T09:31:29Z</time>
      </trkpt>
      <trkpt lat="46.614019" lon="22.706433">
        <ele>1286.350</ele>
        <time>2017-06-05T09:31:35Z</time>
      </trkpt>
      <trkpt lat="46.614116" lon="22.706405">
        <ele>1287.477</ele>
        <time>2017-06-05T09:31:43Z</time>
      </trkpt>
      <trkpt lat="46.614207" lon="22.706375">
        <ele>1288.450</ele>
        <time>2017-06-05T09:31:50Z</time>
      </trkpt>
      <trkpt lat="46.614297" lon="22.706314">
        <ele>1288.989</ele>
        <time>2017-06-05T09:31:57Z</time>
      </trkpt>
      <trkpt lat="46.614393" lon="22.706267">
        <ele>1289.862</ele>
        <time>2017-06-05T09:32:11Z</time>
      </trkpt>
      <trkpt lat="46.614454" lon="22.706167">
        <ele>1289.216</ele>
        <time>2017-06-05T09:32:26Z</time>
      </trkpt>
      <trkpt lat="46.614569" lon="22.706110">
        <ele>1290.292</ele>
        <time>2017-06-05T09:32:34Z</time>
      </trkpt>
      <trkpt lat="46.614661" lon="22.706077">
        <ele>1291.522</ele>
        <time>2017-06-05T09:32:37Z</time>
      </trkpt>
      <trkpt lat="46.614746" lon="22.706017">
        <ele>1292.464</ele>
        <time>2017-06-05T09:32:44Z</time>
      </trkpt>
      <trkpt lat="46.614838" lon="22.705971">
        <ele>1293.606</ele>
        <time>2017-06-05T09:32:49Z</time>
      </trkpt>
      <trkpt lat="46.614919" lon="22.705887">
        <ele>1294.116</ele>
        <time>2017-06-05T09:32:57Z</time>
      </trkpt>
      <trkpt lat="46.615007" lon="22.705842">
        <ele>1295.208</ele>
        <time>2017-06-05T09:33:04Z</time>
      </trkpt>
      <trkpt lat="46.615100" lon="22.705854">
        <ele>1296.657</ele>
        <time>2017-06-05T09:33:13Z</time>
      </trkpt>
      <trkpt lat="46.615197" lon="22.705873">
        <ele>1298.264</ele>
        <time>2017-06-05T09:33:23Z</time>
      </trkpt>
      <trkpt lat="46.615289" lon="22.705890">
        <ele>1299.587</ele>
        <time>2017-06-05T09:33:33Z</time>
      </trkpt>
      <trkpt lat="46.615381" lon="22.705884">
        <ele>1299.926</ele>
        <time>2017-06-05T09:33:41Z</time>
      </trkpt>
      <trkpt lat="46.615491" lon="22.705851">
        <ele>1300.029</ele>
        <time>2017-06-05T09:33:51Z</time>
      </trkpt>
      <trkpt lat="46.615590" lon="22.705863">
        <ele>1300.763</ele>
        <time>2017-06-05T09:34:01Z</time>
      </trkpt>
      <trkpt lat="46.615689" lon="22.705909">
        <ele>1302.119</ele>
        <time>2017-06-05T09:34:10Z</time>
      </trkpt>
      <trkpt lat="46.615785" lon="22.705930">
        <ele>1303.069</ele>
        <time>2017-06-05T09:34:16Z</time>
      </trkpt>
      <trkpt lat="46.615873" lon="22.705958">
        <ele>1303.792</ele>
        <time>2017-06-05T09:34:26Z</time>
      </trkpt>
      <trkpt lat="46.615970" lon="22.705994">
        <ele>1304.173</ele>
        <time>2017-06-05T09:34:34Z</time>
      </trkpt>
      <trkpt lat="46.616055" lon="22.706056">
        <ele>1305.020</ele>
        <time>2017-06-05T09:34:44Z</time>
      </trkpt>
      <trkpt lat="46.616144" lon="22.706105">
        <ele>1305.708</ele>
        <time>2017-06-05T09:34:52Z</time>
      </trkpt>
      <trkpt lat="46.616230" lon="22.706159">
        <ele>1306.170</ele>
        <time>2017-06-05T09:34:59Z</time>
      </trkpt>
      <trkpt lat="46.616311" lon="22.706229">
        <ele>1307.087</ele>
        <time>2017-06-05T09:35:05Z</time>
      </trkpt>
      <trkpt lat="46.616397" lon="22.706311">
        <ele>1308.330</ele>
        <time>2017-06-05T09:35:13Z</time>
      </trkpt>
      <trkpt lat="46.616480" lon="22.706402">
        <ele>1309.659</ele>
        <time>2017-06-05T09:35:20Z</time>
      </trkpt>
      <trkpt lat="46.616576" lon="22.706443">
        <ele>1309.762</ele>
        <time>2017-06-05T09:35:28Z</time>
      </trkpt>
      <trkpt lat="46.616677" lon="22.706442">
        <ele>1308.996</ele>
        <time>2017-06-05T09:35:35Z</time>
      </trkpt>
      <trkpt lat="46.616774" lon="22.706449">
        <ele>1309.052</ele>
        <time>2017-06-05T09:35:40Z</time>
      </trkpt>
      <trkpt lat="46.616865" lon="22.706427">
        <ele>1308.692</ele>
        <time>2017-06-05T09:35:49Z</time>
      </trkpt>
      <trkpt lat="46.616955" lon="22.706443">
        <ele>1308.943</ele>
        <time>2017-06-05T09:35:57Z</time>
      </trkpt>
      <trkpt lat="46.617048" lon="22.706475">
        <ele>1310.764</ele>
        <time>2017-06-05T09:36:07Z</time>
      </trkpt>
      <trkpt lat="46.617145" lon="22.706490">
        <ele>1312.310</ele>
        <time>2017-06-05T09:36:16Z</time>
      </trkpt>
      <trkpt lat="46.617237" lon="22.706466">
        <ele>1313.208</ele>
        <time>2017-06-05T09:36:23Z</time>
      </trkpt>
      <trkpt lat="46.617335" lon="22.706485">
        <ele>1314.215</ele>
        <time>2017-06-05T09:36:32Z</time>
      </trkpt>
      <trkpt lat="46.617427" lon="22.706456">
        <ele>1314.432</ele>
        <time>2017-06-05T09:36:40Z</time>
      </trkpt>
      <trkpt lat="46.617525" lon="22.706463">
        <ele>1315.355</ele>
        <time>2017-06-05T09:36:49Z</time>
      </trkpt>
      <trkpt lat="46.617624" lon="22.706497">
        <ele>1316.664</ele>
        <time>2017-06-05T09:36:57Z</time>
      </trkpt>
      <trkpt lat="46.617724" lon="22.706510">
        <ele>1317.737</ele>
        <time>2017-06-05T09:37:05Z</time>
      </trkpt>
      <trkpt lat="46.617811" lon="22.706550">
        <ele>1319.391</ele>
        <time>2017-06-05T09:37:12Z</time>
      </trkpt>
      <trkpt lat="46.617905" lon="22.706574">
        <ele>1320.727</ele>
        <time>2017-06-05T09:37:20Z</time>
      </trkpt>
      <trkpt lat="46.618001" lon="22.706621">
        <ele>1322.667</ele>
        <time>2017-06-05T09:37:27Z</time>
      </trkpt>
      <trkpt lat="46.618101" lon="22.706635">
        <ele>1323.945</ele>
        <time>2017-06-05T09:37:36Z</time>
      </trkpt>
      <trkpt lat="46.618198" lon="22.706668">
        <ele>1325.647</ele>
        <time>2017-06-05T09:37:45Z</time>
      </trkpt>
      <trkpt lat="46.618291" lon="22.706711">
        <ele>1327.311</ele>
        <time>2017-06-05T09:37:52Z</time>
      </trkpt>
      <trkpt lat="46.618382" lon="22.706700">
        <ele>1327.608</ele>
        <time>2017-06-05T09:38:00Z</time>
      </trkpt>
      <trkpt lat="46.618477" lon="22.706692">
        <ele>1327.525</ele>
        <time>2017-06-05T09:38:06Z</time>
      </trkpt>
      <trkpt lat="46.618568" lon="22.706685">
        <ele>1327.372</ele>
        <time>2017-06-05T09:38:12Z</time>
      </trkpt>
      <trkpt lat="46.618664" lon="22.706672">
        <ele>1326.745</ele>
        <time>2017-06-05T09:38:19Z</time>
      </trkpt>
      <trkpt lat="46.618759" lon="22.706659">
        <ele>1325.834</ele>
        <time>2017-06-05T09:38:28Z</time>
      </trkpt>
      <trkpt lat="46.618847" lon="22.706612">
        <ele>1324.697</ele>
        <time>2017-06-05T09:38:34Z</time>
      </trkpt>
      <trkpt lat="46.618951" lon="22.706584">
        <ele>1324.611</ele>
        <time>2017-06-05T09:38:42Z</time>
      </trkpt>
      <trkpt lat="46.619056" lon="22.706586">
        <ele>1325.457</ele>
        <time>2017-06-05T09:38:51Z</time>
      </trkpt>
      <trkpt lat="46.619155" lon="22.706575">
        <ele>1326.297</ele>
        <time>2017-06-05T09:38:58Z</time>
      </trkpt>
      <trkpt lat="46.619248" lon="22.706538">
        <ele>1327.556</ele>
        <time>2017-06-05T09:39:04Z</time>
      </trkpt>
      <trkpt lat="46.619349" lon="22.706520">
        <ele>1328.859</ele>
        <time>2017-06-05T09:39:12Z</time>
      </trkpt>
      <trkpt lat="46.619447" lon="22.706522">
        <ele>1330.014</ele>
        <time>2017-06-05T09:39:19Z</time>
      </trkpt>
      <trkpt lat="46.619546" lon="22.706510">
        <ele>1330.208</ele>
        <time>2017-06-05T09:39:26Z</time>
      </trkpt>
      <trkpt lat="46.619640" lon="22.706495">
        <ele>1330.456</ele>
        <time>2017-06-05T09:39:33Z</time>
      </trkpt>
      <trkpt lat="46.619731" lon="22.706498">
        <ele>1330.323</ele>
        <time>2017-06-05T09:39:40Z</time>
      </trkpt>
      <trkpt lat="46.619834" lon="22.706516">
        <ele>1328.316</ele>
        <time>2017-06-05T09:39:50Z</time>
      </trkpt>
      <trkpt lat="46.619931" lon="22.706531">
        <ele>1326.685</ele>
        <time>2017-06-05T09:39:57Z</time>
      </trkpt>
      <trkpt lat="46.620033" lon="22.706552">
        <ele>1325.218</ele>
        <time>2017-06-05T09:40:05Z</time>
      </trkpt>
      <trkpt lat="46.620130" lon="22.706548">
        <ele>1324.872</ele>
        <time>2017-06-05T09:40:12Z</time>
      </trkpt>
      <trkpt lat="46.620225" lon="22.706527">
        <ele>1324.378</ele>
        <time>2017-06-05T09:40:19Z</time>
      </trkpt>
      <trkpt lat="46.620322" lon="22.706526">
        <ele>1324.288</ele>
        <time>2017-06-05T09:40:26Z</time>
      </trkpt>
      <trkpt lat="46.620414" lon="22.706511">
        <ele>1324.662</ele>
        <time>2017-06-05T09:40:33Z</time>
      </trkpt>
      <trkpt lat="46.620516" lon="22.706516">
        <ele>1325.283</ele>
        <time>2017-06-05T09:40:39Z</time>
      </trkpt>
      <trkpt lat="46.620610" lon="22.706523">
        <ele>1325.211</ele>
        <time>2017-06-05T09:40:46Z</time>
      </trkpt>
      <trkpt lat="46.620700" lon="22.706539">
        <ele>1325.108</ele>
        <time>2017-06-05T09:40:53Z</time>
      </trkpt>
      <trkpt lat="46.620792" lon="22.706562">
        <ele>1325.297</ele>
        <time>2017-06-05T09:41:00Z</time>
      </trkpt>
      <trkpt lat="46.620890" lon="22.706580">
        <ele>1325.164</ele>
        <time>2017-06-05T09:41:08Z</time>
      </trkpt>
      <trkpt lat="46.620978" lon="22.706607">
        <ele>1325.237</ele>
        <time>2017-06-05T09:41:14Z</time>
      </trkpt>
      <trkpt lat="46.621067" lon="22.706638">
        <ele>1325.566</ele>
        <time>2017-06-05T09:41:21Z</time>
      </trkpt>
      <trkpt lat="46.621157" lon="22.706634">
        <ele>1324.769</ele>
        <time>2017-06-05T09:41:27Z</time>
      </trkpt>
      <trkpt lat="46.621249" lon="22.706621">
        <ele>1323.433</ele>
        <time>2017-06-05T09:41:33Z</time>
      </trkpt>
      <trkpt lat="46.621346" lon="22.706589">
        <ele>1321.749</ele>
        <time>2017-06-05T09:41:40Z</time>
      </trkpt>
      <trkpt lat="46.621435" lon="22.706563">
        <ele>1320.759</ele>
        <time>2017-06-05T09:41:46Z</time>
      </trkpt>
      <trkpt lat="46.621534" lon="22.706527">
        <ele>1319.743</ele>
        <time>2017-06-05T09:41:52Z</time>
      </trkpt>
      <trkpt lat="46.621627" lon="22.706499">
        <ele>1319.064</ele>
        <time>2017-06-05T09:41:59Z</time>
      </trkpt>
      <trkpt lat="46.621726" lon="22.706447">
        <ele>1318.110</ele>
        <time>2017-06-05T09:42:06Z</time>
      </trkpt>
      <trkpt lat="46.621813" lon="22.706382">
        <ele>1316.908</ele>
        <time>2017-06-05T09:42:12Z</time>
      </trkpt>
      <trkpt lat="46.621905" lon="22.706332">
        <ele>1316.125</ele>
        <time>2017-06-05T09:42:19Z</time>
      </trkpt>
      <trkpt lat="46.621995" lon="22.706314">
        <ele>1316.242</ele>
        <time>2017-06-05T09:42:26Z</time>
      </trkpt>
      <trkpt lat="46.622085" lon="22.706326">
        <ele>1317.095</ele>
        <time>2017-06-05T09:42:34Z</time>
      </trkpt>
      <trkpt lat="46.622183" lon="22.706331">
        <ele>1317.744</ele>
        <time>2017-06-05T09:42:42Z</time>
      </trkpt>
      <trkpt lat="46.622282" lon="22.706306">
        <ele>1317.457</ele>
        <time>2017-06-05T09:42:49Z</time>
      </trkpt>
      <trkpt lat="46.622385" lon="22.706297">
        <ele>1317.171</ele>
        <time>2017-06-05T09:42:56Z</time>
      </trkpt>
      <trkpt lat="46.622485" lon="22.706273">
        <ele>1316.857</ele>
        <time>2017-06-05T09:43:02Z</time>
      </trkpt>
      <trkpt lat="46.622577" lon="22.706267">
        <ele>1316.427</ele>
        <time>2017-06-05T09:43:09Z</time>
      </trkpt>
      <trkpt lat="46.622674" lon="22.706266">
        <ele>1316.048</ele>
        <time>2017-06-05T09:43:17Z</time>
      </trkpt>
      <trkpt lat="46.622771" lon="22.706261">
        <ele>1315.661</ele>
        <time>2017-06-05T09:43:24Z</time>
      </trkpt>
      <trkpt lat="46.622864" lon="22.706243">
        <ele>1315.417</ele>
        <time>2017-06-05T09:43:31Z</time>
      </trkpt>
      <trkpt lat="46.622966" lon="22.706210">
        <ele>1315.108</ele>
        <time>2017-06-05T09:43:38Z</time>
      </trkpt>
      <trkpt lat="46.623060" lon="22.706192">
        <ele>1314.935</ele>
        <time>2017-06-05T09:43:44Z</time>
      </trkpt>
      <trkpt lat="46.623162" lon="22.706167">
        <ele>1315.492</ele>
        <time>2017-06-05T09:43:52Z</time>
      </trkpt>
      <trkpt lat="46.623265" lon="22.706147">
        <ele>1315.945</ele>
        <time>2017-06-05T09:43:59Z</time>
      </trkpt>
      <trkpt lat="46.623362" lon="22.706125">
        <ele>1316.174</ele>
        <time>2017-06-05T09:44:06Z</time>
      </trkpt>
      <trkpt lat="46.623458" lon="22.706120">
        <ele>1316.157</ele>
        <time>2017-06-05T09:44:14Z</time>
      </trkpt>
      <trkpt lat="46.623552" lon="22.706141">
        <ele>1316.221</ele>
        <time>2017-06-05T09:44:21Z</time>
      </trkpt>
      <trkpt lat="46.623646" lon="22.706140">
        <ele>1316.267</ele>
        <time>2017-06-05T09:44:28Z</time>
      </trkpt>
      <trkpt lat="46.623748" lon="22.706112">
        <ele>1316.077</ele>
        <time>2017-06-05T09:44:34Z</time>
      </trkpt>
      <trkpt lat="46.623841" lon="22.706096">
        <ele>1315.999</ele>
        <time>2017-06-05T09:44:40Z</time>
      </trkpt>
      <trkpt lat="46.623938" lon="22.706061">
        <ele>1315.607</ele>
        <time>2017-06-05T09:44:47Z</time>
      </trkpt>
      <trkpt lat="46.624046" lon="22.705997">
        <ele>1315.227</ele>
        <time>2017-06-05T09:44:54Z</time>
      </trkpt>
      <trkpt lat="46.624144" lon="22.705949">
        <ele>1314.808</ele>
        <time>2017-06-05T09:45:01Z</time>
      </trkpt>
      <trkpt lat="46.624238" lon="22.705933">
        <ele>1314.440</ele>
        <time>2017-06-05T09:45:08Z</time>
      </trkpt>
      <trkpt lat="46.624333" lon="22.705932">
        <ele>1313.967</ele>
        <time>2017-06-05T09:45:14Z</time>
      </trkpt>
      <trkpt lat="46.624419" lon="22.706004">
        <ele>1313.820</ele>
        <time>2017-06-05T09:45:27Z</time>
      </trkpt>
      <trkpt lat="46.624511" lon="22.706008">
        <ele>1313.259</ele>
        <time>2017-06-05T09:45:42Z</time>
      </trkpt>
      <trkpt lat="46.624601" lon="22.706058">
        <ele>1312.872</ele>
        <time>2017-06-05T09:46:08Z</time>
      </trkpt>
      <trkpt lat="46.624653" lon="22.706170">
        <ele>1313.126</ele>
        <time>2017-06-05T09:46:14Z</time>
      </trkpt>
      <trkpt lat="46.624726" lon="22.706267">
        <ele>1313.722</ele>
        <time>2017-06-05T09:46:22Z</time>
      </trkpt>
      <trkpt lat="46.624818" lon="22.706304">
        <ele>1314.632</ele>
        <time>2017-06-05T09:46:31Z</time>
      </trkpt>
      <trkpt lat="46.624902" lon="22.706354">
        <ele>1315.449</ele>
        <time>2017-06-05T09:46:40Z</time>
      </trkpt>
      <trkpt lat="46.624996" lon="22.706381">
        <ele>1316.002</ele>
        <time>2017-06-05T09:46:51Z</time>
      </trkpt>
      <trkpt lat="46.625087" lon="22.706399">
        <ele>1317.722</ele>
        <time>2017-06-05T09:47:02Z</time>
      </trkpt>
      <trkpt lat="46.625173" lon="22.706461">
        <ele>1319.708</ele>
        <time>2017-06-05T09:47:14Z</time>
      </trkpt>
      <trkpt lat="46.625259" lon="22.706505">
        <ele>1321.545</ele>
        <time>2017-06-05T09:47:22Z</time>
      </trkpt>
      <trkpt lat="46.625340" lon="22.706562">
        <ele>1323.492</ele>
        <time>2017-06-05T09:47:32Z</time>
      </trkpt>
      <trkpt lat="46.625420" lon="22.706627">
        <ele>1325.355</ele>
        <time>2017-06-05T09:47:42Z</time>
      </trkpt>
      <trkpt lat="46.625497" lon="22.706697">
        <ele>1327.344</ele>
        <time>2017-06-05T09:47:49Z</time>
      </trkpt>
      <trkpt lat="46.625592" lon="22.706720">
        <ele>1328.997</ele>
        <time>2017-06-05T09:47:56Z</time>
      </trkpt>
      <trkpt lat="46.625679" lon="22.706759">
        <ele>1330.051</ele>
        <time>2017-06-05T09:48:05Z</time>
      </trkpt>
      <trkpt lat="46.625770" lon="22.706763">
        <ele>1330.827</ele>
        <time>2017-06-05T09:48:42Z</time>
      </trkpt>
      <trkpt lat="46.625860" lon="22.706805">
        <ele>1331.477</ele>
        <time>2017-06-05T09:48:52Z</time>
      </trkpt>
      <trkpt lat="46.625950" lon="22.706856">
        <ele>1330.824</ele>
        <time>2017-06-05T09:49:01Z</time>
      </trkpt>
      <trkpt lat="46.626046" lon="22.706898">
        <ele>1329.904</ele>
        <time>2017-06-05T09:49:10Z</time>
      </trkpt>
      <trkpt lat="46.626136" lon="22.706955">
        <ele>1328.614</ele>
        <time>2017-06-05T09:49:19Z</time>
      </trkpt>
      <trkpt lat="46.626222" lon="22.707008">
        <ele>1327.308</ele>
        <time>2017-06-05T09:49:28Z</time>
      </trkpt>
      <trkpt lat="46.626315" lon="22.707039">
        <ele>1325.873</ele>
        <time>2017-06-05T09:49:34Z</time>
      </trkpt>
      <trkpt lat="46.626401" lon="22.707106">
        <ele>1324.350</ele>
        <time>2017-06-05T09:49:42Z</time>
      </trkpt>
      <trkpt lat="46.626492" lon="22.707187">
        <ele>1323.483</ele>
        <time>2017-06-05T09:49:51Z</time>
      </trkpt>
      <trkpt lat="46.626570" lon="22.707272">
        <ele>1322.732</ele>
        <time>2017-06-05T09:49:59Z</time>
      </trkpt>
      <trkpt lat="46.626656" lon="22.707328">
        <ele>1322.165</ele>
        <time>2017-06-05T09:50:08Z</time>
      </trkpt>
      <trkpt lat="46.626741" lon="22.707374">
        <ele>1321.329</ele>
        <time>2017-06-05T09:50:18Z</time>
      </trkpt>
      <trkpt lat="46.626831" lon="22.707386">
        <ele>1320.655</ele>
        <time>2017-06-05T09:50:25Z</time>
      </trkpt>
      <trkpt lat="46.626927" lon="22.707387">
        <ele>1319.715</ele>
        <time>2017-06-05T09:50:33Z</time>
      </trkpt>
      <trkpt lat="46.627016" lon="22.707366">
        <ele>1318.528</ele>
        <time>2017-06-05T09:50:49Z</time>
      </trkpt>
      <trkpt lat="46.627092" lon="22.707435">
        <ele>1317.689</ele>
        <time>2017-06-05T09:51:09Z</time>
      </trkpt>
      <trkpt lat="46.627152" lon="22.707536">
        <ele>1317.317</ele>
        <time>2017-06-05T09:51:20Z</time>
      </trkpt>
      <trkpt lat="46.627226" lon="22.707628">
        <ele>1317.308</ele>
        <time>2017-06-05T09:51:27Z</time>
      </trkpt>
      <trkpt lat="46.627285" lon="22.707740">
        <ele>1317.723</ele>
        <time>2017-06-05T09:51:35Z</time>
      </trkpt>
      <trkpt lat="46.627366" lon="22.707808">
        <ele>1317.070</ele>
        <time>2017-06-05T09:51:42Z</time>
      </trkpt>
      <trkpt lat="46.627464" lon="22.707817">
        <ele>1315.753</ele>
        <time>2017-06-05T09:51:50Z</time>
      </trkpt>
      <trkpt lat="46.627555" lon="22.707853">
        <ele>1314.722</ele>
        <time>2017-06-05T09:52:00Z</time>
      </trkpt>
      <trkpt lat="46.627640" lon="22.707906">
        <ele>1314.015</ele>
        <time>2017-06-05T09:52:09Z</time>
      </trkpt>
      <trkpt lat="46.627714" lon="22.707996">
        <ele>1313.559</ele>
        <time>2017-06-05T09:52:20Z</time>
      </trkpt>
      <trkpt lat="46.627799" lon="22.708041">
        <ele>1312.885</ele>
        <time>2017-06-05T09:52:51Z</time>
      </trkpt>
      <trkpt lat="46.627895" lon="22.708099">
        <ele>1312.495</ele>
        <time>2017-06-05T09:53:01Z</time>
      </trkpt>
      <trkpt lat="46.627991" lon="22.708103">
        <ele>1311.944</ele>
        <time>2017-06-05T09:53:21Z</time>
      </trkpt>
      <trkpt lat="46.628089" lon="22.708112">
        <ele>1311.505</ele>
        <time>2017-06-05T09:53:29Z</time>
      </trkpt>
      <trkpt lat="46.628183" lon="22.708080">
        <ele>1310.815</ele>
        <time>2017-06-05T09:53:39Z</time>
      </trkpt>
      <trkpt lat="46.628282" lon="22.708064">
        <ele>1310.308</ele>
        <time>2017-06-05T09:53:54Z</time>
      </trkpt>
      <trkpt lat="46.628373" lon="22.708058">
        <ele>1309.865</ele>
        <time>2017-06-05T09:54:03Z</time>
      </trkpt>
      <trkpt lat="46.628460" lon="22.707987">
        <ele>1308.262</ele>
        <time>2017-06-05T09:54:12Z</time>
      </trkpt>
      <trkpt lat="46.628573" lon="22.707980">
        <ele>1307.475</ele>
        <time>2017-06-05T09:54:25Z</time>
      </trkpt>
      <trkpt lat="46.628653" lon="22.707914">
        <ele>1306.194</ele>
        <time>2017-06-05T09:54:41Z</time>
      </trkpt>
      <trkpt lat="46.628740" lon="22.707838">
        <ele>1304.497</ele>
        <time>2017-06-05T09:55:02Z</time>
      </trkpt>
      <trkpt lat="46.630007" lon="22.708210">
        <ele>1289.151</ele>
        <time>2017-06-05T10:02:03Z</time>
      </trkpt>
      <trkpt lat="46.632191" lon="22.709430">
        <ele>1250.547</ele>
        <time>2017-06-05T10:55:28Z</time>
      </trkpt>
      <trkpt lat="46.632286" lon="22.709384">
        <ele>1247.967</ele>
        <time>2017-06-05T10:56:08Z</time>
      </trkpt>
      <trkpt lat="46.632377" lon="22.709427">
        <ele>1245.348</ele>
        <time>2017-06-05T10:56:24Z</time>
      </trkpt>
      <trkpt lat="46.632465" lon="22.709459">
        <ele>1242.961</ele>
        <time>2017-06-05T10:57:45Z</time>
      </trkpt>
      <trkpt lat="46.632534" lon="22.709370">
        <ele>1243.417</ele>
        <time>2017-06-05T10:58:02Z</time>
      </trkpt>
      <trkpt lat="46.632474" lon="22.709266">
        <ele>1245.108</ele>
        <time>2017-06-05T10:59:11Z</time>
      </trkpt>
      <trkpt lat="46.632449" lon="22.709128">
        <ele>1247.295</ele>
        <time>2017-06-05T10:59:21Z</time>
      </trkpt>
      <trkpt lat="46.632413" lon="22.709007">
        <ele>1248.762</ele>
        <time>2017-06-05T10:59:28Z</time>
      </trkpt>
      <trkpt lat="46.632368" lon="22.708888">
        <ele>1250.465</ele>
        <time>2017-06-05T11:00:13Z</time>
      </trkpt>
      <trkpt lat="46.632347" lon="22.709030">
        <ele>1249.724</ele>
        <time>2017-06-05T11:00:36Z</time>
      </trkpt>
      <trkpt lat="46.632364" lon="22.709164">
        <ele>1248.587</ele>
        <time>2017-06-05T11:00:59Z</time>
      </trkpt>
      <trkpt lat="46.632304" lon="22.709274">
        <ele>1248.591</ele>
        <time>2017-06-05T11:01:20Z</time>
      </trkpt>
      <trkpt lat="46.632160" lon="22.709382">
        <ele>1252.247</ele>
        <time>2017-06-05T11:02:12Z</time>
      </trkpt>
      <trkpt lat="46.632041" lon="22.709412">
        <ele>1257.147</ele>
        <time>2017-06-05T11:02:15Z</time>
      </trkpt>
      <trkpt lat="46.631910" lon="22.709458">
        <ele>1262.392</ele>
        <time>2017-06-05T11:02:18Z</time>
      </trkpt>
      <trkpt lat="46.631982" lon="22.709343">
        <ele>1260.473</ele>
        <time>2017-06-05T11:02:29Z</time>
      </trkpt>
      <trkpt lat="46.632136" lon="22.709188">
        <ele>1254.920</ele>
        <time>2017-06-05T11:02:32Z</time>
      </trkpt>
      <trkpt lat="46.632250" lon="22.709074">
        <ele>1251.208</ele>
        <time>2017-06-05T11:02:34Z</time>
      </trkpt>
      <trkpt lat="46.632344" lon="22.709158">
        <ele>1248.980</ele>
        <time>2017-06-05T11:03:01Z</time>
      </trkpt>
      <trkpt lat="46.632313" lon="22.709281">
        <ele>1248.337</ele>
        <time>2017-06-05T11:03:06Z</time>
      </trkpt>
      <trkpt lat="46.632371" lon="22.709383">
        <ele>1245.930</ele>
        <time>2017-06-05T11:03:19Z</time>
      </trkpt>
      <trkpt lat="46.632456" lon="22.709429">
        <ele>1243.349</ele>
        <time>2017-06-05T11:03:38Z</time>
      </trkpt>
      <trkpt lat="46.632538" lon="22.709483">
        <ele>1242.332</ele>
        <time>2017-06-05T11:03:49Z</time>
      </trkpt>
      <trkpt lat="46.632606" lon="22.709593">
        <ele>1242.686</ele>
        <time>2017-06-05T11:04:03Z</time>
      </trkpt>
      <trkpt lat="46.632696" lon="22.709620">
        <ele>1243.032</ele>
        <time>2017-06-05T11:04:57Z</time>
      </trkpt>
      <trkpt lat="46.632683" lon="22.709758">
        <ele>1242.572</ele>
        <time>2017-06-05T11:05:12Z</time>
      </trkpt>
      <trkpt lat="46.632715" lon="22.709884">
        <ele>1241.962</ele>
        <time>2017-06-05T11:05:21Z</time>
      </trkpt>
      <trkpt lat="46.632685" lon="22.710011">
        <ele>1241.383</ele>
        <time>2017-06-05T11:05:30Z</time>
      </trkpt>
      <trkpt lat="46.632769" lon="22.710099">
        <ele>1239.711</ele>
        <time>2017-06-05T11:05:44Z</time>
      </trkpt>
      <trkpt lat="46.632855" lon="22.710138">
        <ele>1238.708</ele>
        <time>2017-06-05T11:06:38Z</time>
      </trkpt>
      <trkpt lat="46.632902" lon="22.710255">
        <ele>1236.937</ele>
        <time>2017-06-05T11:08:17Z</time>
      </trkpt>
      <trkpt lat="46.632923" lon="22.710385">
        <ele>1235.984</ele>
        <time>2017-06-05T11:08:30Z</time>
      </trkpt>
      <trkpt lat="46.632927" lon="22.710520">
        <ele>1235.187</ele>
        <time>2017-06-05T11:08:53Z</time>
      </trkpt>
      <trkpt lat="46.633017" lon="22.710480">
        <ele>1234.866</ele>
        <time>2017-06-05T11:09:34Z</time>
      </trkpt>
      <trkpt lat="46.632973" lon="22.710603">
        <ele>1234.549</ele>
        <time>2017-06-05T11:10:23Z</time>
      </trkpt>
      <trkpt lat="46.632990" lon="22.710736">
        <ele>1234.193</ele>
        <time>2017-06-05T11:10:45Z</time>
      </trkpt>
      <trkpt lat="46.633055" lon="22.710830">
        <ele>1233.069</ele>
        <time>2017-06-05T11:11:14Z</time>
      </trkpt>
      <trkpt lat="46.633149" lon="22.710841">
        <ele>1234.749</ele>
        <time>2017-06-05T11:11:33Z</time>
      </trkpt>
      <trkpt lat="46.633236" lon="22.710889">
        <ele>1236.295</ele>
        <time>2017-06-05T11:12:02Z</time>
      </trkpt>
      <trkpt lat="46.633165" lon="22.711005">
        <ele>1235.149</ele>
        <time>2017-06-05T11:12:41Z</time>
      </trkpt>
      <trkpt lat="46.633115" lon="22.711118">
        <ele>1234.623</ele>
        <time>2017-06-05T11:13:40Z</time>
      </trkpt>
      <trkpt lat="46.633102" lon="22.711248">
        <ele>1234.508</ele>
        <time>2017-06-05T11:13:50Z</time>
      </trkpt>
      <trkpt lat="46.633043" lon="22.711142">
        <ele>1234.250</ele>
        <time>2017-06-05T11:14:18Z</time>
      </trkpt>
      <trkpt lat="46.633024" lon="22.711298">
        <ele>1234.587</ele>
        <time>2017-06-05T11:15:21Z</time>
      </trkpt>
      <trkpt lat="46.633027" lon="22.711435">
        <ele>1234.570</ele>
        <time>2017-06-05T11:16:26Z</time>
      </trkpt>
      <trkpt lat="46.633027" lon="22.711581">
        <ele>1234.529</ele>
        <time>2017-06-05T11:17:04Z</time>
      </trkpt>
      <trkpt lat="46.633001" lon="22.711757">
        <ele>1235.372</ele>
        <time>2017-06-05T11:18:26Z</time>
      </trkpt>
      <trkpt lat="46.632937" lon="22.711871">
        <ele>1236.946</ele>
        <time>2017-06-05T11:18:31Z</time>
      </trkpt>
      <trkpt lat="46.632835" lon="22.711926">
        <ele>1238.952</ele>
        <time>2017-06-05T11:18:35Z</time>
      </trkpt>
      <trkpt lat="46.632969" lon="22.711981">
        <ele>1237.052</ele>
        <time>2017-06-05T11:18:40Z</time>
      </trkpt>
      <trkpt lat="46.633100" lon="22.712016">
        <ele>1236.239</ele>
        <time>2017-06-05T11:18:43Z</time>
      </trkpt>
      <trkpt lat="46.633022" lon="22.712098">
        <ele>1237.301</ele>
        <time>2017-06-05T11:18:50Z</time>
      </trkpt>
      <trkpt lat="46.633008" lon="22.712238">
        <ele>1239.321</ele>
        <time>2017-06-05T11:19:35Z</time>
      </trkpt>
      <trkpt lat="46.632976" lon="22.712360">
        <ele>1242.608</ele>
        <time>2017-06-05T11:19:53Z</time>
      </trkpt>
      <trkpt lat="46.632933" lon="22.712482">
        <ele>1246.684</ele>
        <time>2017-06-05T11:20:04Z</time>
      </trkpt>
      <trkpt lat="46.632846" lon="22.712555">
        <ele>1251.451</ele>
        <time>2017-06-05T11:20:21Z</time>
      </trkpt>
      <trkpt lat="46.632819" lon="22.712683">
        <ele>1256.384</ele>
        <time>2017-06-05T11:21:52Z</time>
      </trkpt>
      <trkpt lat="46.632792" lon="22.712815">
        <ele>1261.273</ele>
        <time>2017-06-05T11:23:13Z</time>
      </trkpt>
      <trkpt lat="46.632811" lon="22.712944">
        <ele>1262.926</ele>
        <time>2017-06-05T11:23:32Z</time>
      </trkpt>
      <trkpt lat="46.632919" lon="22.712933">
        <ele>1257.140</ele>
        <time>2017-06-05T11:23:38Z</time>
      </trkpt>
      <trkpt lat="46.632815" lon="22.712933">
        <ele>1262.446</ele>
        <time>2017-06-05T11:24:52Z</time>
      </trkpt>
      <trkpt lat="46.632813" lon="22.712800">
        <ele>1259.976</ele>
        <time>2017-06-05T11:25:09Z</time>
      </trkpt>
      <trkpt lat="46.632825" lon="22.712659">
        <ele>1255.341</ele>
        <time>2017-06-05T11:25:28Z</time>
      </trkpt>
      <trkpt lat="46.632915" lon="22.712600">
        <ele>1250.381</ele>
        <time>2017-06-05T11:25:41Z</time>
      </trkpt>
      <trkpt lat="46.632974" lon="22.712502">
        <ele>1245.709</ele>
        <time>2017-06-05T11:26:12Z</time>
      </trkpt>
      <trkpt lat="46.633024" lon="22.712376">
        <ele>1241.608</ele>
        <time>2017-06-05T11:27:31Z</time>
      </trkpt>
      <trkpt lat="46.633122" lon="22.712318">
        <ele>1240.055</ele>
        <time>2017-06-05T11:28:20Z</time>
      </trkpt>
      <trkpt lat="46.633118" lon="22.712188">
        <ele>1238.192</ele>
        <time>2017-06-05T11:28:38Z</time>
      </trkpt>
      <trkpt lat="46.633051" lon="22.712040">
        <ele>1236.155</ele>
        <time>2017-06-05T11:29:07Z</time>
      </trkpt>
      <trkpt lat="46.633029" lon="22.711905">
        <ele>1235.394</ele>
        <time>2017-06-05T11:29:25Z</time>
      </trkpt>
      <trkpt lat="46.632937" lon="22.711892">
        <ele>1236.987</ele>
        <time>2017-06-05T11:29:36Z</time>
      </trkpt>
      <trkpt lat="46.632829" lon="22.711812">
        <ele>1238.621</ele>
        <time>2017-06-05T11:30:02Z</time>
      </trkpt>
      <trkpt lat="46.632923" lon="22.711784">
        <ele>1236.837</ele>
        <time>2017-06-05T11:30:11Z</time>
      </trkpt>
      <trkpt lat="46.633010" lon="22.711691">
        <ele>1234.977</ele>
        <time>2017-06-05T11:30:50Z</time>
      </trkpt>
      <trkpt lat="46.633112" lon="22.711710">
        <ele>1234.819</ele>
        <time>2017-06-05T11:30:52Z</time>
      </trkpt>
      <trkpt lat="46.633192" lon="22.711630">
        <ele>1235.509</ele>
        <time>2017-06-05T11:31:15Z</time>
      </trkpt>
      <trkpt lat="46.633200" lon="22.711500">
        <ele>1235.619</ele>
        <time>2017-06-05T11:31:26Z</time>
      </trkpt>
      <trkpt lat="46.633215" lon="22.711365">
        <ele>1235.708</ele>
        <time>2017-06-05T11:31:44Z</time>
      </trkpt>
      <trkpt lat="46.633256" lon="22.711247">
        <ele>1236.232</ele>
        <time>2017-06-05T11:32:01Z</time>
      </trkpt>
      <trkpt lat="46.633253" lon="22.711112">
        <ele>1236.139</ele>
        <time>2017-06-05T11:32:16Z</time>
      </trkpt>
      <trkpt lat="46.633224" lon="22.710985">
        <ele>1235.962</ele>
        <time>2017-06-05T11:32:51Z</time>
      </trkpt>
      <trkpt lat="46.633201" lon="22.710854">
        <ele>1235.671</ele>
        <time>2017-06-05T11:33:05Z</time>
      </trkpt>
      <trkpt lat="46.633194" lon="22.710724">
        <ele>1235.994</ele>
        <time>2017-06-05T11:34:03Z</time>
      </trkpt>
      <trkpt lat="46.633141" lon="22.710611">
        <ele>1235.398</ele>
        <time>2017-06-05T11:34:32Z</time>
      </trkpt>
      <trkpt lat="46.633111" lon="22.710483">
        <ele>1235.584</ele>
        <time>2017-06-05T11:34:47Z</time>
      </trkpt>
      <trkpt lat="46.633073" lon="22.710359">
        <ele>1235.764</ele>
        <time>2017-06-05T11:35:03Z</time>
      </trkpt>
      <trkpt lat="46.633001" lon="22.710281">
        <ele>1236.283</ele>
        <time>2017-06-05T11:35:19Z</time>
      </trkpt>
      <trkpt lat="46.632979" lon="22.710152">
        <ele>1238.125</ele>
        <time>2017-06-05T11:35:42Z</time>
      </trkpt>
      <trkpt lat="46.632904" lon="22.710050">
        <ele>1239.817</ele>
        <time>2017-06-05T11:35:58Z</time>
      </trkpt>
      <trkpt lat="46.632866" lon="22.709927">
        <ele>1241.408</ele>
        <time>2017-06-05T11:36:08Z</time>
      </trkpt>
      <trkpt lat="46.632827" lon="22.709808">
        <ele>1242.519</ele>
        <time>2017-06-05T11:36:25Z</time>
      </trkpt>
      <trkpt lat="46.632832" lon="22.709663">
        <ele>1243.636</ele>
        <time>2017-06-05T11:36:37Z</time>
      </trkpt>
      <trkpt lat="46.632778" lon="22.709546">
        <ele>1243.639</ele>
        <time>2017-06-05T11:36:53Z</time>
      </trkpt>
      <trkpt lat="46.632694" lon="22.709469">
        <ele>1243.348</ele>
        <time>2017-06-05T11:37:03Z</time>
      </trkpt>
      <trkpt lat="46.632645" lon="22.709350">
        <ele>1244.691</ele>
        <time>2017-06-05T11:37:11Z</time>
      </trkpt>
      <trkpt lat="46.632551" lon="22.709340">
        <ele>1243.915</ele>
        <time>2017-06-05T11:37:18Z</time>
      </trkpt>
      <trkpt lat="46.632489" lon="22.709439">
        <ele>1242.451</ele>
        <time>2017-06-05T11:38:10Z</time>
      </trkpt>
      <trkpt lat="46.632398" lon="22.709435">
        <ele>1244.791</ele>
        <time>2017-06-05T11:38:36Z</time>
      </trkpt>
      <trkpt lat="46.632467" lon="22.709350">
        <ele>1244.131</ele>
        <time>2017-06-05T11:41:12Z</time>
      </trkpt>
      <trkpt lat="46.632374" lon="22.709341">
        <ele>1246.361</ele>
        <time>2017-06-05T11:41:48Z</time>
      </trkpt>
      <trkpt lat="46.632439" lon="22.709234">
        <ele>1246.207</ele>
        <time>2017-06-05T11:45:56Z</time>
      </trkpt>
      <trkpt lat="46.632418" lon="22.709104">
        <ele>1247.908</ele>
        <time>2017-06-05T11:46:12Z</time>
      </trkpt>
      <trkpt lat="46.632327" lon="22.709071">
        <ele>1249.844</ele>
        <time>2017-06-05T11:46:55Z</time>
      </trkpt>
      <trkpt lat="46.632240" lon="22.709032">
        <ele>1251.711</ele>
        <time>2017-06-05T11:48:34Z</time>
      </trkpt>
      <trkpt lat="46.632254" lon="22.708901">
        <ele>1252.314</ele>
        <time>2017-06-05T11:49:23Z</time>
      </trkpt>
      <trkpt lat="46.632193" lon="22.708800">
        <ele>1255.693</ele>
        <time>2017-06-05T11:50:23Z</time>
      </trkpt>
      <trkpt lat="46.632144" lon="22.708685">
        <ele>1259.636</ele>
        <time>2017-06-05T11:51:17Z</time>
      </trkpt>
      <trkpt lat="46.632061" lon="22.708584">
        <ele>1265.420</ele>
        <time>2017-06-05T11:51:38Z</time>
      </trkpt>
      <trkpt lat="46.631981" lon="22.708503">
        <ele>1270.066</ele>
        <time>2017-06-05T11:51:46Z</time>
      </trkpt>
      <trkpt lat="46.631930" lon="22.708395">
        <ele>1272.526</ele>
        <time>2017-06-05T11:52:20Z</time>
      </trkpt>
      <trkpt lat="46.631906" lon="22.708269">
        <ele>1273.653</ele>
        <time>2017-06-05T11:53:09Z</time>
      </trkpt>
      <trkpt lat="46.631824" lon="22.708332">
        <ele>1276.304</ele>
        <time>2017-06-05T11:53:29Z</time>
      </trkpt>
      <trkpt lat="46.631734" lon="22.708276">
        <ele>1279.914</ele>
        <time>2017-06-05T11:54:33Z</time>
      </trkpt>
      <trkpt lat="46.631644" lon="22.708275">
        <ele>1283.008</ele>
        <time>2017-06-05T11:54:56Z</time>
      </trkpt>
      <trkpt lat="46.631553" lon="22.708273">
        <ele>1285.386</ele>
        <time>2017-06-05T11:55:13Z</time>
      </trkpt>
      <trkpt lat="46.631463" lon="22.708311">
        <ele>1287.313</ele>
        <time>2017-06-05T11:59:49Z</time>
      </trkpt>
      <trkpt lat="46.631379" lon="22.708372">
        <ele>1288.946</ele>
        <time>2017-06-05T12:00:25Z</time>
      </trkpt>
      <trkpt lat="46.631287" lon="22.708408">
        <ele>1290.935</ele>
        <time>2017-06-05T12:00:42Z</time>
      </trkpt>
      <trkpt lat="46.631221" lon="22.708499">
        <ele>1292.258</ele>
        <time>2017-06-05T12:01:02Z</time>
      </trkpt>
      <trkpt lat="46.631160" lon="22.708391">
        <ele>1293.912</ele>
        <time>2017-06-05T12:02:16Z</time>
      </trkpt>
      <trkpt lat="46.631111" lon="22.708259">
        <ele>1295.378</ele>
        <time>2017-06-05T12:02:22Z</time>
      </trkpt>
      <trkpt lat="46.631041" lon="22.708172">
        <ele>1296.378</ele>
        <time>2017-06-05T12:02:40Z</time>
      </trkpt>
      <trkpt lat="46.631003" lon="22.708040">
        <ele>1296.825</ele>
        <time>2017-06-05T12:02:52Z</time>
      </trkpt>
      <trkpt lat="46.630922" lon="22.707951">
        <ele>1297.726</ele>
        <time>2017-06-05T12:03:04Z</time>
      </trkpt>
      <trkpt lat="46.630842" lon="22.707873">
        <ele>1298.608</ele>
        <time>2017-06-05T12:03:26Z</time>
      </trkpt>
      <trkpt lat="46.630746" lon="22.707859">
        <ele>1298.108</ele>
        <time>2017-06-05T12:03:35Z</time>
      </trkpt>
      <trkpt lat="46.630675" lon="22.707752">
        <ele>1298.093</ele>
        <time>2017-06-05T12:03:48Z</time>
      </trkpt>
      <trkpt lat="46.630589" lon="22.707679">
        <ele>1298.080</ele>
        <time>2017-06-05T12:04:15Z</time>
      </trkpt>
      <trkpt lat="46.630510" lon="22.707611">
        <ele>1298.163</ele>
        <time>2017-06-05T12:04:25Z</time>
      </trkpt>
      <trkpt lat="46.630419" lon="22.707564">
        <ele>1298.372</ele>
        <time>2017-06-05T12:04:39Z</time>
      </trkpt>
      <trkpt lat="46.630328" lon="22.707521">
        <ele>1298.795</ele>
        <time>2017-06-05T12:04:54Z</time>
      </trkpt>
      <trkpt lat="46.630225" lon="22.707493">
        <ele>1298.839</ele>
        <time>2017-06-05T12:05:21Z</time>
      </trkpt>
      <trkpt lat="46.630133" lon="22.707469">
        <ele>1298.635</ele>
        <time>2017-06-05T12:05:37Z</time>
      </trkpt>
      <trkpt lat="46.630057" lon="22.707548">
        <ele>1297.435</ele>
        <time>2017-06-05T12:05:56Z</time>
      </trkpt>
      <trkpt lat="46.630044" lon="22.707678">
        <ele>1295.131</ele>
        <time>2017-06-05T12:06:23Z</time>
      </trkpt>
      <trkpt lat="46.630004" lon="22.707809">
        <ele>1292.661</ele>
        <time>2017-06-05T12:06:43Z</time>
      </trkpt>
      <trkpt lat="46.629979" lon="22.707935">
        <ele>1290.907</ele>
        <time>2017-06-05T12:07:26Z</time>
      </trkpt>
      <trkpt lat="46.629890" lon="22.707999">
        <ele>1290.508</ele>
        <time>2017-06-05T12:08:11Z</time>
      </trkpt>
      <trkpt lat="46.629796" lon="22.708024">
        <ele>1290.814</ele>
        <time>2017-06-05T12:08:22Z</time>
      </trkpt>
      <trkpt lat="46.629781" lon="22.708161">
        <ele>1290.971</ele>
        <time>2017-06-05T12:08:41Z</time>
      </trkpt>
      <trkpt lat="46.629816" lon="22.708283">
        <ele>1290.934</ele>
        <time>2017-06-05T12:08:46Z</time>
      </trkpt>
      <trkpt lat="46.629738" lon="22.708213">
        <ele>1291.453</ele>
        <time>2017-06-05T12:10:35Z</time>
      </trkpt>
      <trkpt lat="46.629645" lon="22.708173">
        <ele>1292.976</ele>
        <time>2017-06-05T12:10:52Z</time>
      </trkpt>
      <trkpt lat="46.629567" lon="22.708096">
        <ele>1293.660</ele>
        <time>2017-06-05T12:11:03Z</time>
      </trkpt>
      <trkpt lat="46.629611" lon="22.707965">
        <ele>1293.286</ele>
        <time>2017-06-05T12:11:28Z</time>
      </trkpt>
      <trkpt lat="46.629551" lon="22.707854">
        <ele>1294.366</ele>
        <time>2017-06-05T12:11:47Z</time>
      </trkpt>
      <trkpt lat="46.629479" lon="22.707772">
        <ele>1294.958</ele>
        <time>2017-06-05T12:12:00Z</time>
      </trkpt>
      <trkpt lat="46.629383" lon="22.707738">
        <ele>1295.752</ele>
        <time>2017-06-05T12:12:07Z</time>
      </trkpt>
      <trkpt lat="46.629302" lon="22.707669">
        <ele>1296.517</ele>
        <time>2017-06-05T12:12:16Z</time>
      </trkpt>
      <trkpt lat="46.629215" lon="22.707615">
        <ele>1297.108</ele>
        <time>2017-06-05T12:12:31Z</time>
      </trkpt>
      <trkpt lat="46.629120" lon="22.707626">
        <ele>1297.976</ele>
        <time>2017-06-05T12:12:41Z</time>
      </trkpt>
      <trkpt lat="46.629024" lon="22.707598">
        <ele>1298.773</ele>
        <time>2017-06-05T12:12:53Z</time>
      </trkpt>
      <trkpt lat="46.628937" lon="22.707559">
        <ele>1299.286</ele>
        <time>2017-06-05T12:12:58Z</time>
      </trkpt>
      <trkpt lat="46.628845" lon="22.707540">
        <ele>1299.945</ele>
        <time>2017-06-05T12:13:11Z</time>
      </trkpt>
      <trkpt lat="46.628740" lon="22.707563">
        <ele>1301.338</ele>
        <time>2017-06-05T12:13:32Z</time>
      </trkpt>
      <trkpt lat="46.628658" lon="22.707642">
        <ele>1303.082</ele>
        <time>2017-06-05T12:13:38Z</time>
      </trkpt>
      <trkpt lat="46.628582" lon="22.707725">
        <ele>1304.698</ele>
        <time>2017-06-05T12:13:57Z</time>
      </trkpt>
      <trkpt lat="46.628535" lon="22.707839">
        <ele>1306.078</ele>
        <time>2017-06-05T12:14:20Z</time>
      </trkpt>
      <trkpt lat="46.628437" lon="22.707890">
        <ele>1307.128</ele>
        <time>2017-06-05T12:14:40Z</time>
      </trkpt>
      <trkpt lat="46.628346" lon="22.707878">
        <ele>1307.489</ele>
        <time>2017-06-05T12:15:02Z</time>
      </trkpt>
      <trkpt lat="46.628260" lon="22.707926">
        <ele>1308.617</ele>
        <time>2017-06-05T12:15:08Z</time>
      </trkpt>
      <trkpt lat="46.628183" lon="22.707995">
        <ele>1309.908</ele>
        <time>2017-06-05T12:15:24Z</time>
      </trkpt>
      <trkpt lat="46.628090" lon="22.707992">
        <ele>1310.483</ele>
        <time>2017-06-05T12:16:06Z</time>
      </trkpt>
      <trkpt lat="46.627998" lon="22.707952">
        <ele>1310.790</ele>
        <time>2017-06-05T12:16:32Z</time>
      </trkpt>
      <trkpt lat="46.627907" lon="22.707998">
        <ele>1311.893</ele>
        <time>2017-06-05T12:16:45Z</time>
      </trkpt>
      <trkpt lat="46.627835" lon="22.707905">
        <ele>1311.962</ele>
        <time>2017-06-05T12:16:59Z</time>
      </trkpt>
      <trkpt lat="46.627779" lon="22.707787">
        <ele>1312.065</ele>
        <time>2017-06-05T12:17:22Z</time>
      </trkpt>
      <trkpt lat="46.627690" lon="22.707769">
        <ele>1312.969</ele>
        <time>2017-06-05T12:17:28Z</time>
      </trkpt>
      <trkpt lat="46.627603" lon="22.707715">
        <ele>1313.465</ele>
        <time>2017-06-05T12:17:40Z</time>
      </trkpt>
      <trkpt lat="46.627523" lon="22.707626">
        <ele>1313.785</ele>
        <time>2017-06-05T12:17:49Z</time>
      </trkpt>
      <trkpt lat="46.627466" lon="22.707521">
        <ele>1313.591</ele>
        <time>2017-06-05T12:18:01Z</time>
      </trkpt>
      <trkpt lat="46.627380" lon="22.707448">
        <ele>1314.081</ele>
        <time>2017-06-05T12:18:11Z</time>
      </trkpt>
      <trkpt lat="46.627306" lon="22.707373">
        <ele>1314.519</ele>
        <time>2017-06-05T12:18:28Z</time>
      </trkpt>
      <trkpt lat="46.627237" lon="22.707265">
        <ele>1314.908</ele>
        <time>2017-06-05T12:18:39Z</time>
      </trkpt>
      <trkpt lat="46.627134" lon="22.707257">
        <ele>1316.440</ele>
        <time>2017-06-05T12:18:49Z</time>
      </trkpt>
      <trkpt lat="46.627032" lon="22.707244">
        <ele>1317.857</ele>
        <time>2017-06-05T12:18:54Z</time>
      </trkpt>
      <trkpt lat="46.626942" lon="22.707235">
        <ele>1319.120</ele>
        <time>2017-06-05T12:19:04Z</time>
      </trkpt>
      <trkpt lat="46.626869" lon="22.707157">
        <ele>1319.839</ele>
        <time>2017-06-05T12:19:26Z</time>
      </trkpt>
      <trkpt lat="46.626778" lon="22.707131">
        <ele>1321.182</ele>
        <time>2017-06-05T12:19:32Z</time>
      </trkpt>
      <trkpt lat="46.626685" lon="22.707105">
        <ele>1322.656</ele>
        <time>2017-06-05T12:19:45Z</time>
      </trkpt>
      <trkpt lat="46.626592" lon="22.707024">
        <ele>1323.892</ele>
        <time>2017-06-05T12:19:57Z</time>
      </trkpt>
      <trkpt lat="46.626512" lon="22.706948">
        <ele>1324.592</ele>
        <time>2017-06-05T12:20:07Z</time>
      </trkpt>
      <trkpt lat="46.626419" lon="22.706911">
        <ele>1325.392</ele>
        <time>2017-06-05T12:20:15Z</time>
      </trkpt>
      <trkpt lat="46.626321" lon="22.706887">
        <ele>1326.773</ele>
        <time>2017-06-05T12:20:24Z</time>
      </trkpt>
      <trkpt lat="46.626226" lon="22.706842">
        <ele>1328.420</ele>
        <time>2017-06-05T12:20:30Z</time>
      </trkpt>
      <trkpt lat="46.626141" lon="22.706776">
        <ele>1329.908</ele>
        <time>2017-06-05T12:20:40Z</time>
      </trkpt>
      <trkpt lat="46.626054" lon="22.706714">
        <ele>1330.880</ele>
        <time>2017-06-05T12:20:51Z</time>
      </trkpt>
      <trkpt lat="46.625961" lon="22.706724">
        <ele>1330.957</ele>
        <time>2017-06-05T12:21:01Z</time>
      </trkpt>
      <trkpt lat="46.625870" lon="22.706677">
        <ele>1331.060</ele>
        <time>2017-06-05T12:21:11Z</time>
      </trkpt>
      <trkpt lat="46.625783" lon="22.706616">
        <ele>1330.279</ele>
        <time>2017-06-05T12:21:21Z</time>
      </trkpt>
      <trkpt lat="46.625709" lon="22.706539">
        <ele>1329.012</ele>
        <time>2017-06-05T12:21:28Z</time>
      </trkpt>
      <trkpt lat="46.625624" lon="22.706491">
        <ele>1327.696</ele>
        <time>2017-06-05T12:21:36Z</time>
      </trkpt>
      <trkpt lat="46.625526" lon="22.706454">
        <ele>1325.972</ele>
        <time>2017-06-05T12:21:45Z</time>
      </trkpt>
      <trkpt lat="46.625437" lon="22.706430">
        <ele>1324.252</ele>
        <time>2017-06-05T12:21:54Z</time>
      </trkpt>
      <trkpt lat="46.625352" lon="22.706365">
        <ele>1322.414</ele>
        <time>2017-06-05T12:22:01Z</time>
      </trkpt>
      <trkpt lat="46.625263" lon="22.706293">
        <ele>1320.754</ele>
        <time>2017-06-05T12:22:09Z</time>
      </trkpt>
      <trkpt lat="46.625174" lon="22.706250">
        <ele>1318.909</ele>
        <time>2017-06-05T12:22:16Z</time>
      </trkpt>
      <trkpt lat="46.625088" lon="22.706211">
        <ele>1317.108</ele>
        <time>2017-06-05T12:22:27Z</time>
      </trkpt>
      <trkpt lat="46.624997" lon="22.706214">
        <ele>1315.322</ele>
        <time>2017-06-05T12:22:35Z</time>
      </trkpt>
      <trkpt lat="46.624905" lon="22.706221">
        <ele>1314.639</ele>
        <time>2017-06-05T12:22:43Z</time>
      </trkpt>
      <trkpt lat="46.624807" lon="22.706219">
        <ele>1313.852</ele>
        <time>2017-06-05T12:22:51Z</time>
      </trkpt>
      <trkpt lat="46.624711" lon="22.706179">
        <ele>1312.891</ele>
        <time>2017-06-05T12:22:59Z</time>
      </trkpt>
      <trkpt lat="46.624641" lon="22.706093">
        <ele>1312.664</ele>
        <time>2017-06-05T12:23:08Z</time>
      </trkpt>
      <trkpt lat="46.624570" lon="22.705989">
        <ele>1312.948</ele>
        <time>2017-06-05T12:23:17Z</time>
      </trkpt>
      <trkpt lat="46.624472" lon="22.705920">
        <ele>1313.274</ele>
        <time>2017-06-05T12:23:26Z</time>
      </trkpt>
      <trkpt lat="46.624379" lon="22.705896">
        <ele>1313.574</ele>
        <time>2017-06-05T12:23:35Z</time>
      </trkpt>
      <trkpt lat="46.624278" lon="22.705892">
        <ele>1313.987</ele>
        <time>2017-06-05T12:23:44Z</time>
      </trkpt>
      <trkpt lat="46.624177" lon="22.705892">
        <ele>1314.442</ele>
        <time>2017-06-05T12:23:52Z</time>
      </trkpt>
      <trkpt lat="46.624077" lon="22.705912">
        <ele>1314.626</ele>
        <time>2017-06-05T12:24:00Z</time>
      </trkpt>
      <trkpt lat="46.623982" lon="22.705944">
        <ele>1314.808</ele>
        <time>2017-06-05T12:24:08Z</time>
      </trkpt>
      <trkpt lat="46.623887" lon="22.705971">
        <ele>1315.059</ele>
        <time>2017-06-05T12:24:16Z</time>
      </trkpt>
      <trkpt lat="46.623794" lon="22.706003">
        <ele>1315.216</ele>
        <time>2017-06-05T12:24:24Z</time>
      </trkpt>
      <trkpt lat="46.623694" lon="22.706010">
        <ele>1315.349</ele>
        <time>2017-06-05T12:24:33Z</time>
      </trkpt>
      <trkpt lat="46.623602" lon="22.706012">
        <ele>1315.338</ele>
        <time>2017-06-05T12:24:41Z</time>
      </trkpt>
      <trkpt lat="46.623505" lon="22.705999">
        <ele>1315.011</ele>
        <time>2017-06-05T12:24:50Z</time>
      </trkpt>
      <trkpt lat="46.623408" lon="22.706008">
        <ele>1315.085</ele>
        <time>2017-06-05T12:24:57Z</time>
      </trkpt>
      <trkpt lat="46.623312" lon="22.706025">
        <ele>1314.911</ele>
        <time>2017-06-05T12:25:02Z</time>
      </trkpt>
      <trkpt lat="46.623221" lon="22.706051">
        <ele>1314.671</ele>
        <time>2017-06-05T12:25:10Z</time>
      </trkpt>
      <trkpt lat="46.623119" lon="22.706068">
        <ele>1314.129</ele>
        <time>2017-06-05T12:25:27Z</time>
      </trkpt>
      <trkpt lat="46.623029" lon="22.706093">
        <ele>1313.900</ele>
        <time>2017-06-05T12:25:34Z</time>
      </trkpt>
      <trkpt lat="46.622934" lon="22.706100">
        <ele>1313.920</ele>
        <time>2017-06-05T12:25:42Z</time>
      </trkpt>
      <trkpt lat="46.622838" lon="22.706101">
        <ele>1313.908</ele>
        <time>2017-06-05T12:25:49Z</time>
      </trkpt>
      <trkpt lat="46.622733" lon="22.706106">
        <ele>1314.193</ele>
        <time>2017-06-05T12:25:57Z</time>
      </trkpt>
      <trkpt lat="46.622640" lon="22.706114">
        <ele>1314.510</ele>
        <time>2017-06-05T12:26:04Z</time>
      </trkpt>
      <trkpt lat="46.622539" lon="22.706129">
        <ele>1315.133</ele>
        <time>2017-06-05T12:26:11Z</time>
      </trkpt>
      <trkpt lat="46.622433" lon="22.706137">
        <ele>1315.142</ele>
        <time>2017-06-05T12:26:18Z</time>
      </trkpt>
      <trkpt lat="46.622335" lon="22.706160">
        <ele>1315.165</ele>
        <time>2017-06-05T12:26:26Z</time>
      </trkpt>
      <trkpt lat="46.622241" lon="22.706178">
        <ele>1315.259</ele>
        <time>2017-06-05T12:26:33Z</time>
      </trkpt>
      <trkpt lat="46.622147" lon="22.706214">
        <ele>1315.525</ele>
        <time>2017-06-05T12:26:40Z</time>
      </trkpt>
      <trkpt lat="46.622048" lon="22.706233">
        <ele>1315.385</ele>
        <time>2017-06-05T12:26:48Z</time>
      </trkpt>
      <trkpt lat="46.621958" lon="22.706254">
        <ele>1315.128</ele>
        <time>2017-06-05T12:26:55Z</time>
      </trkpt>
      <trkpt lat="46.621868" lon="22.706283">
        <ele>1315.389</ele>
        <time>2017-06-05T12:27:02Z</time>
      </trkpt>
      <trkpt lat="46.621772" lon="22.706322">
        <ele>1315.717</ele>
        <time>2017-06-05T12:27:09Z</time>
      </trkpt>
      <trkpt lat="46.621685" lon="22.706360">
        <ele>1316.408</ele>
        <time>2017-06-05T12:27:17Z</time>
      </trkpt>
      <trkpt lat="46.621584" lon="22.706370">
        <ele>1316.693</ele>
        <time>2017-06-05T12:27:25Z</time>
      </trkpt>
      <trkpt lat="46.621489" lon="22.706413">
        <ele>1317.590</ele>
        <time>2017-06-05T12:27:32Z</time>
      </trkpt>
      <trkpt lat="46.621399" lon="22.706432">
        <ele>1317.953</ele>
        <time>2017-06-05T12:27:39Z</time>
      </trkpt>
      <trkpt lat="46.621310" lon="22.706480">
        <ele>1319.672</ele>
        <time>2017-06-05T12:27:46Z</time>
      </trkpt>
      <trkpt lat="46.621205" lon="22.706501">
        <ele>1321.095</ele>
        <time>2017-06-05T12:27:54Z</time>
      </trkpt>
      <trkpt lat="46.621112" lon="22.706505">
        <ele>1321.969</ele>
        <time>2017-06-05T12:28:02Z</time>
      </trkpt>
      <trkpt lat="46.621015" lon="22.706502">
        <ele>1322.695</ele>
        <time>2017-06-05T12:28:09Z</time>
      </trkpt>
      <trkpt lat="46.620919" lon="22.706459">
        <ele>1322.535</ele>
        <time>2017-06-05T12:28:17Z</time>
      </trkpt>
      <trkpt lat="46.620824" lon="22.706439">
        <ele>1323.044</ele>
        <time>2017-06-05T12:28:24Z</time>
      </trkpt>
      <trkpt lat="46.620734" lon="22.706425">
        <ele>1323.305</ele>
        <time>2017-06-05T12:28:32Z</time>
      </trkpt>
      <trkpt lat="46.620635" lon="22.706409">
        <ele>1323.715</ele>
        <time>2017-06-05T12:28:41Z</time>
      </trkpt>
      <trkpt lat="46.620541" lon="22.706408">
        <ele>1324.208</ele>
        <time>2017-06-05T12:28:47Z</time>
      </trkpt>
      <trkpt lat="46.620448" lon="22.706412">
        <ele>1324.225</ele>
        <time>2017-06-05T12:28:54Z</time>
      </trkpt>
      <trkpt lat="46.620347" lon="22.706412">
        <ele>1324.182</ele>
        <time>2017-06-05T12:29:01Z</time>
      </trkpt>
      <trkpt lat="46.620254" lon="22.706402">
        <ele>1324.245</ele>
        <time>2017-06-05T12:29:08Z</time>
      </trkpt>
      <trkpt lat="46.620155" lon="22.706409">
        <ele>1324.994</ele>
        <time>2017-06-05T12:29:16Z</time>
      </trkpt>
      <trkpt lat="46.620054" lon="22.706397">
        <ele>1325.687</ele>
        <time>2017-06-05T12:29:23Z</time>
      </trkpt>
      <trkpt lat="46.619954" lon="22.706397">
        <ele>1327.061</ele>
        <time>2017-06-05T12:29:30Z</time>
      </trkpt>
      <trkpt lat="46.619857" lon="22.706383">
        <ele>1329.227</ele>
        <time>2017-06-05T12:29:38Z</time>
      </trkpt>
      <trkpt lat="46.619763" lon="22.706385">
        <ele>1331.237</ele>
        <time>2017-06-05T12:29:46Z</time>
      </trkpt>
      <trkpt lat="46.619667" lon="22.706385">
        <ele>1331.992</ele>
        <time>2017-06-05T12:29:54Z</time>
      </trkpt>
      <trkpt lat="46.619571" lon="22.706395">
        <ele>1331.473</ele>
        <time>2017-06-05T12:30:01Z</time>
      </trkpt>
      <trkpt lat="46.619471" lon="22.706384">
        <ele>1331.220</ele>
        <time>2017-06-05T12:30:08Z</time>
      </trkpt>
      <trkpt lat="46.619377" lon="22.706383">
        <ele>1330.108</ele>
        <time>2017-06-05T12:30:15Z</time>
      </trkpt>
      <trkpt lat="46.619278" lon="22.706393">
        <ele>1328.660</ele>
        <time>2017-06-05T12:30:23Z</time>
      </trkpt>
      <trkpt lat="46.619185" lon="22.706389">
        <ele>1327.327</ele>
        <time>2017-06-05T12:30:31Z</time>
      </trkpt>
      <trkpt lat="46.619079" lon="22.706410">
        <ele>1325.460</ele>
        <time>2017-06-05T12:30:40Z</time>
      </trkpt>
      <trkpt lat="46.618981" lon="22.706440">
        <ele>1324.059</ele>
        <time>2017-06-05T12:30:47Z</time>
      </trkpt>
      <trkpt lat="46.618886" lon="22.706451">
        <ele>1322.722</ele>
        <time>2017-06-05T12:30:55Z</time>
      </trkpt>
      <trkpt lat="46.618786" lon="22.706465">
        <ele>1322.876</ele>
        <time>2017-06-05T12:31:03Z</time>
      </trkpt>
      <trkpt lat="46.618691" lon="22.706482">
        <ele>1323.082</ele>
        <time>2017-06-05T12:31:08Z</time>
      </trkpt>
      <trkpt lat="46.618601" lon="22.706492">
        <ele>1323.252</ele>
        <time>2017-06-05T12:31:15Z</time>
      </trkpt>
      <trkpt lat="46.618498" lon="22.706517">
        <ele>1323.563</ele>
        <time>2017-06-05T12:31:23Z</time>
      </trkpt>
      <trkpt lat="46.618387" lon="22.706570">
        <ele>1324.644</ele>
        <time>2017-06-05T12:31:35Z</time>
      </trkpt>
      <trkpt lat="46.618305" lon="22.706514">
        <ele>1323.018</ele>
        <time>2017-06-05T12:37:18Z</time>
      </trkpt>
      <trkpt lat="46.618208" lon="22.706532">
        <ele>1322.708</ele>
        <time>2017-06-05T12:37:35Z</time>
      </trkpt>
      <trkpt lat="46.618110" lon="22.706505">
        <ele>1321.527</ele>
        <time>2017-06-05T12:37:48Z</time>
      </trkpt>
      <trkpt lat="46.618026" lon="22.706434">
        <ele>1319.584</ele>
        <time>2017-06-05T12:37:58Z</time>
      </trkpt>
      <trkpt lat="46.617931" lon="22.706421">
        <ele>1318.287</ele>
        <time>2017-06-05T12:38:11Z</time>
      </trkpt>
      <trkpt lat="46.617840" lon="22.706392">
        <ele>1316.736</ele>
        <time>2017-06-05T12:38:20Z</time>
      </trkpt>
      <trkpt lat="46.617748" lon="22.706341">
        <ele>1314.819</ele>
        <time>2017-06-05T12:38:29Z</time>
      </trkpt>
      <trkpt lat="46.617656" lon="22.706282">
        <ele>1313.283</ele>
        <time>2017-06-05T12:38:38Z</time>
      </trkpt>
      <trkpt lat="46.617571" lon="22.706239">
        <ele>1312.119</ele>
        <time>2017-06-05T12:38:46Z</time>
      </trkpt>
      <trkpt lat="46.617479" lon="22.706210">
        <ele>1311.369</ele>
        <time>2017-06-05T12:38:55Z</time>
      </trkpt>
      <trkpt lat="46.617386" lon="22.706231">
        <ele>1310.941</ele>
        <time>2017-06-05T12:39:04Z</time>
      </trkpt>
      <trkpt lat="46.617300" lon="22.706277">
        <ele>1310.981</ele>
        <time>2017-06-05T12:39:14Z</time>
      </trkpt>
      <trkpt lat="46.617196" lon="22.706275">
        <ele>1310.009</ele>
        <time>2017-06-05T12:39:22Z</time>
      </trkpt>
      <trkpt lat="46.617103" lon="22.706277">
        <ele>1308.808</ele>
        <time>2017-06-05T12:39:31Z</time>
      </trkpt>
      <trkpt lat="46.617007" lon="22.706272">
        <ele>1307.585</ele>
        <time>2017-06-05T12:39:40Z</time>
      </trkpt>
      <trkpt lat="46.616908" lon="22.706264">
        <ele>1306.582</ele>
        <time>2017-06-05T12:39:49Z</time>
      </trkpt>
      <trkpt lat="46.616807" lon="22.706261">
        <ele>1305.945</ele>
        <time>2017-06-05T12:40:00Z</time>
      </trkpt>
      <trkpt lat="46.616717" lon="22.706261">
        <ele>1305.564</ele>
        <time>2017-06-05T12:40:08Z</time>
      </trkpt>
      <trkpt lat="46.616626" lon="22.706266">
        <ele>1305.627</ele>
        <time>2017-06-05T12:40:17Z</time>
      </trkpt>
      <trkpt lat="46.616532" lon="22.706244">
        <ele>1305.861</ele>
        <time>2017-06-05T12:40:26Z</time>
      </trkpt>
      <trkpt lat="46.616449" lon="22.706190">
        <ele>1305.337</ele>
        <time>2017-06-05T12:40:37Z</time>
      </trkpt>
      <trkpt lat="46.616378" lon="22.706091">
        <ele>1303.877</ele>
        <time>2017-06-05T12:40:47Z</time>
      </trkpt>
      <trkpt lat="46.616302" lon="22.706003">
        <ele>1302.968</ele>
        <time>2017-06-05T12:40:57Z</time>
      </trkpt>
      <trkpt lat="46.616218" lon="22.705951">
        <ele>1302.642</ele>
        <time>2017-06-05T12:41:06Z</time>
      </trkpt>
      <trkpt lat="46.616132" lon="22.705903">
        <ele>1302.226</ele>
        <time>2017-06-05T12:41:13Z</time>
      </trkpt>
      <trkpt lat="46.616040" lon="22.705837">
        <ele>1301.308</ele>
        <time>2017-06-05T12:41:24Z</time>
      </trkpt>
      <trkpt lat="46.615949" lon="22.705800">
        <ele>1300.817</ele>
        <time>2017-06-05T12:41:33Z</time>
      </trkpt>
      <trkpt lat="46.615862" lon="22.705749">
        <ele>1299.874</ele>
        <time>2017-06-05T12:41:40Z</time>
      </trkpt>
      <trkpt lat="46.615763" lon="22.705719">
        <ele>1298.957</ele>
        <time>2017-06-05T12:41:46Z</time>
      </trkpt>
      <trkpt lat="46.615671" lon="22.705690">
        <ele>1298.126</ele>
        <time>2017-06-05T12:41:55Z</time>
      </trkpt>
      <trkpt lat="46.615570" lon="22.705657">
        <ele>1297.539</ele>
        <time>2017-06-05T12:42:05Z</time>
      </trkpt>
      <trkpt lat="46.615481" lon="22.705694">
        <ele>1297.793</ele>
        <time>2017-06-05T12:42:15Z</time>
      </trkpt>
      <trkpt lat="46.615392" lon="22.705719">
        <ele>1297.849</ele>
        <time>2017-06-05T12:42:24Z</time>
      </trkpt>
      <trkpt lat="46.615300" lon="22.705688">
        <ele>1297.019</ele>
        <time>2017-06-05T12:42:32Z</time>
      </trkpt>
      <trkpt lat="46.615204" lon="22.705712">
        <ele>1296.487</ele>
        <time>2017-06-05T12:42:40Z</time>
      </trkpt>
      <trkpt lat="46.615106" lon="22.705735">
        <ele>1295.542</ele>
        <time>2017-06-05T12:42:48Z</time>
      </trkpt>
      <trkpt lat="46.615018" lon="22.705769">
        <ele>1294.826</ele>
        <time>2017-06-05T12:42:56Z</time>
      </trkpt>
      <trkpt lat="46.614923" lon="22.705786">
        <ele>1293.208</ele>
        <time>2017-06-05T12:43:03Z</time>
      </trkpt>
      <trkpt lat="46.614829" lon="22.705797">
        <ele>1291.519</ele>
        <time>2017-06-05T12:43:09Z</time>
      </trkpt>
      <trkpt lat="46.614737" lon="22.705820">
        <ele>1290.156</ele>
        <time>2017-06-05T12:43:16Z</time>
      </trkpt>
      <trkpt lat="46.614644" lon="22.705859">
        <ele>1288.969</ele>
        <time>2017-06-05T12:43:25Z</time>
      </trkpt>
      <trkpt lat="46.614554" lon="22.705866">
        <ele>1287.378</ele>
        <time>2017-06-05T12:43:34Z</time>
      </trkpt>
      <trkpt lat="46.614466" lon="22.705915">
        <ele>1286.381</ele>
        <time>2017-06-05T12:43:40Z</time>
      </trkpt>
      <trkpt lat="46.614386" lon="22.705984">
        <ele>1285.325</ele>
        <time>2017-06-05T12:43:48Z</time>
      </trkpt>
      <trkpt lat="46.614300" lon="22.706051">
        <ele>1284.141</ele>
        <time>2017-06-05T12:44:11Z</time>
      </trkpt>
      <trkpt lat="46.614211" lon="22.706074">
        <ele>1282.481</ele>
        <time>2017-06-05T12:44:19Z</time>
      </trkpt>
      <trkpt lat="46.614135" lon="22.706167">
        <ele>1282.543</ele>
        <time>2017-06-05T12:44:26Z</time>
      </trkpt>
      <trkpt lat="46.614038" lon="22.706205">
        <ele>1281.464</ele>
        <time>2017-06-05T12:44:33Z</time>
      </trkpt>
      <trkpt lat="46.613941" lon="22.706219">
        <ele>1279.810</ele>
        <time>2017-06-05T12:44:42Z</time>
      </trkpt>
      <trkpt lat="46.613872" lon="22.706303">
        <ele>1280.608</ele>
        <time>2017-06-05T12:44:52Z</time>
      </trkpt>
      <trkpt lat="46.613781" lon="22.706299">
        <ele>1279.025</ele>
        <time>2017-06-05T12:44:58Z</time>
      </trkpt>
      <trkpt lat="46.613682" lon="22.706267">
        <ele>1276.982</ele>
        <time>2017-06-05T12:45:05Z</time>
      </trkpt>
      <trkpt lat="46.613580" lon="22.706258">
        <ele>1275.285</ele>
        <time>2017-06-05T12:45:14Z</time>
      </trkpt>
      <trkpt lat="46.613484" lon="22.706257">
        <ele>1274.094</ele>
        <time>2017-06-05T12:45:21Z</time>
      </trkpt>
      <trkpt lat="46.613382" lon="22.706260">
        <ele>1272.897</ele>
        <time>2017-06-05T12:45:28Z</time>
      </trkpt>
      <trkpt lat="46.613289" lon="22.706299">
        <ele>1272.121</ele>
        <time>2017-06-05T12:45:34Z</time>
      </trkpt>
      <trkpt lat="46.613209" lon="22.706363">
        <ele>1271.977</ele>
        <time>2017-06-05T12:45:41Z</time>
      </trkpt>
      <trkpt lat="46.613118" lon="22.706434">
        <ele>1271.457</ele>
        <time>2017-06-05T12:45:47Z</time>
      </trkpt>
      <trkpt lat="46.613036" lon="22.706498">
        <ele>1271.162</ele>
        <time>2017-06-05T12:45:53Z</time>
      </trkpt>
      <trkpt lat="46.612947" lon="22.706579">
        <ele>1271.783</ele>
        <time>2017-06-05T12:46:00Z</time>
      </trkpt>
      <trkpt lat="46.612862" lon="22.706645">
        <ele>1272.111</ele>
        <time>2017-06-05T12:46:07Z</time>
      </trkpt>
      <trkpt lat="46.612775" lon="22.706708">
        <ele>1272.408</ele>
        <time>2017-06-05T12:46:14Z</time>
      </trkpt>
      <trkpt lat="46.612671" lon="22.706787">
        <ele>1272.187</ele>
        <time>2017-06-05T12:46:22Z</time>
      </trkpt>
      <trkpt lat="46.612574" lon="22.706825">
        <ele>1271.524</ele>
        <time>2017-06-05T12:46:31Z</time>
      </trkpt>
    </trkseg>
  </trk></gpx>