<?xml version="1.0" encoding="UTF-8"?>
<gpx creator="Wikiloc - https://www.wikiloc.com" version="1.1" xmlns="http://www.topografix.com/GPX/1/1" xmlns:xsi="http://www.w3.org/2001/XMLSchema-instance" xsi:schemaLocation="http://www.topografix.com/GPX/1/1 http://www.topografix.com/GPX/1/1/gpx.xsd">
  <metadata>
    <name>Wikiloc - Dochia - Izvorul Muntelui</name>
    <author>
      <name>Toni Grecu</name>
      <link href="https://www.wikiloc.com/wikiloc/user.do?id=2082631">
        <text>Toni Grecu on Wikiloc</text>
      </link>
    </author>
    <link href="https://www.wikiloc.com/hiking-trails/dochia-izvorul-muntelui-17982361">
      <text>Dochia - Izvorul Muntelui on Wikiloc</text>
    </link>
    <time>2017-05-28T10:41:05Z</time>
  </metadata>
  <trk>
    <name>Dochia - Izvorul Muntelui - Wikiloc</name>
    <cmt>Dochia izvorul muntelui br</cmt>
    <desc>Dochia izvorul muntelui br</desc>
    <trkseg>
      <trkpt lat="46.965084" lon="25.948657">
        <ele>1798.036</ele>
        <time>2017-05-28T09:19:57Z</time>
      </trkpt>
      <trkpt lat="46.965004" lon="25.948599">
        <ele>1801.017</ele>
        <time>2017-05-28T09:20:34Z</time>
      </trkpt>
      <trkpt lat="46.964925" lon="25.948513">
        <ele>1802.018</ele>
        <time>2017-05-28T09:20:44Z</time>
      </trkpt>
      <trkpt lat="46.964836" lon="25.948447">
        <ele>1802.008</ele>
        <time>2017-05-28T09:20:53Z</time>
      </trkpt>
      <trkpt lat="46.964755" lon="25.948360">
        <ele>1800.064</ele>
        <time>2017-05-28T09:21:03Z</time>
      </trkpt>
      <trkpt lat="46.964668" lon="25.948302">
        <ele>1800.060</ele>
        <time>2017-05-28T09:21:11Z</time>
      </trkpt>
      <trkpt lat="46.964572" lon="25.948254">
        <ele>1800.022</ele>
        <time>2017-05-28T09:21:20Z</time>
      </trkpt>
      <trkpt lat="46.964483" lon="25.948217">
        <ele>1800.011</ele>
        <time>2017-05-28T09:21:27Z</time>
      </trkpt>
      <trkpt lat="46.964393" lon="25.948166">
        <ele>1800.035</ele>
        <time>2017-05-28T09:21:39Z</time>
      </trkpt>
      <trkpt lat="46.964270" lon="25.948170">
        <ele>1800.046</ele>
        <time>2017-05-28T09:21:54Z</time>
      </trkpt>
      <trkpt lat="46.964179" lon="25.948155">
        <ele>1799.089</ele>
        <time>2017-05-28T09:22:09Z</time>
      </trkpt>
      <trkpt lat="46.964081" lon="25.948132">
        <ele>1801.074</ele>
        <time>2017-05-28T09:22:17Z</time>
      </trkpt>
      <trkpt lat="46.963985" lon="25.948127">
        <ele>1799.052</ele>
        <time>2017-05-28T09:22:27Z</time>
      </trkpt>
      <trkpt lat="46.963895" lon="25.948145">
        <ele>1798.053</ele>
        <time>2017-05-28T09:22:36Z</time>
      </trkpt>
      <trkpt lat="46.963791" lon="25.948148">
        <ele>1800.008</ele>
        <time>2017-05-28T09:23:05Z</time>
      </trkpt>
      <trkpt lat="46.963691" lon="25.948130">
        <ele>1801.008</ele>
        <time>2017-05-28T09:23:13Z</time>
      </trkpt>
      <trkpt lat="46.963602" lon="25.948150">
        <ele>1801.076</ele>
        <time>2017-05-28T09:23:28Z</time>
      </trkpt>
      <trkpt lat="46.963506" lon="25.948145">
        <ele>1796.072</ele>
        <time>2017-05-28T09:23:38Z</time>
      </trkpt>
      <trkpt lat="46.963401" lon="25.948140">
        <ele>1795.084</ele>
        <time>2017-05-28T09:23:46Z</time>
      </trkpt>
      <trkpt lat="46.963311" lon="25.948148">
        <ele>1796.073</ele>
        <time>2017-05-28T09:23:52Z</time>
      </trkpt>
      <trkpt lat="46.963211" lon="25.948181">
        <ele>1794.027</ele>
        <time>2017-05-28T09:23:59Z</time>
      </trkpt>
      <trkpt lat="46.963104" lon="25.948215">
        <ele>1796.068</ele>
        <time>2017-05-28T09:24:09Z</time>
      </trkpt>
      <trkpt lat="46.963012" lon="25.948222">
        <ele>1795.031</ele>
        <time>2017-05-28T09:24:41Z</time>
      </trkpt>
      <trkpt lat="46.962920" lon="25.948227">
        <ele>1795.086</ele>
        <time>2017-05-28T09:24:49Z</time>
      </trkpt>
      <trkpt lat="46.962818" lon="25.948218">
        <ele>1795.053</ele>
        <time>2017-05-28T09:24:58Z</time>
      </trkpt>
      <trkpt lat="46.962719" lon="25.948201">
        <ele>1792.004</ele>
        <time>2017-05-28T09:25:07Z</time>
      </trkpt>
      <trkpt lat="46.962626" lon="25.948206">
        <ele>1792.014</ele>
        <time>2017-05-28T09:25:18Z</time>
      </trkpt>
      <trkpt lat="46.962532" lon="25.948227">
        <ele>1796.008</ele>
        <time>2017-05-28T09:25:34Z</time>
      </trkpt>
      <trkpt lat="46.962442" lon="25.948266">
        <ele>1790.016</ele>
        <time>2017-05-28T09:26:04Z</time>
      </trkpt>
      <trkpt lat="46.962354" lon="25.948341">
        <ele>1791.032</ele>
        <time>2017-05-28T09:26:13Z</time>
      </trkpt>
      <trkpt lat="46.962267" lon="25.948384">
        <ele>1786.034</ele>
        <time>2017-05-28T09:26:40Z</time>
      </trkpt>
      <trkpt lat="46.962194" lon="25.948474">
        <ele>1786.023</ele>
        <time>2017-05-28T09:26:51Z</time>
      </trkpt>
      <trkpt lat="46.962133" lon="25.948590">
        <ele>1784.057</ele>
        <time>2017-05-28T09:27:01Z</time>
      </trkpt>
      <trkpt lat="46.962103" lon="25.948727">
        <ele>1779.028</ele>
        <time>2017-05-28T09:27:14Z</time>
      </trkpt>
      <trkpt lat="46.962025" lon="25.948798">
        <ele>1775.011</ele>
        <time>2017-05-28T09:27:22Z</time>
      </trkpt>
      <trkpt lat="46.961985" lon="25.948931">
        <ele>1773.016</ele>
        <time>2017-05-28T09:27:35Z</time>
      </trkpt>
      <trkpt lat="46.961922" lon="25.949036">
        <ele>1772.094</ele>
        <time>2017-05-28T09:27:46Z</time>
      </trkpt>
      <trkpt lat="46.961852" lon="25.949127">
        <ele>1769.057</ele>
        <time>2017-05-28T09:27:56Z</time>
      </trkpt>
      <trkpt lat="46.961779" lon="25.949216">
        <ele>1768.022</ele>
        <time>2017-05-28T09:28:06Z</time>
      </trkpt>
      <trkpt lat="46.961688" lon="25.949246">
        <ele>1767.008</ele>
        <time>2017-05-28T09:31:58Z</time>
      </trkpt>
      <trkpt lat="46.961586" lon="25.949232">
        <ele>1766.050</ele>
        <time>2017-05-28T09:32:08Z</time>
      </trkpt>
      <trkpt lat="46.961487" lon="25.949201">
        <ele>1765.086</ele>
        <time>2017-05-28T09:32:20Z</time>
      </trkpt>
      <trkpt lat="46.961386" lon="25.949193">
        <ele>1765.048</ele>
        <time>2017-05-28T09:32:30Z</time>
      </trkpt>
      <trkpt lat="46.961299" lon="25.949144">
        <ele>1762.067</ele>
        <time>2017-05-28T09:32:43Z</time>
      </trkpt>
      <trkpt lat="46.961218" lon="25.949057">
        <ele>1759.071</ele>
        <time>2017-05-28T09:32:57Z</time>
      </trkpt>
      <trkpt lat="46.961126" lon="25.949022">
        <ele>1761.042</ele>
        <time>2017-05-28T09:33:08Z</time>
      </trkpt>
      <trkpt lat="46.961052" lon="25.948945">
        <ele>1757.025</ele>
        <time>2017-05-28T09:33:17Z</time>
      </trkpt>
      <trkpt lat="46.960956" lon="25.948904">
        <ele>1753.040</ele>
        <time>2017-05-28T09:33:31Z</time>
      </trkpt>
      <trkpt lat="46.960864" lon="25.948901">
        <ele>1750.084</ele>
        <time>2017-05-28T09:33:39Z</time>
      </trkpt>
      <trkpt lat="46.960768" lon="25.948916">
        <ele>1749.007</ele>
        <time>2017-05-28T09:33:48Z</time>
      </trkpt>
      <trkpt lat="46.960677" lon="25.948913">
        <ele>1744.017</ele>
        <time>2017-05-28T09:33:57Z</time>
      </trkpt>
      <trkpt lat="46.960578" lon="25.948961">
        <ele>1744.008</ele>
        <time>2017-05-28T09:34:10Z</time>
      </trkpt>
      <trkpt lat="46.960489" lon="25.949010">
        <ele>1743.089</ele>
        <time>2017-05-28T09:34:28Z</time>
      </trkpt>
      <trkpt lat="46.960404" lon="25.949087">
        <ele>1742.045</ele>
        <time>2017-05-28T09:34:39Z</time>
      </trkpt>
      <trkpt lat="46.960343" lon="25.949202">
        <ele>1736.037</ele>
        <time>2017-05-28T09:34:52Z</time>
      </trkpt>
      <trkpt lat="46.960250" lon="25.949216">
        <ele>1739.036</ele>
        <time>2017-05-28T09:35:24Z</time>
      </trkpt>
      <trkpt lat="46.960168" lon="25.949158">
        <ele>1739.070</ele>
        <time>2017-05-28T09:36:04Z</time>
      </trkpt>
      <trkpt lat="46.960128" lon="25.949300">
        <ele>1736.041</ele>
        <time>2017-05-28T09:36:51Z</time>
      </trkpt>
      <trkpt lat="46.960028" lon="25.949313">
        <ele>1733.074</ele>
        <time>2017-05-28T09:37:18Z</time>
      </trkpt>
      <trkpt lat="46.960007" lon="25.949451">
        <ele>1734.019</ele>
        <time>2017-05-28T09:37:45Z</time>
      </trkpt>
      <trkpt lat="46.959916" lon="25.949397">
        <ele>1719.028</ele>
        <time>2017-05-28T09:38:50Z</time>
      </trkpt>
      <trkpt lat="46.959862" lon="25.949511">
        <ele>1720.089</ele>
        <time>2017-05-28T09:39:00Z</time>
      </trkpt>
      <trkpt lat="46.959821" lon="25.949631">
        <ele>1710.017</ele>
        <time>2017-05-28T09:39:42Z</time>
      </trkpt>
      <trkpt lat="46.959734" lon="25.949574">
        <ele>1702.008</ele>
        <time>2017-05-28T09:40:22Z</time>
      </trkpt>
      <trkpt lat="46.959672" lon="25.949702">
        <ele>1692.083</ele>
        <time>2017-05-28T09:42:07Z</time>
      </trkpt>
      <trkpt lat="46.959636" lon="25.949826">
        <ele>1684.089</ele>
        <time>2017-05-28T09:42:49Z</time>
      </trkpt>
      <trkpt lat="46.959587" lon="25.949937">
        <ele>1683.051</ele>
        <time>2017-05-28T09:43:10Z</time>
      </trkpt>
      <trkpt lat="46.959486" lon="25.949943">
        <ele>1674.090</ele>
        <time>2017-05-28T09:43:43Z</time>
      </trkpt>
      <trkpt lat="46.959419" lon="25.949847">
        <ele>1667.044</ele>
        <time>2017-05-28T09:43:58Z</time>
      </trkpt>
      <trkpt lat="46.959409" lon="25.949704">
        <ele>1664.095</ele>
        <time>2017-05-28T09:44:14Z</time>
      </trkpt>
      <trkpt lat="46.959374" lon="25.949581">
        <ele>1660.018</ele>
        <time>2017-05-28T09:44:24Z</time>
      </trkpt>
      <trkpt lat="46.959318" lon="25.949463">
        <ele>1659.053</ele>
        <time>2017-05-28T09:44:31Z</time>
      </trkpt>
      <trkpt lat="46.959276" lon="25.949341">
        <ele>1658.015</ele>
        <time>2017-05-28T09:44:48Z</time>
      </trkpt>
      <trkpt lat="46.959178" lon="25.949282">
        <ele>1662.065</ele>
        <time>2017-05-28T09:46:02Z</time>
      </trkpt>
      <trkpt lat="46.959089" lon="25.949256">
        <ele>1654.011</ele>
        <time>2017-05-28T09:46:14Z</time>
      </trkpt>
      <trkpt lat="46.958997" lon="25.949246">
        <ele>1651.008</ele>
        <time>2017-05-28T09:46:23Z</time>
      </trkpt>
      <trkpt lat="46.958899" lon="25.949222">
        <ele>1653.082</ele>
        <time>2017-05-28T09:46:47Z</time>
      </trkpt>
      <trkpt lat="46.958808" lon="25.949265">
        <ele>1655.018</ele>
        <time>2017-05-28T09:46:54Z</time>
      </trkpt>
      <trkpt lat="46.958717" lon="25.949248">
        <ele>1652.080</ele>
        <time>2017-05-28T09:47:31Z</time>
      </trkpt>
      <trkpt lat="46.958631" lon="25.949197">
        <ele>1634.089</ele>
        <time>2017-05-28T09:48:11Z</time>
      </trkpt>
      <trkpt lat="46.958558" lon="25.949306">
        <ele>1633.043</ele>
        <time>2017-05-28T09:48:18Z</time>
      </trkpt>
      <trkpt lat="46.958482" lon="25.949388">
        <ele>1633.014</ele>
        <time>2017-05-28T09:48:25Z</time>
      </trkpt>
      <trkpt lat="46.958383" lon="25.949405">
        <ele>1634.017</ele>
        <time>2017-05-28T09:48:39Z</time>
      </trkpt>
      <trkpt lat="46.958291" lon="25.949474">
        <ele>1637.022</ele>
        <time>2017-05-28T09:49:06Z</time>
      </trkpt>
      <trkpt lat="46.958203" lon="25.949529">
        <ele>1636.041</ele>
        <time>2017-05-28T09:49:23Z</time>
      </trkpt>
      <trkpt lat="46.958112" lon="25.949550">
        <ele>1639.081</ele>
        <time>2017-05-28T09:49:32Z</time>
      </trkpt>
      <trkpt lat="46.958031" lon="25.949615">
        <ele>1635.009</ele>
        <time>2017-05-28T09:49:42Z</time>
      </trkpt>
      <trkpt lat="46.957945" lon="25.949679">
        <ele>1632.008</ele>
        <time>2017-05-28T09:49:50Z</time>
      </trkpt>
      <trkpt lat="46.957847" lon="25.949720">
        <ele>1632.025</ele>
        <time>2017-05-28T09:49:59Z</time>
      </trkpt>
      <trkpt lat="46.957747" lon="25.949693">
        <ele>1630.091</ele>
        <time>2017-05-28T09:50:08Z</time>
      </trkpt>
      <trkpt lat="46.957651" lon="25.949703">
        <ele>1622.083</ele>
        <time>2017-05-28T09:50:19Z</time>
      </trkpt>
      <trkpt lat="46.957556" lon="25.949751">
        <ele>1623.032</ele>
        <time>2017-05-28T09:50:27Z</time>
      </trkpt>
      <trkpt lat="46.957468" lon="25.949792">
        <ele>1627.016</ele>
        <time>2017-05-28T09:50:35Z</time>
      </trkpt>
      <trkpt lat="46.957382" lon="25.949835">
        <ele>1631.027</ele>
        <time>2017-05-28T09:50:51Z</time>
      </trkpt>
      <trkpt lat="46.957293" lon="25.949860">
        <ele>1633.010</ele>
        <time>2017-05-28T09:51:33Z</time>
      </trkpt>
      <trkpt lat="46.957197" lon="25.949828">
        <ele>1642.085</ele>
        <time>2017-05-28T09:52:00Z</time>
      </trkpt>
      <trkpt lat="46.957110" lon="25.949786">
        <ele>1638.092</ele>
        <time>2017-05-28T09:52:17Z</time>
      </trkpt>
      <trkpt lat="46.957005" lon="25.949845">
        <ele>1644.073</ele>
        <time>2017-05-28T09:52:56Z</time>
      </trkpt>
      <trkpt lat="46.956925" lon="25.949933">
        <ele>1640.020</ele>
        <time>2017-05-28T09:53:05Z</time>
      </trkpt>
      <trkpt lat="46.956842" lon="25.950003">
        <ele>1647.008</ele>
        <time>2017-05-28T09:53:13Z</time>
      </trkpt>
      <trkpt lat="46.956753" lon="25.950038">
        <ele>1647.080</ele>
        <time>2017-05-28T09:53:25Z</time>
      </trkpt>
      <trkpt lat="46.956633" lon="25.950044">
        <ele>1642.026</ele>
        <time>2017-05-28T09:53:36Z</time>
      </trkpt>
      <trkpt lat="46.956551" lon="25.950104">
        <ele>1644.068</ele>
        <time>2017-05-28T09:53:42Z</time>
      </trkpt>
      <trkpt lat="46.956459" lon="25.950198">
        <ele>1645.027</ele>
        <time>2017-05-28T09:53:47Z</time>
      </trkpt>
      <trkpt lat="46.956370" lon="25.950237">
        <ele>1640.011</ele>
        <time>2017-05-28T09:53:55Z</time>
      </trkpt>
      <trkpt lat="46.956291" lon="25.950310">
        <ele>1639.072</ele>
        <time>2017-05-28T09:54:03Z</time>
      </trkpt>
      <trkpt lat="46.956212" lon="25.950376">
        <ele>1640.085</ele>
        <time>2017-05-28T09:54:16Z</time>
      </trkpt>
      <trkpt lat="46.956123" lon="25.950417">
        <ele>1635.060</ele>
        <time>2017-05-28T09:54:26Z</time>
      </trkpt>
      <trkpt lat="46.956026" lon="25.950452">
        <ele>1629.015</ele>
        <time>2017-05-28T09:54:48Z</time>
      </trkpt>
      <trkpt lat="46.955936" lon="25.950528">
        <ele>1627.065</ele>
        <time>2017-05-28T09:55:00Z</time>
      </trkpt>
      <trkpt lat="46.955862" lon="25.950612">
        <ele>1630.011</ele>
        <time>2017-05-28T09:55:06Z</time>
      </trkpt>
      <trkpt lat="46.955778" lon="25.950667">
        <ele>1630.008</ele>
        <time>2017-05-28T09:55:17Z</time>
      </trkpt>
      <trkpt lat="46.955692" lon="25.950724">
        <ele>1630.082</ele>
        <time>2017-05-28T09:55:27Z</time>
      </trkpt>
      <trkpt lat="46.955621" lon="25.950818">
        <ele>1632.068</ele>
        <time>2017-05-28T09:55:38Z</time>
      </trkpt>
      <trkpt lat="46.955547" lon="25.950893">
        <ele>1634.060</ele>
        <time>2017-05-28T09:55:46Z</time>
      </trkpt>
      <trkpt lat="46.955475" lon="25.950976">
        <ele>1637.049</ele>
        <time>2017-05-28T09:56:00Z</time>
      </trkpt>
      <trkpt lat="46.955379" lon="25.950979">
        <ele>1634.063</ele>
        <time>2017-05-28T09:56:51Z</time>
      </trkpt>
      <trkpt lat="46.955289" lon="25.950991">
        <ele>1639.064</ele>
        <time>2017-05-28T09:57:02Z</time>
      </trkpt>
      <trkpt lat="46.955199" lon="25.951012">
        <ele>1636.027</ele>
        <time>2017-05-28T09:57:17Z</time>
      </trkpt>
      <trkpt lat="46.955112" lon="25.951052">
        <ele>1638.042</ele>
        <time>2017-05-28T09:57:30Z</time>
      </trkpt>
      <trkpt lat="46.955030" lon="25.951123">
        <ele>1641.068</ele>
        <time>2017-05-28T09:57:48Z</time>
      </trkpt>
      <trkpt lat="46.954945" lon="25.951169">
        <ele>1645.042</ele>
        <time>2017-05-28T09:58:03Z</time>
      </trkpt>
      <trkpt lat="46.954861" lon="25.951220">
        <ele>1648.026</ele>
        <time>2017-05-28T09:58:18Z</time>
      </trkpt>
      <trkpt lat="46.954766" lon="25.951240">
        <ele>1648.008</ele>
        <time>2017-05-28T09:58:31Z</time>
      </trkpt>
      <trkpt lat="46.954676" lon="25.951262">
        <ele>1648.047</ele>
        <time>2017-05-28T09:58:49Z</time>
      </trkpt>
      <trkpt lat="46.954587" lon="25.951299">
        <ele>1654.063</ele>
        <time>2017-05-28T09:59:01Z</time>
      </trkpt>
      <trkpt lat="46.954498" lon="25.951321">
        <ele>1653.055</ele>
        <time>2017-05-28T09:59:19Z</time>
      </trkpt>
      <trkpt lat="46.954422" lon="25.951410">
        <ele>1654.084</ele>
        <time>2017-05-28T09:59:34Z</time>
      </trkpt>
      <trkpt lat="46.954339" lon="25.951461">
        <ele>1648.048</ele>
        <time>2017-05-28T09:59:46Z</time>
      </trkpt>
      <trkpt lat="46.954255" lon="25.951509">
        <ele>1647.059</ele>
        <time>2017-05-28T10:00:00Z</time>
      </trkpt>
      <trkpt lat="46.954180" lon="25.951594">
        <ele>1644.092</ele>
        <time>2017-05-28T10:00:16Z</time>
      </trkpt>
      <trkpt lat="46.954104" lon="25.951667">
        <ele>1647.047</ele>
        <time>2017-05-28T10:00:37Z</time>
      </trkpt>
      <trkpt lat="46.954025" lon="25.951740">
        <ele>1646.027</ele>
        <time>2017-05-28T10:01:26Z</time>
      </trkpt>
      <trkpt lat="46.953960" lon="25.951842">
        <ele>1645.068</ele>
        <time>2017-05-28T10:01:40Z</time>
      </trkpt>
      <trkpt lat="46.953935" lon="25.951975">
        <ele>1645.014</ele>
        <time>2017-05-28T10:03:15Z</time>
      </trkpt>
      <trkpt lat="46.953857" lon="25.952086">
        <ele>1640.008</ele>
        <time>2017-05-28T10:03:36Z</time>
      </trkpt>
      <trkpt lat="46.953802" lon="25.952196">
        <ele>1640.083</ele>
        <time>2017-05-28T10:03:40Z</time>
      </trkpt>
      <trkpt lat="46.953759" lon="25.952319">
        <ele>1642.059</ele>
        <time>2017-05-28T10:03:49Z</time>
      </trkpt>
      <trkpt lat="46.953699" lon="25.952422">
        <ele>1637.081</ele>
        <time>2017-05-28T10:04:27Z</time>
      </trkpt>
      <trkpt lat="46.953661" lon="25.952555">
        <ele>1640.090</ele>
        <time>2017-05-28T10:04:37Z</time>
      </trkpt>
      <trkpt lat="46.953588" lon="25.952641">
        <ele>1635.034</ele>
        <time>2017-05-28T10:04:47Z</time>
      </trkpt>
      <trkpt lat="46.953646" lon="25.952540">
        <ele>1640.065</ele>
        <time>2017-05-28T10:05:18Z</time>
      </trkpt>
      <trkpt lat="46.953712" lon="25.952441">
        <ele>1648.028</ele>
        <time>2017-05-28T10:05:27Z</time>
      </trkpt>
      <trkpt lat="46.953771" lon="25.952340">
        <ele>1645.073</ele>
        <time>2017-05-28T10:05:36Z</time>
      </trkpt>
      <trkpt lat="46.953850" lon="25.952261">
        <ele>1644.041</ele>
        <time>2017-05-28T10:05:44Z</time>
      </trkpt>
      <trkpt lat="46.953923" lon="25.952157">
        <ele>1652.081</ele>
        <time>2017-05-28T10:05:51Z</time>
      </trkpt>
      <trkpt lat="46.953918" lon="25.952026">
        <ele>1649.009</ele>
        <time>2017-05-28T10:06:00Z</time>
      </trkpt>
      <trkpt lat="46.953947" lon="25.951891">
        <ele>1646.008</ele>
        <time>2017-05-28T10:06:07Z</time>
      </trkpt>
      <trkpt lat="46.954008" lon="25.951793">
        <ele>1650.075</ele>
        <time>2017-05-28T10:06:19Z</time>
      </trkpt>
      <trkpt lat="46.954082" lon="25.951710">
        <ele>1648.021</ele>
        <time>2017-05-28T10:06:38Z</time>
      </trkpt>
      <trkpt lat="46.954088" lon="25.951577">
        <ele>1651.023</ele>
        <time>2017-05-28T10:07:03Z</time>
      </trkpt>
      <trkpt lat="46.954001" lon="25.951516">
        <ele>1655.012</ele>
        <time>2017-05-28T10:07:45Z</time>
      </trkpt>
      <trkpt lat="46.953901" lon="25.951541">
        <ele>1655.096</ele>
        <time>2017-05-28T10:08:02Z</time>
      </trkpt>
      <trkpt lat="46.953818" lon="25.951593">
        <ele>1655.047</ele>
        <time>2017-05-28T10:08:08Z</time>
      </trkpt>
      <trkpt lat="46.953732" lon="25.951637">
        <ele>1658.030</ele>
        <time>2017-05-28T10:08:16Z</time>
      </trkpt>
      <trkpt lat="46.953676" lon="25.951741">
        <ele>1658.055</ele>
        <time>2017-05-28T10:08:49Z</time>
      </trkpt>
      <trkpt lat="46.953589" lon="25.951788">
        <ele>1657.064</ele>
        <time>2017-05-28T10:10:51Z</time>
      </trkpt>
      <trkpt lat="46.953504" lon="25.951854">
        <ele>1650.006</ele>
        <time>2017-05-28T10:11:01Z</time>
      </trkpt>
      <trkpt lat="46.953425" lon="25.951921">
        <ele>1653.016</ele>
        <time>2017-05-28T10:11:09Z</time>
      </trkpt>
      <trkpt lat="46.953358" lon="25.952023">
        <ele>1654.008</ele>
        <time>2017-05-28T10:11:25Z</time>
      </trkpt>
      <trkpt lat="46.953293" lon="25.952116">
        <ele>1653.087</ele>
        <time>2017-05-28T10:11:34Z</time>
      </trkpt>
      <trkpt lat="46.953219" lon="25.952193">
        <ele>1662.083</ele>
        <time>2017-05-28T10:11:50Z</time>
      </trkpt>
      <trkpt lat="46.953113" lon="25.952234">
        <ele>1661.055</ele>
        <time>2017-05-28T10:11:59Z</time>
      </trkpt>
      <trkpt lat="46.953022" lon="25.952260">
        <ele>1665.094</ele>
        <time>2017-05-28T10:12:07Z</time>
      </trkpt>
      <trkpt lat="46.952918" lon="25.952346">
        <ele>1667.068</ele>
        <time>2017-05-28T10:12:19Z</time>
      </trkpt>
      <trkpt lat="46.952827" lon="25.952429">
        <ele>1671.049</ele>
        <time>2017-05-28T10:12:28Z</time>
      </trkpt>
      <trkpt lat="46.952741" lon="25.952480">
        <ele>1669.022</ele>
        <time>2017-05-28T10:12:42Z</time>
      </trkpt>
      <trkpt lat="46.952654" lon="25.952549">
        <ele>1666.067</ele>
        <time>2017-05-28T10:12:48Z</time>
      </trkpt>
      <trkpt lat="46.952576" lon="25.952613">
        <ele>1667.075</ele>
        <time>2017-05-28T10:12:58Z</time>
      </trkpt>
      <trkpt lat="46.952480" lon="25.952671">
        <ele>1673.028</ele>
        <time>2017-05-28T10:13:18Z</time>
      </trkpt>
      <trkpt lat="46.952391" lon="25.952639">
        <ele>1678.020</ele>
        <time>2017-05-28T10:13:34Z</time>
      </trkpt>
      <trkpt lat="46.952382" lon="25.952507">
        <ele>1677.008</ele>
        <time>2017-05-28T10:13:55Z</time>
      </trkpt>
      <trkpt lat="46.952287" lon="25.952553">
        <ele>1684.058</ele>
        <time>2017-05-28T10:14:32Z</time>
      </trkpt>
      <trkpt lat="46.952181" lon="25.952574">
        <ele>1689.074</ele>
        <time>2017-05-28T10:15:03Z</time>
      </trkpt>
      <trkpt lat="46.952090" lon="25.952613">
        <ele>1687.096</ele>
        <time>2017-05-28T10:15:12Z</time>
      </trkpt>
      <trkpt lat="46.951990" lon="25.952627">
        <ele>1683.015</ele>
        <time>2017-05-28T10:15:21Z</time>
      </trkpt>
      <trkpt lat="46.951885" lon="25.952635">
        <ele>1684.089</ele>
        <time>2017-05-28T10:15:38Z</time>
      </trkpt>
      <trkpt lat="46.951791" lon="25.952659">
        <ele>1689.080</ele>
        <time>2017-05-28T10:15:44Z</time>
      </trkpt>
      <trkpt lat="46.951686" lon="25.952700">
        <ele>1692.093</ele>
        <time>2017-05-28T10:15:55Z</time>
      </trkpt>
      <trkpt lat="46.951613" lon="25.952785">
        <ele>1700.038</ele>
        <time>2017-05-28T10:17:06Z</time>
      </trkpt>
      <trkpt lat="46.951518" lon="25.952817">
        <ele>1697.059</ele>
        <time>2017-05-28T10:17:21Z</time>
      </trkpt>
      <trkpt lat="46.951413" lon="25.952807">
        <ele>1694.003</ele>
        <time>2017-05-28T10:17:26Z</time>
      </trkpt>
      <trkpt lat="46.951320" lon="25.952761">
        <ele>1689.023</ele>
        <time>2017-05-28T10:17:34Z</time>
      </trkpt>
      <trkpt lat="46.951222" lon="25.952789">
        <ele>1692.008</ele>
        <time>2017-05-28T10:18:24Z</time>
      </trkpt>
      <trkpt lat="46.951118" lon="25.952813">
        <ele>1695.076</ele>
        <time>2017-05-28T10:18:31Z</time>
      </trkpt>
      <trkpt lat="46.951025" lon="25.952815">
        <ele>1699.092</ele>
        <time>2017-05-28T10:18:39Z</time>
      </trkpt>
      <trkpt lat="46.950925" lon="25.952792">
        <ele>1700.014</ele>
        <time>2017-05-28T10:18:53Z</time>
      </trkpt>
      <trkpt lat="46.950832" lon="25.952873">
        <ele>1704.013</ele>
        <time>2017-05-28T10:19:00Z</time>
      </trkpt>
      <trkpt lat="46.950740" lon="25.952854">
        <ele>1708.087</ele>
        <time>2017-05-28T10:19:16Z</time>
      </trkpt>
      <trkpt lat="46.950637" lon="25.952820">
        <ele>1710.078</ele>
        <time>2017-05-28T10:19:26Z</time>
      </trkpt>
      <trkpt lat="46.950541" lon="25.952844">
        <ele>1715.071</ele>
        <time>2017-05-28T10:19:39Z</time>
      </trkpt>
      <trkpt lat="46.950456" lon="25.952897">
        <ele>1719.036</ele>
        <time>2017-05-28T10:19:48Z</time>
      </trkpt>
      <trkpt lat="46.950359" lon="25.952882">
        <ele>1716.096</ele>
        <time>2017-05-28T10:19:57Z</time>
      </trkpt>
      <trkpt lat="46.950273" lon="25.952845">
        <ele>1714.031</ele>
        <time>2017-05-28T10:20:09Z</time>
      </trkpt>
      <trkpt lat="46.950175" lon="25.952851">
        <ele>1721.024</ele>
        <time>2017-05-28T10:20:28Z</time>
      </trkpt>
      <trkpt lat="46.950081" lon="25.952848">
        <ele>1726.008</ele>
        <time>2017-05-28T10:20:34Z</time>
      </trkpt>
      <trkpt lat="46.949988" lon="25.952817">
        <ele>1728.050</ele>
        <time>2017-05-28T10:20:52Z</time>
      </trkpt>
      <trkpt lat="46.949883" lon="25.952785">
        <ele>1723.096</ele>
        <time>2017-05-28T10:21:09Z</time>
      </trkpt>
      <trkpt lat="46.949790" lon="25.952753">
        <ele>1723.068</ele>
        <time>2017-05-28T10:21:20Z</time>
      </trkpt>
      <trkpt lat="46.949682" lon="25.952759">
        <ele>1722.067</ele>
        <time>2017-05-28T10:21:26Z</time>
      </trkpt>
      <trkpt lat="46.949591" lon="25.952787">
        <ele>1725.011</ele>
        <time>2017-05-28T10:21:39Z</time>
      </trkpt>
      <trkpt lat="46.949493" lon="25.952765">
        <ele>1735.052</ele>
        <time>2017-05-28T10:22:06Z</time>
      </trkpt>
      <trkpt lat="46.949390" lon="25.952773">
        <ele>1733.015</ele>
        <time>2017-05-28T10:22:12Z</time>
      </trkpt>
      <trkpt lat="46.949292" lon="25.952734">
        <ele>1729.080</ele>
        <time>2017-05-28T10:22:22Z</time>
      </trkpt>
      <trkpt lat="46.949201" lon="25.952715">
        <ele>1729.072</ele>
        <time>2017-05-28T10:22:36Z</time>
      </trkpt>
      <trkpt lat="46.949112" lon="25.952675">
        <ele>1725.013</ele>
        <time>2017-05-28T10:22:47Z</time>
      </trkpt>
      <trkpt lat="46.949019" lon="25.952644">
        <ele>1725.014</ele>
        <time>2017-05-28T10:22:57Z</time>
      </trkpt>
      <trkpt lat="46.948927" lon="25.952609">
        <ele>1727.008</ele>
        <time>2017-05-28T10:23:08Z</time>
      </trkpt>
      <trkpt lat="46.948849" lon="25.952540">
        <ele>1731.078</ele>
        <time>2017-05-28T10:23:21Z</time>
      </trkpt>
      <trkpt lat="46.948758" lon="25.952478">
        <ele>1736.094</ele>
        <time>2017-05-28T10:23:37Z</time>
      </trkpt>
      <trkpt lat="46.948675" lon="25.952425">
        <ele>1736.026</ele>
        <time>2017-05-28T10:23:48Z</time>
      </trkpt>
      <trkpt lat="46.948590" lon="25.952363">
        <ele>1735.045</ele>
        <time>2017-05-28T10:23:59Z</time>
      </trkpt>
      <trkpt lat="46.948501" lon="25.952317">
        <ele>1738.069</ele>
        <time>2017-05-28T10:24:06Z</time>
      </trkpt>
      <trkpt lat="46.948418" lon="25.952256">
        <ele>1734.020</ele>
        <time>2017-05-28T10:24:17Z</time>
      </trkpt>
      <trkpt lat="46.948329" lon="25.952210">
        <ele>1733.073</ele>
        <time>2017-05-28T10:24:29Z</time>
      </trkpt>
      <trkpt lat="46.948243" lon="25.952132">
        <ele>1735.048</ele>
        <time>2017-05-28T10:24:49Z</time>
      </trkpt>
      <trkpt lat="46.948157" lon="25.952087">
        <ele>1735.055</ele>
        <time>2017-05-28T10:25:07Z</time>
      </trkpt>
      <trkpt lat="46.948201" lon="25.951971">
        <ele>1736.007</ele>
        <time>2017-05-28T10:25:19Z</time>
      </trkpt>
      <trkpt lat="46.948268" lon="25.951860">
        <ele>1741.017</ele>
        <time>2017-05-28T10:26:20Z</time>
      </trkpt>
      <trkpt lat="46.948197" lon="25.951946">
        <ele>1740.008</ele>
        <time>2017-05-28T10:46:10Z</time>
      </trkpt>
      <trkpt lat="46.948150" lon="25.952063">
        <ele>1742.026</ele>
        <time>2017-05-28T10:46:21Z</time>
      </trkpt>
      <trkpt lat="46.948055" lon="25.952063">
        <ele>1739.022</ele>
        <time>2017-05-28T10:47:02Z</time>
      </trkpt>
      <trkpt lat="46.947962" lon="25.952064">
        <ele>1739.024</ele>
        <time>2017-05-28T10:47:10Z</time>
      </trkpt>
      <trkpt lat="46.947861" lon="25.952053">
        <ele>1738.023</ele>
        <time>2017-05-28T10:47:23Z</time>
      </trkpt>
      <trkpt lat="46.947771" lon="25.952049">
        <ele>1737.037</ele>
        <time>2017-05-28T10:47:31Z</time>
      </trkpt>
      <trkpt lat="46.947676" lon="25.952034">
        <ele>1736.088</ele>
        <time>2017-05-28T10:48:02Z</time>
      </trkpt>
      <trkpt lat="46.947591" lon="25.952073">
        <ele>1737.081</ele>
        <time>2017-05-28T10:48:09Z</time>
      </trkpt>
      <trkpt lat="46.947499" lon="25.952096">
        <ele>1736.036</ele>
        <time>2017-05-28T10:48:16Z</time>
      </trkpt>
      <trkpt lat="46.947408" lon="25.952107">
        <ele>1739.013</ele>
        <time>2017-05-28T10:48:26Z</time>
      </trkpt>
      <trkpt lat="46.947310" lon="25.952135">
        <ele>1733.043</ele>
        <time>2017-05-28T10:48:33Z</time>
      </trkpt>
      <trkpt lat="46.947214" lon="25.952135">
        <ele>1733.007</ele>
        <time>2017-05-28T10:48:38Z</time>
      </trkpt>
      <trkpt lat="46.947122" lon="25.952115">
        <ele>1733.008</ele>
        <time>2017-05-28T10:48:45Z</time>
      </trkpt>
      <trkpt lat="46.947031" lon="25.952112">
        <ele>1732.012</ele>
        <time>2017-05-28T10:49:03Z</time>
      </trkpt>
      <trkpt lat="46.946947" lon="25.952032">
        <ele>1732.068</ele>
        <time>2017-05-28T10:49:12Z</time>
      </trkpt>
      <trkpt lat="46.946868" lon="25.951959">
        <ele>1727.030</ele>
        <time>2017-05-28T10:49:21Z</time>
      </trkpt>
      <trkpt lat="46.946783" lon="25.951892">
        <ele>1724.099</ele>
        <time>2017-05-28T10:49:30Z</time>
      </trkpt>
      <trkpt lat="46.946672" lon="25.951859">
        <ele>1723.023</ele>
        <time>2017-05-28T10:49:38Z</time>
      </trkpt>
      <trkpt lat="46.946573" lon="25.951853">
        <ele>1723.044</ele>
        <time>2017-05-28T10:49:45Z</time>
      </trkpt>
      <trkpt lat="46.946475" lon="25.951850">
        <ele>1723.077</ele>
        <time>2017-05-28T10:49:53Z</time>
      </trkpt>
      <trkpt lat="46.946381" lon="25.951898">
        <ele>1720.032</ele>
        <time>2017-05-28T10:50:03Z</time>
      </trkpt>
      <trkpt lat="46.946283" lon="25.951923">
        <ele>1722.018</ele>
        <time>2017-05-28T10:50:12Z</time>
      </trkpt>
      <trkpt lat="46.946185" lon="25.951965">
        <ele>1710.098</ele>
        <time>2017-05-28T10:50:25Z</time>
      </trkpt>
      <trkpt lat="46.946082" lon="25.951985">
        <ele>1707.017</ele>
        <time>2017-05-28T10:50:34Z</time>
      </trkpt>
      <trkpt lat="46.945986" lon="25.951995">
        <ele>1708.008</ele>
        <time>2017-05-28T10:50:43Z</time>
      </trkpt>
      <trkpt lat="46.945892" lon="25.952030">
        <ele>1711.012</ele>
        <time>2017-05-28T10:50:49Z</time>
      </trkpt>
      <trkpt lat="46.945793" lon="25.952072">
        <ele>1710.038</ele>
        <time>2017-05-28T10:50:56Z</time>
      </trkpt>
      <trkpt lat="46.945705" lon="25.952125">
        <ele>1709.050</ele>
        <time>2017-05-28T10:51:04Z</time>
      </trkpt>
      <trkpt lat="46.945621" lon="25.952179">
        <ele>1716.019</ele>
        <time>2017-05-28T10:51:16Z</time>
      </trkpt>
      <trkpt lat="46.945532" lon="25.952234">
        <ele>1714.093</ele>
        <time>2017-05-28T10:51:24Z</time>
      </trkpt>
      <trkpt lat="46.945458" lon="25.952320">
        <ele>1713.044</ele>
        <time>2017-05-28T10:51:35Z</time>
      </trkpt>
      <trkpt lat="46.945395" lon="25.952439">
        <ele>1715.017</ele>
        <time>2017-05-28T10:51:44Z</time>
      </trkpt>
      <trkpt lat="46.945338" lon="25.952554">
        <ele>1712.082</ele>
        <time>2017-05-28T10:51:53Z</time>
      </trkpt>
      <trkpt lat="46.945272" lon="25.952656">
        <ele>1714.037</ele>
        <time>2017-05-28T10:52:02Z</time>
      </trkpt>
      <trkpt lat="46.945191" lon="25.952721">
        <ele>1715.049</ele>
        <time>2017-05-28T10:52:14Z</time>
      </trkpt>
      <trkpt lat="46.945096" lon="25.952729">
        <ele>1709.013</ele>
        <time>2017-05-28T10:52:26Z</time>
      </trkpt>
      <trkpt lat="46.945007" lon="25.952749">
        <ele>1718.008</ele>
        <time>2017-05-28T10:52:31Z</time>
      </trkpt>
      <trkpt lat="46.944911" lon="25.952777">
        <ele>1713.054</ele>
        <time>2017-05-28T10:52:41Z</time>
      </trkpt>
      <trkpt lat="46.944819" lon="25.952794">
        <ele>1710.030</ele>
        <time>2017-05-28T10:52:55Z</time>
      </trkpt>
      <trkpt lat="46.944756" lon="25.952902">
        <ele>1705.082</ele>
        <time>2017-05-28T10:53:01Z</time>
      </trkpt>
      <trkpt lat="46.944682" lon="25.952984">
        <ele>1705.071</ele>
        <time>2017-05-28T10:53:12Z</time>
      </trkpt>
      <trkpt lat="46.944691" lon="25.953116">
        <ele>1699.095</ele>
        <time>2017-05-28T10:54:10Z</time>
      </trkpt>
      <trkpt lat="46.944690" lon="25.953256">
        <ele>1698.086</ele>
        <time>2017-05-28T10:55:14Z</time>
      </trkpt>
      <trkpt lat="46.944585" lon="25.953232">
        <ele>1689.029</ele>
        <time>2017-05-28T10:55:54Z</time>
      </trkpt>
      <trkpt lat="46.944587" lon="25.953379">
        <ele>1684.084</ele>
        <time>2017-05-28T10:56:06Z</time>
      </trkpt>
      <trkpt lat="46.944498" lon="25.953407">
        <ele>1686.019</ele>
        <time>2017-05-28T10:57:06Z</time>
      </trkpt>
      <trkpt lat="46.944409" lon="25.953377">
        <ele>1685.009</ele>
        <time>2017-05-28T10:57:16Z</time>
      </trkpt>
      <trkpt lat="46.944378" lon="25.953517">
        <ele>1679.019</ele>
        <time>2017-05-28T10:57:30Z</time>
      </trkpt>
      <trkpt lat="46.944285" lon="25.953486">
        <ele>1667.008</ele>
        <time>2017-05-28T10:59:03Z</time>
      </trkpt>
      <trkpt lat="46.944192" lon="25.953514">
        <ele>1664.032</ele>
        <time>2017-05-28T10:59:14Z</time>
      </trkpt>
      <trkpt lat="46.944125" lon="25.953631">
        <ele>1670.058</ele>
        <time>2017-05-28T10:59:20Z</time>
      </trkpt>
      <trkpt lat="46.944049" lon="25.953703">
        <ele>1665.090</ele>
        <time>2017-05-28T10:59:55Z</time>
      </trkpt>
      <trkpt lat="46.944088" lon="25.953827">
        <ele>1666.089</ele>
        <time>2017-05-28T11:00:24Z</time>
      </trkpt>
      <trkpt lat="46.943995" lon="25.953867">
        <ele>1647.033</ele>
        <time>2017-05-28T11:00:57Z</time>
      </trkpt>
      <trkpt lat="46.943934" lon="25.953980">
        <ele>1645.014</ele>
        <time>2017-05-28T11:01:09Z</time>
      </trkpt>
      <trkpt lat="46.943878" lon="25.954109">
        <ele>1639.087</ele>
        <time>2017-05-28T11:01:16Z</time>
      </trkpt>
      <trkpt lat="46.943818" lon="25.954226">
        <ele>1640.032</ele>
        <time>2017-05-28T11:01:33Z</time>
      </trkpt>
      <trkpt lat="46.943793" lon="25.954354">
        <ele>1643.017</ele>
        <time>2017-05-28T11:01:37Z</time>
      </trkpt>
      <trkpt lat="46.943700" lon="25.954395">
        <ele>1644.087</ele>
        <time>2017-05-28T11:01:44Z</time>
      </trkpt>
      <trkpt lat="46.943628" lon="25.954502">
        <ele>1639.015</ele>
        <time>2017-05-28T11:02:13Z</time>
      </trkpt>
      <trkpt lat="46.943566" lon="25.954606">
        <ele>1638.008</ele>
        <time>2017-05-28T11:02:33Z</time>
      </trkpt>
      <trkpt lat="46.943638" lon="25.954727">
        <ele>1630.062</ele>
        <time>2017-05-28T11:03:03Z</time>
      </trkpt>
      <trkpt lat="46.943694" lon="25.954882">
        <ele>1630.018</ele>
        <time>2017-05-28T11:03:07Z</time>
      </trkpt>
      <trkpt lat="46.943723" lon="25.955008">
        <ele>1631.080</ele>
        <time>2017-05-28T11:03:16Z</time>
      </trkpt>
      <trkpt lat="46.943784" lon="25.955104">
        <ele>1626.049</ele>
        <time>2017-05-28T11:04:06Z</time>
      </trkpt>
      <trkpt lat="46.943713" lon="25.955010">
        <ele>1624.023</ele>
        <time>2017-05-28T11:04:35Z</time>
      </trkpt>
      <trkpt lat="46.943630" lon="25.954950">
        <ele>1622.054</ele>
        <time>2017-05-28T11:04:57Z</time>
      </trkpt>
      <trkpt lat="46.943534" lon="25.954956">
        <ele>1622.097</ele>
        <time>2017-05-28T11:05:30Z</time>
      </trkpt>
      <trkpt lat="46.943442" lon="25.954994">
        <ele>1619.092</ele>
        <time>2017-05-28T11:05:38Z</time>
      </trkpt>
      <trkpt lat="46.943361" lon="25.955067">
        <ele>1616.055</ele>
        <time>2017-05-28T11:05:57Z</time>
      </trkpt>
      <trkpt lat="46.943304" lon="25.955210">
        <ele>1612.007</ele>
        <time>2017-05-28T11:06:19Z</time>
      </trkpt>
      <trkpt lat="46.943328" lon="25.955338">
        <ele>1612.017</ele>
        <time>2017-05-28T11:06:26Z</time>
      </trkpt>
      <trkpt lat="46.943315" lon="25.955469">
        <ele>1607.008</ele>
        <time>2017-05-28T11:06:50Z</time>
      </trkpt>
      <trkpt lat="46.943343" lon="25.955621">
        <ele>1607.036</ele>
        <time>2017-05-28T11:07:03Z</time>
      </trkpt>
      <trkpt lat="46.943394" lon="25.955733">
        <ele>1598.042</ele>
        <time>2017-05-28T11:07:18Z</time>
      </trkpt>
      <trkpt lat="46.943371" lon="25.955862">
        <ele>1595.064</ele>
        <time>2017-05-28T11:07:30Z</time>
      </trkpt>
      <trkpt lat="46.943337" lon="25.955991">
        <ele>1585.023</ele>
        <time>2017-05-28T11:07:54Z</time>
      </trkpt>
      <trkpt lat="46.943395" lon="25.956114">
        <ele>1587.037</ele>
        <time>2017-05-28T11:08:10Z</time>
      </trkpt>
      <trkpt lat="46.943359" lon="25.956242">
        <ele>1578.098</ele>
        <time>2017-05-28T11:08:22Z</time>
      </trkpt>
      <trkpt lat="46.943424" lon="25.956334">
        <ele>1585.051</ele>
        <time>2017-05-28T11:08:51Z</time>
      </trkpt>
      <trkpt lat="46.943363" lon="25.956493">
        <ele>1581.096</ele>
        <time>2017-05-28T11:08:57Z</time>
      </trkpt>
      <trkpt lat="46.943277" lon="25.956558">
        <ele>1577.085</ele>
        <time>2017-05-28T11:08:59Z</time>
      </trkpt>
      <trkpt lat="46.943262" lon="25.956691">
        <ele>1577.089</ele>
        <time>2017-05-28T11:09:12Z</time>
      </trkpt>
      <trkpt lat="46.943228" lon="25.956818">
        <ele>1566.017</ele>
        <time>2017-05-28T11:09:25Z</time>
      </trkpt>
      <trkpt lat="46.943199" lon="25.956958">
        <ele>1557.008</ele>
        <time>2017-05-28T11:10:01Z</time>
      </trkpt>
      <trkpt lat="46.943194" lon="25.957090">
        <ele>1553.099</ele>
        <time>2017-05-28T11:10:14Z</time>
      </trkpt>
      <trkpt lat="46.943185" lon="25.957227">
        <ele>1551.015</ele>
        <time>2017-05-28T11:10:22Z</time>
      </trkpt>
      <trkpt lat="46.943195" lon="25.957361">
        <ele>1547.057</ele>
        <time>2017-05-28T11:10:36Z</time>
      </trkpt>
      <trkpt lat="46.943150" lon="25.957492">
        <ele>1550.046</ele>
        <time>2017-05-28T11:10:53Z</time>
      </trkpt>
      <trkpt lat="46.943134" lon="25.957627">
        <ele>1543.030</ele>
        <time>2017-05-28T11:11:22Z</time>
      </trkpt>
      <trkpt lat="46.943080" lon="25.957744">
        <ele>1536.011</ele>
        <time>2017-05-28T11:11:53Z</time>
      </trkpt>
      <trkpt lat="46.943019" lon="25.957852">
        <ele>1530.044</ele>
        <time>2017-05-28T11:12:28Z</time>
      </trkpt>
      <trkpt lat="46.942972" lon="25.957976">
        <ele>1524.069</ele>
        <time>2017-05-28T11:13:03Z</time>
      </trkpt>
      <trkpt lat="46.942956" lon="25.958117">
        <ele>1516.024</ele>
        <time>2017-05-28T11:13:48Z</time>
      </trkpt>
      <trkpt lat="46.943079" lon="25.958190">
        <ele>1510.004</ele>
        <time>2017-05-28T11:14:04Z</time>
      </trkpt>
      <trkpt lat="46.943159" lon="25.958261">
        <ele>1509.014</ele>
        <time>2017-05-28T11:14:14Z</time>
      </trkpt>
      <trkpt lat="46.943207" lon="25.958374">
        <ele>1507.008</ele>
        <time>2017-05-28T11:14:39Z</time>
      </trkpt>
      <trkpt lat="46.943143" lon="25.958467">
        <ele>1501.043</ele>
        <time>2017-05-28T11:15:08Z</time>
      </trkpt>
      <trkpt lat="46.943090" lon="25.958576">
        <ele>1494.049</ele>
        <time>2017-05-28T11:15:38Z</time>
      </trkpt>
      <trkpt lat="46.943003" lon="25.958654">
        <ele>1492.061</ele>
        <time>2017-05-28T11:16:01Z</time>
      </trkpt>
      <trkpt lat="46.942935" lon="25.958743">
        <ele>1489.010</ele>
        <time>2017-05-28T11:16:22Z</time>
      </trkpt>
      <trkpt lat="46.942948" lon="25.958880">
        <ele>1485.044</ele>
        <time>2017-05-28T11:16:38Z</time>
      </trkpt>
      <trkpt lat="46.943005" lon="25.959002">
        <ele>1481.045</ele>
        <time>2017-05-28T11:16:47Z</time>
      </trkpt>
      <trkpt lat="46.943041" lon="25.959123">
        <ele>1479.068</ele>
        <time>2017-05-28T11:16:57Z</time>
      </trkpt>
      <trkpt lat="46.943093" lon="25.959233">
        <ele>1475.043</ele>
        <time>2017-05-28T11:17:05Z</time>
      </trkpt>
      <trkpt lat="46.943156" lon="25.959332">
        <ele>1471.068</ele>
        <time>2017-05-28T11:17:11Z</time>
      </trkpt>
      <trkpt lat="46.943206" lon="25.959458">
        <ele>1468.042</ele>
        <time>2017-05-28T11:17:24Z</time>
      </trkpt>
      <trkpt lat="46.943233" lon="25.959589">
        <ele>1468.026</ele>
        <time>2017-05-28T11:17:36Z</time>
      </trkpt>
      <trkpt lat="46.943248" lon="25.959720">
        <ele>1466.008</ele>
        <time>2017-05-28T11:17:47Z</time>
      </trkpt>
      <trkpt lat="46.943276" lon="25.959849">
        <ele>1456.077</ele>
        <time>2017-05-28T11:18:05Z</time>
      </trkpt>
      <trkpt lat="46.943337" lon="25.959947">
        <ele>1453.093</ele>
        <time>2017-05-28T11:18:24Z</time>
      </trkpt>
      <trkpt lat="46.943399" lon="25.960047">
        <ele>1450.015</ele>
        <time>2017-05-28T11:18:46Z</time>
      </trkpt>
      <trkpt lat="46.943442" lon="25.960167">
        <ele>1446.014</ele>
        <time>2017-05-28T11:18:59Z</time>
      </trkpt>
      <trkpt lat="46.943545" lon="25.960175">
        <ele>1441.078</ele>
        <time>2017-05-28T11:19:22Z</time>
      </trkpt>
      <trkpt lat="46.943635" lon="25.960155">
        <ele>1441.099</ele>
        <time>2017-05-28T11:19:42Z</time>
      </trkpt>
      <trkpt lat="46.943728" lon="25.960149">
        <ele>1442.042</ele>
        <time>2017-05-28T11:20:08Z</time>
      </trkpt>
      <trkpt lat="46.943812" lon="25.960097">
        <ele>1438.077</ele>
        <time>2017-05-28T11:20:14Z</time>
      </trkpt>
      <trkpt lat="46.943895" lon="25.960000">
        <ele>1432.024</ele>
        <time>2017-05-28T11:20:34Z</time>
      </trkpt>
      <trkpt lat="46.943977" lon="25.959933">
        <ele>1429.004</ele>
        <time>2017-05-28T11:20:42Z</time>
      </trkpt>
      <trkpt lat="46.944070" lon="25.959916">
        <ele>1428.014</ele>
        <time>2017-05-28T11:20:58Z</time>
      </trkpt>
      <trkpt lat="46.944054" lon="25.960046">
        <ele>1425.008</ele>
        <time>2017-05-28T11:21:35Z</time>
      </trkpt>
      <trkpt lat="46.944009" lon="25.960163">
        <ele>1426.083</ele>
        <time>2017-05-28T11:21:53Z</time>
      </trkpt>
      <trkpt lat="46.943949" lon="25.960285">
        <ele>1421.099</ele>
        <time>2017-05-28T11:22:33Z</time>
      </trkpt>
      <trkpt lat="46.943905" lon="25.960429">
        <ele>1417.021</ele>
        <time>2017-05-28T11:22:39Z</time>
      </trkpt>
      <trkpt lat="46.943912" lon="25.960563">
        <ele>1413.030</ele>
        <time>2017-05-28T11:22:55Z</time>
      </trkpt>
      <trkpt lat="46.943828" lon="25.960741">
        <ele>1410.064</ele>
        <time>2017-05-28T11:23:38Z</time>
      </trkpt>
      <trkpt lat="46.943737" lon="25.960831">
        <ele>1407.055</ele>
        <time>2017-05-28T11:23:42Z</time>
      </trkpt>
      <trkpt lat="46.943657" lon="25.960915">
        <ele>1409.028</ele>
        <time>2017-05-28T11:23:47Z</time>
      </trkpt>
      <trkpt lat="46.943617" lon="25.961037">
        <ele>1407.073</ele>
        <time>2017-05-28T11:23:53Z</time>
      </trkpt>
      <trkpt lat="46.943586" lon="25.961183">
        <ele>1404.057</ele>
        <time>2017-05-28T11:24:02Z</time>
      </trkpt>
      <trkpt lat="46.943577" lon="25.961318">
        <ele>1403.000</ele>
        <time>2017-05-28T11:24:20Z</time>
      </trkpt>
      <trkpt lat="46.943535" lon="25.961454">
        <ele>1397.020</ele>
        <time>2017-05-28T11:24:33Z</time>
      </trkpt>
      <trkpt lat="46.943553" lon="25.961591">
        <ele>1392.008</ele>
        <time>2017-05-28T11:24:51Z</time>
      </trkpt>
      <trkpt lat="46.943641" lon="25.961664">
        <ele>1386.066</ele>
        <time>2017-05-28T11:25:00Z</time>
      </trkpt>
      <trkpt lat="46.943701" lon="25.961775">
        <ele>1388.092</ele>
        <time>2017-05-28T11:25:06Z</time>
      </trkpt>
      <trkpt lat="46.943696" lon="25.961909">
        <ele>1384.014</ele>
        <time>2017-05-28T11:25:13Z</time>
      </trkpt>
      <trkpt lat="46.943709" lon="25.962043">
        <ele>1384.023</ele>
        <time>2017-05-28T11:25:20Z</time>
      </trkpt>
      <trkpt lat="46.943756" lon="25.962158">
        <ele>1385.027</ele>
        <time>2017-05-28T11:26:05Z</time>
      </trkpt>
      <trkpt lat="46.943754" lon="25.962297">
        <ele>1385.078</ele>
        <time>2017-05-28T11:26:18Z</time>
      </trkpt>
      <trkpt lat="46.943760" lon="25.962439">
        <ele>1378.031</ele>
        <time>2017-05-28T11:26:33Z</time>
      </trkpt>
      <trkpt lat="46.943740" lon="25.962572">
        <ele>1375.066</ele>
        <time>2017-05-28T11:26:45Z</time>
      </trkpt>
      <trkpt lat="46.943705" lon="25.962695">
        <ele>1372.046</ele>
        <time>2017-05-28T11:26:53Z</time>
      </trkpt>
      <trkpt lat="46.943676" lon="25.962836">
        <ele>1366.088</ele>
        <time>2017-05-28T11:27:01Z</time>
      </trkpt>
      <trkpt lat="46.943630" lon="25.962952">
        <ele>1368.016</ele>
        <time>2017-05-28T11:27:07Z</time>
      </trkpt>
      <trkpt lat="46.943570" lon="25.963073">
        <ele>1370.008</ele>
        <time>2017-05-28T11:27:14Z</time>
      </trkpt>
      <trkpt lat="46.943518" lon="25.963204">
        <ele>1366.025</ele>
        <time>2017-05-28T11:27:26Z</time>
      </trkpt>
      <trkpt lat="46.943430" lon="25.963292">
        <ele>1365.061</ele>
        <time>2017-05-28T11:27:41Z</time>
      </trkpt>
      <trkpt lat="46.943359" lon="25.963382">
        <ele>1358.013</ele>
        <time>2017-05-28T11:28:08Z</time>
      </trkpt>
      <trkpt lat="46.943326" lon="25.963506">
        <ele>1357.042</ele>
        <time>2017-05-28T11:28:19Z</time>
      </trkpt>
      <trkpt lat="46.943337" lon="25.963654">
        <ele>1350.036</ele>
        <time>2017-05-28T11:28:28Z</time>
      </trkpt>
      <trkpt lat="46.943312" lon="25.963783">
        <ele>1353.057</ele>
        <time>2017-05-28T11:28:57Z</time>
      </trkpt>
      <trkpt lat="46.943353" lon="25.963928">
        <ele>1354.010</ele>
        <time>2017-05-28T11:29:03Z</time>
      </trkpt>
      <trkpt lat="46.943413" lon="25.964028">
        <ele>1361.095</ele>
        <time>2017-05-28T11:33:50Z</time>
      </trkpt>
      <trkpt lat="46.943415" lon="25.964168">
        <ele>1354.028</ele>
        <time>2017-05-28T11:36:29Z</time>
      </trkpt>
      <trkpt lat="46.943510" lon="25.964158">
        <ele>1351.089</ele>
        <time>2017-05-28T11:52:09Z</time>
      </trkpt>
      <trkpt lat="46.943586" lon="25.964236">
        <ele>1346.017</ele>
        <time>2017-05-28T11:52:22Z</time>
      </trkpt>
      <trkpt lat="46.943652" lon="25.964331">
        <ele>1342.008</ele>
        <time>2017-05-28T11:52:36Z</time>
      </trkpt>
      <trkpt lat="46.943720" lon="25.964422">
        <ele>1341.023</ele>
        <time>2017-05-28T11:53:01Z</time>
      </trkpt>
      <trkpt lat="46.943799" lon="25.964505">
        <ele>1337.049</ele>
        <time>2017-05-28T11:53:18Z</time>
      </trkpt>
      <trkpt lat="46.943890" lon="25.964523">
        <ele>1339.071</ele>
        <time>2017-05-28T11:53:25Z</time>
      </trkpt>
      <trkpt lat="46.943959" lon="25.964624">
        <ele>1330.030</ele>
        <time>2017-05-28T11:53:42Z</time>
      </trkpt>
      <trkpt lat="46.944029" lon="25.964717">
        <ele>1325.054</ele>
        <time>2017-05-28T11:53:53Z</time>
      </trkpt>
      <trkpt lat="46.944052" lon="25.964850">
        <ele>1320.065</ele>
        <time>2017-05-28T11:54:11Z</time>
      </trkpt>
      <trkpt lat="46.944067" lon="25.964986">
        <ele>1320.098</ele>
        <time>2017-05-28T11:54:22Z</time>
      </trkpt>
      <trkpt lat="46.944130" lon="25.965091">
        <ele>1319.043</ele>
        <time>2017-05-28T11:54:30Z</time>
      </trkpt>
      <trkpt lat="46.944207" lon="25.965171">
        <ele>1319.051</ele>
        <time>2017-05-28T11:54:35Z</time>
      </trkpt>
      <trkpt lat="46.944294" lon="25.965220">
        <ele>1315.001</ele>
        <time>2017-05-28T11:54:40Z</time>
      </trkpt>
      <trkpt lat="46.944363" lon="25.965307">
        <ele>1310.011</ele>
        <time>2017-05-28T11:54:52Z</time>
      </trkpt>
      <trkpt lat="46.944432" lon="25.965391">
        <ele>1311.008</ele>
        <time>2017-05-28T11:55:07Z</time>
      </trkpt>
      <trkpt lat="46.944480" lon="25.965504">
        <ele>1306.026</ele>
        <time>2017-05-28T11:55:21Z</time>
      </trkpt>
      <trkpt lat="46.944557" lon="25.965608">
        <ele>1301.092</ele>
        <time>2017-05-28T11:55:30Z</time>
      </trkpt>
      <trkpt lat="46.944620" lon="25.965711">
        <ele>1302.054</ele>
        <time>2017-05-28T11:55:39Z</time>
      </trkpt>
      <trkpt lat="46.944622" lon="25.965858">
        <ele>1301.093</ele>
        <time>2017-05-28T11:55:48Z</time>
      </trkpt>
      <trkpt lat="46.944660" lon="25.965977">
        <ele>1297.097</ele>
        <time>2017-05-28T11:55:58Z</time>
      </trkpt>
      <trkpt lat="46.944722" lon="25.966082">
        <ele>1293.058</ele>
        <time>2017-05-28T11:56:09Z</time>
      </trkpt>
      <trkpt lat="46.944805" lon="25.966151">
        <ele>1289.091</ele>
        <time>2017-05-28T11:56:17Z</time>
      </trkpt>
      <trkpt lat="46.944864" lon="25.966283">
        <ele>1287.016</ele>
        <time>2017-05-28T11:56:28Z</time>
      </trkpt>
      <trkpt lat="46.944914" lon="25.966419">
        <ele>1291.043</ele>
        <time>2017-05-28T11:56:43Z</time>
      </trkpt>
      <trkpt lat="46.944956" lon="25.966542">
        <ele>1290.064</ele>
        <time>2017-05-28T11:56:52Z</time>
      </trkpt>
      <trkpt lat="46.944995" lon="25.966665">
        <ele>1287.010</ele>
        <time>2017-05-28T11:57:03Z</time>
      </trkpt>
      <trkpt lat="46.945072" lon="25.966755">
        <ele>1286.008</ele>
        <time>2017-05-28T11:57:17Z</time>
      </trkpt>
      <trkpt lat="46.945087" lon="25.966886">
        <ele>1284.085</ele>
        <time>2017-05-28T11:57:29Z</time>
      </trkpt>
      <trkpt lat="46.945142" lon="25.966994">
        <ele>1280.031</ele>
        <time>2017-05-28T11:57:52Z</time>
      </trkpt>
      <trkpt lat="46.945190" lon="25.967114">
        <ele>1278.033</ele>
        <time>2017-05-28T11:58:12Z</time>
      </trkpt>
      <trkpt lat="46.945245" lon="25.967220">
        <ele>1275.052</ele>
        <time>2017-05-28T11:58:32Z</time>
      </trkpt>
      <trkpt lat="46.945296" lon="25.967336">
        <ele>1271.086</ele>
        <time>2017-05-28T11:58:49Z</time>
      </trkpt>
      <trkpt lat="46.945282" lon="25.967469">
        <ele>1265.077</ele>
        <time>2017-05-28T11:59:01Z</time>
      </trkpt>
      <trkpt lat="46.945326" lon="25.967599">
        <ele>1265.090</ele>
        <time>2017-05-28T11:59:12Z</time>
      </trkpt>
      <trkpt lat="46.945364" lon="25.967721">
        <ele>1260.085</ele>
        <time>2017-05-28T11:59:20Z</time>
      </trkpt>
      <trkpt lat="46.945399" lon="25.967849">
        <ele>1259.058</ele>
        <time>2017-05-28T11:59:30Z</time>
      </trkpt>
      <trkpt lat="46.945417" lon="25.967992">
        <ele>1250.052</ele>
        <time>2017-05-28T11:59:45Z</time>
      </trkpt>
      <trkpt lat="46.945462" lon="25.968110">
        <ele>1245.017</ele>
        <time>2017-05-28T11:59:59Z</time>
      </trkpt>
      <trkpt lat="46.945500" lon="25.968233">
        <ele>1244.008</ele>
        <time>2017-05-28T12:00:08Z</time>
      </trkpt>
      <trkpt lat="46.945571" lon="25.968328">
        <ele>1246.066</ele>
        <time>2017-05-28T12:00:28Z</time>
      </trkpt>
      <trkpt lat="46.945627" lon="25.968432">
        <ele>1249.022</ele>
        <time>2017-05-28T12:00:44Z</time>
      </trkpt>
      <trkpt lat="46.945667" lon="25.968555">
        <ele>1249.034</ele>
        <time>2017-05-28T12:01:08Z</time>
      </trkpt>
      <trkpt lat="46.945688" lon="25.968683">
        <ele>1241.053</ele>
        <time>2017-05-28T12:01:43Z</time>
      </trkpt>
      <trkpt lat="46.945703" lon="25.968813">
        <ele>1234.047</ele>
        <time>2017-05-28T12:01:58Z</time>
      </trkpt>
      <trkpt lat="46.945676" lon="25.968944">
        <ele>1222.048</ele>
        <time>2017-05-28T12:02:13Z</time>
      </trkpt>
      <trkpt lat="46.945666" lon="25.969090">
        <ele>1220.011</ele>
        <time>2017-05-28T12:02:21Z</time>
      </trkpt>
      <trkpt lat="46.945640" lon="25.969245">
        <ele>1219.066</ele>
        <time>2017-05-28T12:02:29Z</time>
      </trkpt>
      <trkpt lat="46.945654" lon="25.969387">
        <ele>1217.041</ele>
        <time>2017-05-28T12:02:37Z</time>
      </trkpt>
      <trkpt lat="46.945623" lon="25.969525">
        <ele>1210.081</ele>
        <time>2017-05-28T12:02:45Z</time>
      </trkpt>
      <trkpt lat="46.945653" lon="25.969653">
        <ele>1203.009</ele>
        <time>2017-05-28T12:02:57Z</time>
      </trkpt>
      <trkpt lat="46.945609" lon="25.969792">
        <ele>1202.008</ele>
        <time>2017-05-28T12:03:11Z</time>
      </trkpt>
      <trkpt lat="46.945574" lon="25.969924">
        <ele>1201.035</ele>
        <time>2017-05-28T12:03:18Z</time>
      </trkpt>
      <trkpt lat="46.945545" lon="25.970053">
        <ele>1199.091</ele>
        <time>2017-05-28T12:03:27Z</time>
      </trkpt>
      <trkpt lat="46.945538" lon="25.970199">
        <ele>1201.093</ele>
        <time>2017-05-28T12:03:38Z</time>
      </trkpt>
      <trkpt lat="46.945507" lon="25.970327">
        <ele>1199.012</ele>
        <time>2017-05-28T12:03:47Z</time>
      </trkpt>
      <trkpt lat="46.945590" lon="25.970383">
        <ele>1200.076</ele>
        <time>2017-05-28T12:03:57Z</time>
      </trkpt>
      <trkpt lat="46.945648" lon="25.970483">
        <ele>1201.057</ele>
        <time>2017-05-28T12:04:28Z</time>
      </trkpt>
      <trkpt lat="46.945714" lon="25.970576">
        <ele>1196.030</ele>
        <time>2017-05-28T12:04:37Z</time>
      </trkpt>
      <trkpt lat="46.945821" lon="25.970602">
        <ele>1193.085</ele>
        <time>2017-05-28T12:04:46Z</time>
      </trkpt>
      <trkpt lat="46.945914" lon="25.970622">
        <ele>1190.093</ele>
        <time>2017-05-28T12:04:52Z</time>
      </trkpt>
      <trkpt lat="46.945922" lon="25.970774">
        <ele>1193.065</ele>
        <time>2017-05-28T12:05:05Z</time>
      </trkpt>
      <trkpt lat="46.945953" lon="25.970898">
        <ele>1197.021</ele>
        <time>2017-05-28T12:05:29Z</time>
      </trkpt>
      <trkpt lat="46.946005" lon="25.971011">
        <ele>1194.008</ele>
        <time>2017-05-28T12:05:43Z</time>
      </trkpt>
      <trkpt lat="46.946075" lon="25.971108">
        <ele>1187.010</ele>
        <time>2017-05-28T12:05:55Z</time>
      </trkpt>
      <trkpt lat="46.946158" lon="25.971169">
        <ele>1188.096</ele>
        <time>2017-05-28T12:06:04Z</time>
      </trkpt>
      <trkpt lat="46.946248" lon="25.971188">
        <ele>1189.068</ele>
        <time>2017-05-28T12:06:11Z</time>
      </trkpt>
      <trkpt lat="46.946332" lon="25.971274">
        <ele>1193.077</ele>
        <time>2017-05-28T12:06:17Z</time>
      </trkpt>
      <trkpt lat="46.946374" lon="25.971401">
        <ele>1196.061</ele>
        <time>2017-05-28T12:06:23Z</time>
      </trkpt>
      <trkpt lat="46.946463" lon="25.971452">
        <ele>1183.022</ele>
        <time>2017-05-28T12:06:35Z</time>
      </trkpt>
      <trkpt lat="46.946564" lon="25.971388">
        <ele>1183.065</ele>
        <time>2017-05-28T12:06:45Z</time>
      </trkpt>
      <trkpt lat="46.946653" lon="25.971303">
        <ele>1176.060</ele>
        <time>2017-05-28T12:06:56Z</time>
      </trkpt>
      <trkpt lat="46.946734" lon="25.971237">
        <ele>1172.079</ele>
        <time>2017-05-28T12:07:03Z</time>
      </trkpt>
      <trkpt lat="46.946800" lon="25.971117">
        <ele>1170.005</ele>
        <time>2017-05-28T12:07:28Z</time>
      </trkpt>
      <trkpt lat="46.946887" lon="25.971043">
        <ele>1165.025</ele>
        <time>2017-05-28T12:07:38Z</time>
      </trkpt>
      <trkpt lat="46.946976" lon="25.971019">
        <ele>1171.008</ele>
        <time>2017-05-28T12:07:47Z</time>
      </trkpt>
      <trkpt lat="46.947067" lon="25.970976">
        <ele>1174.088</ele>
        <time>2017-05-28T12:07:52Z</time>
      </trkpt>
      <trkpt lat="46.947151" lon="25.970918">
        <ele>1169.054</ele>
        <time>2017-05-28T12:08:00Z</time>
      </trkpt>
      <trkpt lat="46.947220" lon="25.970831">
        <ele>1158.026</ele>
        <time>2017-05-28T12:08:11Z</time>
      </trkpt>
      <trkpt lat="46.947270" lon="25.970708">
        <ele>1148.055</ele>
        <time>2017-05-28T12:08:23Z</time>
      </trkpt>
      <trkpt lat="46.947340" lon="25.970587">
        <ele>1148.019</ele>
        <time>2017-05-28T12:08:33Z</time>
      </trkpt>
      <trkpt lat="46.947418" lon="25.970518">
        <ele>1150.010</ele>
        <time>2017-05-28T12:08:43Z</time>
      </trkpt>
      <trkpt lat="46.947467" lon="25.970403">
        <ele>1149.093</ele>
        <time>2017-05-28T12:08:55Z</time>
      </trkpt>
      <trkpt lat="46.947509" lon="25.970279">
        <ele>1149.048</ele>
        <time>2017-05-28T12:09:07Z</time>
      </trkpt>
      <trkpt lat="46.947593" lon="25.970149">
        <ele>1144.075</ele>
        <time>2017-05-28T12:09:17Z</time>
      </trkpt>
      <trkpt lat="46.947664" lon="25.970050">
        <ele>1145.028</ele>
        <time>2017-05-28T12:09:23Z</time>
      </trkpt>
      <trkpt lat="46.947736" lon="25.969904">
        <ele>1142.020</ele>
        <time>2017-05-28T12:09:33Z</time>
      </trkpt>
      <trkpt lat="46.947813" lon="25.969820">
        <ele>1150.008</ele>
        <time>2017-05-28T12:09:36Z</time>
      </trkpt>
      <trkpt lat="46.947844" lon="25.969686">
        <ele>1140.058</ele>
        <time>2017-05-28T12:10:03Z</time>
      </trkpt>
      <trkpt lat="46.947910" lon="25.969571">
        <ele>1133.024</ele>
        <time>2017-05-28T12:10:14Z</time>
      </trkpt>
      <trkpt lat="46.947978" lon="25.969455">
        <ele>1130.026</ele>
        <time>2017-05-28T12:10:22Z</time>
      </trkpt>
      <trkpt lat="46.948005" lon="25.969314">
        <ele>1127.035</ele>
        <time>2017-05-28T12:10:35Z</time>
      </trkpt>
      <trkpt lat="46.948034" lon="25.969162">
        <ele>1125.049</ele>
        <time>2017-05-28T12:10:42Z</time>
      </trkpt>
      <trkpt lat="46.948071" lon="25.969042">
        <ele>1124.050</ele>
        <time>2017-05-28T12:10:50Z</time>
      </trkpt>
      <trkpt lat="46.948157" lon="25.969100">
        <ele>1122.063</ele>
        <time>2017-05-28T12:11:03Z</time>
      </trkpt>
      <trkpt lat="46.948198" lon="25.969229">
        <ele>1124.018</ele>
        <time>2017-05-28T12:11:17Z</time>
      </trkpt>
      <trkpt lat="46.948194" lon="25.969372">
        <ele>1124.022</ele>
        <time>2017-05-28T12:11:25Z</time>
      </trkpt>
      <trkpt lat="46.948161" lon="25.969495">
        <ele>1131.062</ele>
        <time>2017-05-28T12:11:35Z</time>
      </trkpt>
      <trkpt lat="46.948209" lon="25.969628">
        <ele>1136.008</ele>
        <time>2017-05-28T12:11:44Z</time>
      </trkpt>
      <trkpt lat="46.948242" lon="25.969759">
        <ele>1131.008</ele>
        <time>2017-05-28T12:11:57Z</time>
      </trkpt>
      <trkpt lat="46.948322" lon="25.969822">
        <ele>1129.013</ele>
        <time>2017-05-28T12:12:03Z</time>
      </trkpt>
      <trkpt lat="46.948354" lon="25.969961">
        <ele>1120.019</ele>
        <time>2017-05-28T12:12:12Z</time>
      </trkpt>
      <trkpt lat="46.948349" lon="25.970111">
        <ele>1116.091</ele>
        <time>2017-05-28T12:12:21Z</time>
      </trkpt>
      <trkpt lat="46.948399" lon="25.970235">
        <ele>1111.070</ele>
        <time>2017-05-28T12:12:32Z</time>
      </trkpt>
      <trkpt lat="46.948417" lon="25.970369">
        <ele>1102.074</ele>
        <time>2017-05-28T12:12:54Z</time>
      </trkpt>
      <trkpt lat="46.948505" lon="25.970401">
        <ele>1091.025</ele>
        <time>2017-05-28T12:13:39Z</time>
      </trkpt>
      <trkpt lat="46.948570" lon="25.970500">
        <ele>1096.018</ele>
        <time>2017-05-28T12:13:45Z</time>
      </trkpt>
      <trkpt lat="46.948625" lon="25.970634">
        <ele>1100.083</ele>
        <time>2017-05-28T12:13:55Z</time>
      </trkpt>
      <trkpt lat="46.948632" lon="25.970773">
        <ele>1100.017</ele>
        <time>2017-05-28T12:14:04Z</time>
      </trkpt>
      <trkpt lat="46.948684" lon="25.970888">
        <ele>1105.087</ele>
        <time>2017-05-28T12:14:11Z</time>
      </trkpt>
      <trkpt lat="46.948729" lon="25.971024">
        <ele>1105.015</ele>
        <time>2017-05-28T12:14:31Z</time>
      </trkpt>
      <trkpt lat="46.948722" lon="25.971162">
        <ele>1105.008</ele>
        <time>2017-05-28T12:14:39Z</time>
      </trkpt>
      <trkpt lat="46.948758" lon="25.971300">
        <ele>1099.052</ele>
        <time>2017-05-28T12:14:50Z</time>
      </trkpt>
      <trkpt lat="46.948821" lon="25.971409">
        <ele>1094.018</ele>
        <time>2017-05-28T12:15:03Z</time>
      </trkpt>
      <trkpt lat="46.948912" lon="25.971438">
        <ele>1086.010</ele>
        <time>2017-05-28T12:15:09Z</time>
      </trkpt>
      <trkpt lat="46.948961" lon="25.971562">
        <ele>1086.059</ele>
        <time>2017-05-28T12:15:21Z</time>
      </trkpt>
      <trkpt lat="46.949019" lon="25.971673">
        <ele>1084.043</ele>
        <time>2017-05-28T12:15:32Z</time>
      </trkpt>
      <trkpt lat="46.949088" lon="25.971761">
        <ele>1081.034</ele>
        <time>2017-05-28T12:15:43Z</time>
      </trkpt>
      <trkpt lat="46.949128" lon="25.971887">
        <ele>1070.067</ele>
        <time>2017-05-28T12:15:57Z</time>
      </trkpt>
      <trkpt lat="46.949171" lon="25.972003">
        <ele>1070.062</ele>
        <time>2017-05-28T12:16:05Z</time>
      </trkpt>
      <trkpt lat="46.949222" lon="25.972114">
        <ele>1072.069</ele>
        <time>2017-05-28T12:16:14Z</time>
      </trkpt>
      <trkpt lat="46.949244" lon="25.972243">
        <ele>1077.004</ele>
        <time>2017-05-28T12:16:21Z</time>
      </trkpt>
      <trkpt lat="46.949255" lon="25.972376">
        <ele>1083.024</ele>
        <time>2017-05-28T12:16:27Z</time>
      </trkpt>
      <trkpt lat="46.949322" lon="25.972483">
        <ele>1083.008</ele>
        <time>2017-05-28T12:16:39Z</time>
      </trkpt>
      <trkpt lat="46.949371" lon="25.972608">
        <ele>1083.067</ele>
        <time>2017-05-28T12:16:47Z</time>
      </trkpt>
      <trkpt lat="46.949420" lon="25.972730">
        <ele>1071.013</ele>
        <time>2017-05-28T12:17:01Z</time>
      </trkpt>
      <trkpt lat="46.949491" lon="25.972827">
        <ele>1070.075</ele>
        <time>2017-05-28T12:17:08Z</time>
      </trkpt>
      <trkpt lat="46.949542" lon="25.972954">
        <ele>1066.014</ele>
        <time>2017-05-28T12:17:22Z</time>
      </trkpt>
      <trkpt lat="46.949596" lon="25.973076">
        <ele>1067.018</ele>
        <time>2017-05-28T12:17:43Z</time>
      </trkpt>
      <trkpt lat="46.949636" lon="25.973195">
        <ele>1061.089</ele>
        <time>2017-05-28T12:17:58Z</time>
      </trkpt>
      <trkpt lat="46.949709" lon="25.973272">
        <ele>1063.012</ele>
        <time>2017-05-28T12:18:08Z</time>
      </trkpt>
      <trkpt lat="46.949766" lon="25.973387">
        <ele>1061.017</ele>
        <time>2017-05-28T12:18:21Z</time>
      </trkpt>
      <trkpt lat="46.949824" lon="25.973494">
        <ele>1065.067</ele>
        <time>2017-05-28T12:18:29Z</time>
      </trkpt>
      <trkpt lat="46.949909" lon="25.973552">
        <ele>1068.081</ele>
        <time>2017-05-28T12:18:38Z</time>
      </trkpt>
      <trkpt lat="46.949917" lon="25.973690">
        <ele>1062.019</ele>
        <time>2017-05-28T12:18:55Z</time>
      </trkpt>
      <trkpt lat="46.949948" lon="25.973822">
        <ele>1060.008</ele>
        <time>2017-05-28T12:19:05Z</time>
      </trkpt>
      <trkpt lat="46.949991" lon="25.973943">
        <ele>1059.027</ele>
        <time>2017-05-28T12:19:14Z</time>
      </trkpt>
      <trkpt lat="46.950030" lon="25.974074">
        <ele>1055.023</ele>
        <time>2017-05-28T12:19:22Z</time>
      </trkpt>
      <trkpt lat="46.950114" lon="25.974152">
        <ele>1049.095</ele>
        <time>2017-05-28T12:19:32Z</time>
      </trkpt>
      <trkpt lat="46.950093" lon="25.974284">
        <ele>1043.094</ele>
        <time>2017-05-28T12:19:40Z</time>
      </trkpt>
      <trkpt lat="46.950101" lon="25.974425">
        <ele>1039.038</ele>
        <time>2017-05-28T12:19:51Z</time>
      </trkpt>
      <trkpt lat="46.950172" lon="25.974523">
        <ele>1035.099</ele>
        <time>2017-05-28T12:19:59Z</time>
      </trkpt>
      <trkpt lat="46.950240" lon="25.974615">
        <ele>1034.042</ele>
        <time>2017-05-28T12:20:12Z</time>
      </trkpt>
      <trkpt lat="46.950214" lon="25.974763">
        <ele>1033.037</ele>
        <time>2017-05-28T12:20:18Z</time>
      </trkpt>
      <trkpt lat="46.950199" lon="25.974914">
        <ele>1028.044</ele>
        <time>2017-05-28T12:20:28Z</time>
      </trkpt>
      <trkpt lat="46.950254" lon="25.975021">
        <ele>1030.005</ele>
        <time>2017-05-28T12:20:31Z</time>
      </trkpt>
      <trkpt lat="46.950283" lon="25.975158">
        <ele>1029.015</ele>
        <time>2017-05-28T12:20:36Z</time>
      </trkpt>
      <trkpt lat="46.950325" lon="25.975283">
        <ele>1030.008</ele>
        <time>2017-05-28T12:20:44Z</time>
      </trkpt>
      <trkpt lat="46.950339" lon="25.975419">
        <ele>1029.085</ele>
        <time>2017-05-28T12:20:51Z</time>
      </trkpt>
      <trkpt lat="46.950415" lon="25.975494">
        <ele>1028.011</ele>
        <time>2017-05-28T12:20:59Z</time>
      </trkpt>
      <trkpt lat="46.950477" lon="25.975590">
        <ele>1015.063</ele>
        <time>2017-05-28T12:21:10Z</time>
      </trkpt>
      <trkpt lat="46.950551" lon="25.975695">
        <ele>1008.072</ele>
        <time>2017-05-28T12:21:20Z</time>
      </trkpt>
      <trkpt lat="46.950607" lon="25.975812">
        <ele>1001.056</ele>
        <time>2017-05-28T12:21:32Z</time>
      </trkpt>
      <trkpt lat="46.950656" lon="25.975926">
        <ele>1007.047</ele>
        <time>2017-05-28T12:21:40Z</time>
      </trkpt>
      <trkpt lat="46.950720" lon="25.976019">
        <ele>1005.030</ele>
        <time>2017-05-28T12:21:50Z</time>
      </trkpt>
      <trkpt lat="46.950763" lon="25.976143">
        <ele>1005.065</ele>
        <time>2017-05-28T12:21:58Z</time>
      </trkpt>
      <trkpt lat="46.950842" lon="25.976220">
        <ele>1005.033</ele>
        <time>2017-05-28T12:22:08Z</time>
      </trkpt>
      <trkpt lat="46.950887" lon="25.976349">
        <ele>1005.023</ele>
        <time>2017-05-28T12:22:18Z</time>
      </trkpt>
      <trkpt lat="46.950940" lon="25.976484">
        <ele>1007.015</ele>
        <time>2017-05-28T12:22:26Z</time>
      </trkpt>
      <trkpt lat="46.950923" lon="25.976640">
        <ele>1004.008</ele>
        <time>2017-05-28T12:22:36Z</time>
      </trkpt>
      <trkpt lat="46.950878" lon="25.976768">
        <ele>997.094</ele>
        <time>2017-05-28T12:22:48Z</time>
      </trkpt>
      <trkpt lat="46.950935" lon="25.976887">
        <ele>987.050</ele>
        <time>2017-05-28T12:23:04Z</time>
      </trkpt>
      <trkpt lat="46.950935" lon="25.977024">
        <ele>989.062</ele>
        <time>2017-05-28T12:23:16Z</time>
      </trkpt>
      <trkpt lat="46.950925" lon="25.977157">
        <ele>985.011</ele>
        <time>2017-05-28T12:23:31Z</time>
      </trkpt>
      <trkpt lat="46.950931" lon="25.977298">
        <ele>987.035</ele>
        <time>2017-05-28T12:23:38Z</time>
      </trkpt>
      <trkpt lat="46.950943" lon="25.977437">
        <ele>983.036</ele>
        <time>2017-05-28T12:23:44Z</time>
      </trkpt>
      <trkpt lat="46.950996" lon="25.977564">
        <ele>980.019</ele>
        <time>2017-05-28T12:23:59Z</time>
      </trkpt>
      <trkpt lat="46.951008" lon="25.977697">
        <ele>986.094</ele>
        <time>2017-05-28T12:24:08Z</time>
      </trkpt>
      <trkpt lat="46.951040" lon="25.977837">
        <ele>988.096</ele>
        <time>2017-05-28T12:24:18Z</time>
      </trkpt>
      <trkpt lat="46.951087" lon="25.977970">
        <ele>983.031</ele>
        <time>2017-05-28T12:24:26Z</time>
      </trkpt>
      <trkpt lat="46.951135" lon="25.978088">
        <ele>981.024</ele>
        <time>2017-05-28T12:24:33Z</time>
      </trkpt>
      <trkpt lat="46.951196" lon="25.978189">
        <ele>975.008</ele>
        <time>2017-05-28T12:24:44Z</time>
      </trkpt>
      <trkpt lat="46.951263" lon="25.978278">
        <ele>977.090</ele>
        <time>2017-05-28T12:24:51Z</time>
      </trkpt>
      <trkpt lat="46.951281" lon="25.978417">
        <ele>981.046</ele>
        <time>2017-05-28T12:24:58Z</time>
      </trkpt>
      <trkpt lat="46.951335" lon="25.978532">
        <ele>983.058</ele>
        <time>2017-05-28T12:25:07Z</time>
      </trkpt>
      <trkpt lat="46.951397" lon="25.978640">
        <ele>976.067</ele>
        <time>2017-05-28T12:25:16Z</time>
      </trkpt>
      <trkpt lat="46.951430" lon="25.978773">
        <ele>970.081</ele>
        <time>2017-05-28T12:25:26Z</time>
      </trkpt>
      <trkpt lat="46.951473" lon="25.978888">
        <ele>968.022</ele>
        <time>2017-05-28T12:25:36Z</time>
      </trkpt>
      <trkpt lat="46.951478" lon="25.979077">
        <ele>968.045</ele>
        <time>2017-05-28T12:25:54Z</time>
      </trkpt>
      <trkpt lat="46.951500" lon="25.979205">
        <ele>967.020</ele>
        <time>2017-05-28T12:26:00Z</time>
      </trkpt>
      <trkpt lat="46.951516" lon="25.979348">
        <ele>977.078</ele>
        <time>2017-05-28T12:26:09Z</time>
      </trkpt>
      <trkpt lat="46.951528" lon="25.979511">
        <ele>981.033</ele>
        <time>2017-05-28T12:26:18Z</time>
      </trkpt>
      <trkpt lat="46.951548" lon="25.979640">
        <ele>971.026</ele>
        <time>2017-05-28T12:26:29Z</time>
      </trkpt>
      <trkpt lat="46.951582" lon="25.979771">
        <ele>964.008</ele>
        <time>2017-05-28T12:26:39Z</time>
      </trkpt>
      <trkpt lat="46.951676" lon="25.979863">
        <ele>957.088</ele>
        <time>2017-05-28T12:26:49Z</time>
      </trkpt>
      <trkpt lat="46.951751" lon="25.979943">
        <ele>945.044</ele>
        <time>2017-05-28T12:27:03Z</time>
      </trkpt>
      <trkpt lat="46.951808" lon="25.980058">
        <ele>945.026</ele>
        <time>2017-05-28T12:27:15Z</time>
      </trkpt>
      <trkpt lat="46.951884" lon="25.980157">
        <ele>947.065</ele>
        <time>2017-05-28T12:27:20Z</time>
      </trkpt>
      <trkpt lat="46.951961" lon="25.980224">
        <ele>948.079</ele>
        <time>2017-05-28T12:27:26Z</time>
      </trkpt>
      <trkpt lat="46.952039" lon="25.980293">
        <ele>944.030</ele>
        <time>2017-05-28T12:27:32Z</time>
      </trkpt>
      <trkpt lat="46.952140" lon="25.980260">
        <ele>940.043</ele>
        <time>2017-05-28T12:27:37Z</time>
      </trkpt>
      <trkpt lat="46.952145" lon="25.980393">
        <ele>935.038</ele>
        <time>2017-05-28T12:27:46Z</time>
      </trkpt>
      <trkpt lat="46.952189" lon="25.980528">
        <ele>933.097</ele>
        <time>2017-05-28T12:27:56Z</time>
      </trkpt>
      <trkpt lat="46.952254" lon="25.980624">
        <ele>939.023</ele>
        <time>2017-05-28T12:28:04Z</time>
      </trkpt>
      <trkpt lat="46.952285" lon="25.980749">
        <ele>935.025</ele>
        <time>2017-05-28T12:28:13Z</time>
      </trkpt>
      <trkpt lat="46.952312" lon="25.980878">
        <ele>932.008</ele>
        <time>2017-05-28T12:28:22Z</time>
      </trkpt>
      <trkpt lat="46.952363" lon="25.980993">
        <ele>930.030</ele>
        <time>2017-05-28T12:28:40Z</time>
      </trkpt>
      <trkpt lat="46.952394" lon="25.981129">
        <ele>928.056</ele>
        <time>2017-05-28T12:28:49Z</time>
      </trkpt>
      <trkpt lat="46.952404" lon="25.981272">
        <ele>931.098</ele>
        <time>2017-05-28T12:28:59Z</time>
      </trkpt>
      <trkpt lat="46.952413" lon="25.981406">
        <ele>932.077</ele>
        <time>2017-05-28T12:29:05Z</time>
      </trkpt>
      <trkpt lat="46.952430" lon="25.981541">
        <ele>928.091</ele>
        <time>2017-05-28T12:29:18Z</time>
      </trkpt>
      <trkpt lat="46.952510" lon="25.981630">
        <ele>924.012</ele>
        <time>2017-05-28T12:29:25Z</time>
      </trkpt>
      <trkpt lat="46.952589" lon="25.981714">
        <ele>923.065</ele>
        <time>2017-05-28T12:29:32Z</time>
      </trkpt>
      <trkpt lat="46.952633" lon="25.981852">
        <ele>929.050</ele>
        <time>2017-05-28T12:29:38Z</time>
      </trkpt>
      <trkpt lat="46.952702" lon="25.981939">
        <ele>929.028</ele>
        <time>2017-05-28T12:29:50Z</time>
      </trkpt>
      <trkpt lat="46.952737" lon="25.982094">
        <ele>929.089</ele>
        <time>2017-05-28T12:30:01Z</time>
      </trkpt>
      <trkpt lat="46.952803" lon="25.982234">
        <ele>927.017</ele>
        <time>2017-05-28T12:30:09Z</time>
      </trkpt>
      <trkpt lat="46.952872" lon="25.982321">
        <ele>927.008</ele>
        <time>2017-05-28T12:30:15Z</time>
      </trkpt>
      <trkpt lat="46.952883" lon="25.982479">
        <ele>934.013</ele>
        <time>2017-05-28T12:30:21Z</time>
      </trkpt>
      <trkpt lat="46.952956" lon="25.982558">
        <ele>928.049</ele>
        <time>2017-05-28T12:30:30Z</time>
      </trkpt>
      <trkpt lat="46.952986" lon="25.982691">
        <ele>921.091</ele>
        <time>2017-05-28T12:30:43Z</time>
      </trkpt>
      <trkpt lat="46.952988" lon="25.982843">
        <ele>921.030</ele>
        <time>2017-05-28T12:30:51Z</time>
      </trkpt>
      <trkpt lat="46.953034" lon="25.982977">
        <ele>921.084</ele>
        <time>2017-05-28T12:31:01Z</time>
      </trkpt>
      <trkpt lat="46.953032" lon="25.983127">
        <ele>920.045</ele>
        <time>2017-05-28T12:31:09Z</time>
      </trkpt>
      <trkpt lat="46.953029" lon="25.983259">
        <ele>920.088</ele>
        <time>2017-05-28T12:31:18Z</time>
      </trkpt>
      <trkpt lat="46.953015" lon="25.983396">
        <ele>922.073</ele>
        <time>2017-05-28T12:31:26Z</time>
      </trkpt>
      <trkpt lat="46.953059" lon="25.983521">
        <ele>928.057</ele>
        <time>2017-05-28T12:31:39Z</time>
      </trkpt>
      <trkpt lat="46.953103" lon="25.983659">
        <ele>925.000</ele>
        <time>2017-05-28T12:31:53Z</time>
      </trkpt>
      <trkpt lat="46.953150" lon="25.983778">
        <ele>925.020</ele>
        <time>2017-05-28T12:32:00Z</time>
      </trkpt>
      <trkpt lat="46.953189" lon="25.983906">
        <ele>914.008</ele>
        <time>2017-05-28T12:32:11Z</time>
      </trkpt>
      <trkpt lat="46.953238" lon="25.984031">
        <ele>906.036</ele>
        <time>2017-05-28T12:32:21Z</time>
      </trkpt>
      <trkpt lat="46.953266" lon="25.984185">
        <ele>903.062</ele>
        <time>2017-05-28T12:32:28Z</time>
      </trkpt>
      <trkpt lat="46.953296" lon="25.984315">
        <ele>907.044</ele>
        <time>2017-05-28T12:32:35Z</time>
      </trkpt>
      <trkpt lat="46.953318" lon="25.984457">
        <ele>903.043</ele>
        <time>2017-05-28T12:32:49Z</time>
      </trkpt>
      <trkpt lat="46.953354" lon="25.984593">
        <ele>899.067</ele>
        <time>2017-05-28T12:32:59Z</time>
      </trkpt>
      <trkpt lat="46.953365" lon="25.984725">
        <ele>894.058</ele>
        <time>2017-05-28T12:33:10Z</time>
      </trkpt>
      <trkpt lat="46.953406" lon="25.984846">
        <ele>891.091</ele>
        <time>2017-05-28T12:33:23Z</time>
      </trkpt>
      <trkpt lat="46.953417" lon="25.984993">
        <ele>892.046</ele>
        <time>2017-05-28T12:33:31Z</time>
      </trkpt>
      <trkpt lat="46.953440" lon="25.985131">
        <ele>887.054</ele>
        <time>2017-05-28T12:33:39Z</time>
      </trkpt>
      <trkpt lat="46.953477" lon="25.985276">
        <ele>891.056</ele>
        <time>2017-05-28T12:33:53Z</time>
      </trkpt>
      <trkpt lat="46.953498" lon="25.985429">
        <ele>892.011</ele>
        <time>2017-05-28T12:34:01Z</time>
      </trkpt>
      <trkpt lat="46.953550" lon="25.985544">
        <ele>892.008</ele>
        <time>2017-05-28T12:34:08Z</time>
      </trkpt>
      <trkpt lat="46.953559" lon="25.985695">
        <ele>891.036</ele>
        <time>2017-05-28T12:34:16Z</time>
      </trkpt>
      <trkpt lat="46.953603" lon="25.985828">
        <ele>883.042</ele>
        <time>2017-05-28T12:34:26Z</time>
      </trkpt>
      <trkpt lat="46.953617" lon="25.985966">
        <ele>878.094</ele>
        <time>2017-05-28T12:34:35Z</time>
      </trkpt>
      <trkpt lat="46.953614" lon="25.986106">
        <ele>876.033</ele>
        <time>2017-05-28T12:34:46Z</time>
      </trkpt>
      <trkpt lat="46.953617" lon="25.986240">
        <ele>874.037</ele>
        <time>2017-05-28T12:34:56Z</time>
      </trkpt>
      <trkpt lat="46.953638" lon="25.986371">
        <ele>874.068</ele>
        <time>2017-05-28T12:35:05Z</time>
      </trkpt>
      <trkpt lat="46.953641" lon="25.986505">
        <ele>872.031</ele>
        <time>2017-05-28T12:35:14Z</time>
      </trkpt>
      <trkpt lat="46.953648" lon="25.986638">
        <ele>867.046</ele>
        <time>2017-05-28T12:35:24Z</time>
      </trkpt>
      <trkpt lat="46.953625" lon="25.986785">
        <ele>857.092</ele>
        <time>2017-05-28T12:35:36Z</time>
      </trkpt>
      <trkpt lat="46.953609" lon="25.986920">
        <ele>861.073</ele>
        <time>2017-05-28T12:35:43Z</time>
      </trkpt>
      <trkpt lat="46.953551" lon="25.987108">
        <ele>859.020</ele>
        <time>2017-05-28T12:36:06Z</time>
      </trkpt>
      <trkpt lat="46.953526" lon="25.987253">
        <ele>859.008</ele>
        <time>2017-05-28T12:36:13Z</time>
      </trkpt>
      <trkpt lat="46.953506" lon="25.987415">
        <ele>861.080</ele>
        <time>2017-05-28T12:36:20Z</time>
      </trkpt>
      <trkpt lat="46.953522" lon="25.987567">
        <ele>858.036</ele>
        <time>2017-05-28T12:36:28Z</time>
      </trkpt>
      <trkpt lat="46.953512" lon="25.987716">
        <ele>858.078</ele>
        <time>2017-05-28T12:36:35Z</time>
      </trkpt>
      <trkpt lat="46.953520" lon="25.987860">
        <ele>857.097</ele>
        <time>2017-05-28T12:36:43Z</time>
      </trkpt>
      <trkpt lat="46.953522" lon="25.988011">
        <ele>856.091</ele>
        <time>2017-05-28T12:36:50Z</time>
      </trkpt>
      <trkpt lat="46.953610" lon="25.988049">
        <ele>843.062</ele>
        <time>2017-05-28T12:38:04Z</time>
      </trkpt>
      <trkpt lat="46.953692" lon="25.988127">
        <ele>844.025</ele>
        <time>2017-05-28T12:38:34Z</time>
      </trkpt>
      <trkpt lat="46.953782" lon="25.988155">
        <ele>844.070</ele>
        <time>2017-05-28T12:38:41Z</time>
      </trkpt>
      <trkpt lat="46.953863" lon="25.988219">
        <ele>840.088</ele>
        <time>2017-05-28T12:38:50Z</time>
      </trkpt>
      <trkpt lat="46.953926" lon="25.988327">
        <ele>845.024</ele>
        <time>2017-05-28T12:38:59Z</time>
      </trkpt>
      <trkpt lat="46.953989" lon="25.988433">
        <ele>846.026</ele>
        <time>2017-05-28T12:39:06Z</time>
      </trkpt>
      <trkpt lat="46.954029" lon="25.988551">
        <ele>841.008</ele>
        <time>2017-05-28T12:39:14Z</time>
      </trkpt>
      <trkpt lat="46.954035" lon="25.988688">
        <ele>836.099</ele>
        <time>2017-05-28T12:39:25Z</time>
      </trkpt>
      <trkpt lat="46.954001" lon="25.988814">
        <ele>828.095</ele>
        <time>2017-05-28T12:39:37Z</time>
      </trkpt>
      <trkpt lat="46.953972" lon="25.988939">
        <ele>825.027</ele>
        <time>2017-05-28T12:39:51Z</time>
      </trkpt>
      <trkpt lat="46.953965" lon="25.989070">
        <ele>827.046</ele>
        <time>2017-05-28T12:41:05Z</time>
      </trkpt>
    </trkseg>
  </trk></gpx>