<?xml version="1.0" encoding="UTF-8"?>
<gpx creator="Wikiloc - https://www.wikiloc.com" version="1.1" xmlns="http://www.topografix.com/GPX/1/1" xmlns:xsi="http://www.w3.org/2001/XMLSchema-instance" xsi:schemaLocation="http://www.topografix.com/GPX/1/1 http://www.topografix.com/GPX/1/1/gpx.xsd">
  <metadata>
    <name>Wikiloc - Izvorul Muntelui - Cabana Dochia</name>
    <author>
      <name>Toni Grecu</name>
      <link href="https://www.wikiloc.com/wikiloc/user.do?id=2082631">
        <text>Toni Grecu on Wikiloc</text>
      </link>
    </author>
    <link href="https://www.wikiloc.com/hiking-trails/izvorul-muntelui-cabana-dochia-17982329">
      <text>Izvorul Muntelui - Cabana Dochia on Wikiloc</text>
    </link>
    <time>2017-05-26T13:50:08Z</time>
  </metadata>
  <trk>
    <name>Izvorul Muntelui - Cabana Dochia - Wikiloc</name>
    <cmt>Izvorul Muntelui - Curmatura Lutu Rosu - Politele cu Crini - Piatra cu Apa - Detunatele - Cabana Dochia (Banda Albastra) 
 
Cabana Dochia este situata în zona superioară a masivului Ceahlau, pe platou, între vîrfurile Lespezi (1 805 m) şi Bîtca Gheodon (1 845 m). Are o poziţie dominantă, cu vizibilitate totală spre est, sud-est şi sud, şi este principala cabană a Munţilor Ceahlău, fiind singura bază de cazare la mare altitudine. 
Altitudine: 1750 m. 
 
 Căi de acces: Pe poteci turistice marcate, de la baza muntelui, din toate punctele cardinale; din satul Ceahlău în 4½–5 ore; din localităţile Izvorul Alb sau Secu în 5½-6 ore; de la cabana Izvorul Muntelui în 3–3½ sau 4–4½ ore; din satul Neagra în 6-7 ore; din satul Telec în 5-5½ ore; din satul Pintic în 5½-6 ore; din staţiunea Durău în 3–4½ ore. 
 
 Construcţia cabanei a început în primăvara anului 1913 şi a fost finalizată în toamna aceluiaşi an. Este prima cabană turistică construită în Carpaţii Răsăriteni. De-a lungul anilor a fost extinsă în repetate rânduri, iar capacitatea de cazare s-a mărit treptat. 
Ca urmare a deteriorării grave a adăpostului montan în timpul primului război mondial, au fost efectuate importante lucrări de restaurare. La 6 august 1922, cu ocazia sărbătoririi Ceahlăului (Ziua Muntelui cum spun localnicii), refăcută, cabana cuaproximativ 30 de locuri, a fost pusă din nou la dispoziţia drumeţilor, de astă dată pentru un timp îndelungat. La inaugurare au fost prezente 606 persoane. 
Următoarea refacere a cabanei a avut loc în anul 1946, iar în anii 1958–1959 a fost extinsă pentru a putea primi mai mulţi turişti (120 locuri). Încăperi vechi au fost completate cu altele noi, cu ziduri din piatră fixată cu mortar şi a fost introdusă lumina electrică. 
În anul 1962 cabana putea găzdui 150 turişti la priciuri. În anii 1984-1988, capacitatea şi condiţiile de confort ale cabanei au crescut prin adăugarea unei noi aripi, cu trei niveluri.</cmt>
    <desc>Izvorul Muntelui - Curmatura Lutu Rosu - Politele cu Crini - Piatra cu Apa - Detunatele - Cabana Dochia (Banda Albastra) 
 
Cabana Dochia este situata în zona superioară a masivului Ceahlau, pe platou, între vîrfurile Lespezi (1 805 m) şi Bîtca Gheodon (1 845 m). Are o poziţie dominantă, cu vizibilitate totală spre est, sud-est şi sud, şi este principala cabană a Munţilor Ceahlău, fiind singura bază de cazare la mare altitudine. 
Altitudine: 1750 m. 
 
 Căi de acces: Pe poteci turistice marcate, de la baza muntelui, din toate punctele cardinale; din satul Ceahlău în 4½–5 ore; din localităţile Izvorul Alb sau Secu în 5½-6 ore; de la cabana Izvorul Muntelui în 3–3½ sau 4–4½ ore; din satul Neagra în 6-7 ore; din satul Telec în 5-5½ ore; din satul Pintic în 5½-6 ore; din staţiunea Durău în 3–4½ ore. 
 
 Construcţia cabanei a început în primăvara anului 1913 şi a fost finalizată în toamna aceluiaşi an. Este prima cabană turistică construită în Carpaţii Răsăriteni. De-a lungul anilor a fost extinsă în repetate rânduri, iar capacitatea de cazare s-a mărit treptat. 
Ca urmare a deteriorării grave a adăpostului montan în timpul primului război mondial, au fost efectuate importante lucrări de restaurare. La 6 august 1922, cu ocazia sărbătoririi Ceahlăului (Ziua Muntelui cum spun localnicii), refăcută, cabana cuaproximativ 30 de locuri, a fost pusă din nou la dispoziţia drumeţilor, de astă dată pentru un timp îndelungat. La inaugurare au fost prezente 606 persoane. 
Următoarea refacere a cabanei a avut loc în anul 1946, iar în anii 1958–1959 a fost extinsă pentru a putea primi mai mulţi turişti (120 locuri). Încăperi vechi au fost completate cu altele noi, cu ziduri din piatră fixată cu mortar şi a fost introdusă lumina electrică. 
În anul 1962 cabana putea găzdui 150 turişti la priciuri. În anii 1984-1988, capacitatea şi condiţiile de confort ale cabanei au crescut prin adăugarea unei noi aripi, cu trei niveluri.</desc>
    <trkseg>
      <trkpt lat="46.954051" lon="25.988405">
        <ele>805.592</ele>
        <time>2017-05-26T12:20:17Z</time>
      </trkpt>
      <trkpt lat="46.954097" lon="25.988292">
        <ele>806.273</ele>
        <time>2017-05-26T12:23:19Z</time>
      </trkpt>
      <trkpt lat="46.954157" lon="25.988175">
        <ele>806.820</ele>
        <time>2017-05-26T12:23:35Z</time>
      </trkpt>
      <trkpt lat="46.954231" lon="25.988090">
        <ele>807.808</ele>
        <time>2017-05-26T12:23:45Z</time>
      </trkpt>
      <trkpt lat="46.954292" lon="25.987984">
        <ele>809.580</ele>
        <time>2017-05-26T12:23:57Z</time>
      </trkpt>
      <trkpt lat="46.954377" lon="25.987935">
        <ele>810.546</ele>
        <time>2017-05-26T12:24:06Z</time>
      </trkpt>
      <trkpt lat="46.954444" lon="25.987834">
        <ele>812.288</ele>
        <time>2017-05-26T12:24:17Z</time>
      </trkpt>
      <trkpt lat="46.954482" lon="25.987697">
        <ele>814.867</ele>
        <time>2017-05-26T12:24:29Z</time>
      </trkpt>
      <trkpt lat="46.954546" lon="25.987592">
        <ele>817.661</ele>
        <time>2017-05-26T12:24:48Z</time>
      </trkpt>
      <trkpt lat="46.954516" lon="25.987463">
        <ele>819.222</ele>
        <time>2017-05-26T12:25:24Z</time>
      </trkpt>
      <trkpt lat="46.954525" lon="25.987328">
        <ele>822.081</ele>
        <time>2017-05-26T12:25:38Z</time>
      </trkpt>
      <trkpt lat="46.954531" lon="25.987152">
        <ele>825.498</ele>
        <time>2017-05-26T12:25:41Z</time>
      </trkpt>
      <trkpt lat="46.954527" lon="25.987013">
        <ele>827.881</ele>
        <time>2017-05-26T12:25:50Z</time>
      </trkpt>
      <trkpt lat="46.954551" lon="25.986884">
        <ele>830.661</ele>
        <time>2017-05-26T12:26:02Z</time>
      </trkpt>
      <trkpt lat="46.954538" lon="25.986748">
        <ele>832.217</ele>
        <time>2017-05-26T12:26:10Z</time>
      </trkpt>
      <trkpt lat="46.954598" lon="25.986647">
        <ele>835.108</ele>
        <time>2017-05-26T12:26:24Z</time>
      </trkpt>
      <trkpt lat="46.954661" lon="25.986538">
        <ele>837.869</ele>
        <time>2017-05-26T12:26:48Z</time>
      </trkpt>
      <trkpt lat="46.954634" lon="25.986407">
        <ele>838.615</ele>
        <time>2017-05-26T12:26:52Z</time>
      </trkpt>
      <trkpt lat="46.954729" lon="25.986410">
        <ele>840.917</ele>
        <time>2017-05-26T12:27:05Z</time>
      </trkpt>
      <trkpt lat="46.954815" lon="25.986338">
        <ele>844.076</ele>
        <time>2017-05-26T12:27:21Z</time>
      </trkpt>
      <trkpt lat="46.954904" lon="25.986286">
        <ele>846.810</ele>
        <time>2017-05-26T12:27:45Z</time>
      </trkpt>
      <trkpt lat="46.954947" lon="25.986125">
        <ele>849.751</ele>
        <time>2017-05-26T12:27:56Z</time>
      </trkpt>
      <trkpt lat="46.954871" lon="25.986008">
        <ele>848.810</ele>
        <time>2017-05-26T12:28:04Z</time>
      </trkpt>
      <trkpt lat="46.954981" lon="25.986014">
        <ele>851.057</ele>
        <time>2017-05-26T12:28:09Z</time>
      </trkpt>
      <trkpt lat="46.955067" lon="25.985966">
        <ele>853.524</ele>
        <time>2017-05-26T12:28:19Z</time>
      </trkpt>
      <trkpt lat="46.954980" lon="25.985824">
        <ele>851.704</ele>
        <time>2017-05-26T12:28:28Z</time>
      </trkpt>
      <trkpt lat="46.954985" lon="25.985686">
        <ele>852.314</ele>
        <time>2017-05-26T12:28:38Z</time>
      </trkpt>
      <trkpt lat="46.955064" lon="25.985772">
        <ele>854.208</ele>
        <time>2017-05-26T12:28:41Z</time>
      </trkpt>
      <trkpt lat="46.955099" lon="25.985625">
        <ele>855.413</ele>
        <time>2017-05-26T12:29:07Z</time>
      </trkpt>
      <trkpt lat="46.955179" lon="25.985516">
        <ele>857.469</ele>
        <time>2017-05-26T12:29:15Z</time>
      </trkpt>
      <trkpt lat="46.955261" lon="25.985447">
        <ele>859.291</ele>
        <time>2017-05-26T12:29:26Z</time>
      </trkpt>
      <trkpt lat="46.955349" lon="25.985359">
        <ele>860.980</ele>
        <time>2017-05-26T12:29:45Z</time>
      </trkpt>
      <trkpt lat="46.955441" lon="25.985294">
        <ele>862.664</ele>
        <time>2017-05-26T12:30:11Z</time>
      </trkpt>
      <trkpt lat="46.955530" lon="25.985216">
        <ele>864.565</ele>
        <time>2017-05-26T12:30:20Z</time>
      </trkpt>
      <trkpt lat="46.955613" lon="25.985119">
        <ele>865.624</ele>
        <time>2017-05-26T12:30:53Z</time>
      </trkpt>
      <trkpt lat="46.955722" lon="25.985079">
        <ele>866.391</ele>
        <time>2017-05-26T12:31:21Z</time>
      </trkpt>
      <trkpt lat="46.955816" lon="25.985048">
        <ele>866.655</ele>
        <time>2017-05-26T12:31:25Z</time>
      </trkpt>
      <trkpt lat="46.955899" lon="25.984989">
        <ele>867.107</ele>
        <time>2017-05-26T12:31:31Z</time>
      </trkpt>
      <trkpt lat="46.956027" lon="25.985000">
        <ele>869.517</ele>
        <time>2017-05-26T12:31:57Z</time>
      </trkpt>
      <trkpt lat="46.956104" lon="25.984915">
        <ele>870.308</ele>
        <time>2017-05-26T12:32:05Z</time>
      </trkpt>
      <trkpt lat="46.956195" lon="25.984914">
        <ele>872.586</ele>
        <time>2017-05-26T12:32:29Z</time>
      </trkpt>
      <trkpt lat="46.956282" lon="25.984877">
        <ele>874.452</ele>
        <time>2017-05-26T12:32:34Z</time>
      </trkpt>
      <trkpt lat="46.956379" lon="25.984822">
        <ele>876.534</ele>
        <time>2017-05-26T12:32:59Z</time>
      </trkpt>
      <trkpt lat="46.956473" lon="25.984815">
        <ele>878.453</ele>
        <time>2017-05-26T12:33:09Z</time>
      </trkpt>
      <trkpt lat="46.956555" lon="25.984752">
        <ele>879.757</ele>
        <time>2017-05-26T12:33:29Z</time>
      </trkpt>
      <trkpt lat="46.956638" lon="25.984690">
        <ele>881.368</ele>
        <time>2017-05-26T12:33:40Z</time>
      </trkpt>
      <trkpt lat="46.956745" lon="25.984762">
        <ele>884.127</ele>
        <time>2017-05-26T12:33:57Z</time>
      </trkpt>
      <trkpt lat="46.956801" lon="25.984635">
        <ele>885.454</ele>
        <time>2017-05-26T12:34:01Z</time>
      </trkpt>
      <trkpt lat="46.956905" lon="25.984587">
        <ele>888.467</ele>
        <time>2017-05-26T12:34:15Z</time>
      </trkpt>
      <trkpt lat="46.957005" lon="25.984610">
        <ele>890.881</ele>
        <time>2017-05-26T12:34:28Z</time>
      </trkpt>
      <trkpt lat="46.957097" lon="25.984649">
        <ele>893.019</ele>
        <time>2017-05-26T12:34:43Z</time>
      </trkpt>
      <trkpt lat="46.957183" lon="25.984693">
        <ele>895.008</ele>
        <time>2017-05-26T12:34:59Z</time>
      </trkpt>
      <trkpt lat="46.957287" lon="25.984714">
        <ele>897.247</ele>
        <time>2017-05-26T12:35:10Z</time>
      </trkpt>
      <trkpt lat="46.957348" lon="25.984609">
        <ele>898.843</ele>
        <time>2017-05-26T12:36:27Z</time>
      </trkpt>
      <trkpt lat="46.957443" lon="25.984638">
        <ele>900.765</ele>
        <time>2017-05-26T12:36:32Z</time>
      </trkpt>
      <trkpt lat="46.957526" lon="25.984565">
        <ele>903.144</ele>
        <time>2017-05-26T12:36:50Z</time>
      </trkpt>
      <trkpt lat="46.957612" lon="25.984486">
        <ele>904.998</ele>
        <time>2017-05-26T12:36:52Z</time>
      </trkpt>
      <trkpt lat="46.957714" lon="25.984490">
        <ele>906.199</ele>
        <time>2017-05-26T12:37:12Z</time>
      </trkpt>
      <trkpt lat="46.957829" lon="25.984478">
        <ele>907.188</ele>
        <time>2017-05-26T12:38:24Z</time>
      </trkpt>
      <trkpt lat="46.957828" lon="25.984328">
        <ele>908.025</ele>
        <time>2017-05-26T12:38:29Z</time>
      </trkpt>
      <trkpt lat="46.957910" lon="25.984266">
        <ele>908.879</ele>
        <time>2017-05-26T12:38:37Z</time>
      </trkpt>
      <trkpt lat="46.958024" lon="25.984282">
        <ele>909.105</ele>
        <time>2017-05-26T12:38:49Z</time>
      </trkpt>
      <trkpt lat="46.958110" lon="25.984214">
        <ele>909.825</ele>
        <time>2017-05-26T12:39:00Z</time>
      </trkpt>
      <trkpt lat="46.958205" lon="25.984215">
        <ele>909.908</ele>
        <time>2017-05-26T12:39:09Z</time>
      </trkpt>
      <trkpt lat="46.958295" lon="25.984255">
        <ele>910.248</ele>
        <time>2017-05-26T12:39:19Z</time>
      </trkpt>
      <trkpt lat="46.958389" lon="25.984290">
        <ele>910.874</ele>
        <time>2017-05-26T12:39:30Z</time>
      </trkpt>
      <trkpt lat="46.958463" lon="25.984384">
        <ele>911.756</ele>
        <time>2017-05-26T12:39:42Z</time>
      </trkpt>
      <trkpt lat="46.958580" lon="25.984373">
        <ele>912.565</ele>
        <time>2017-05-26T12:40:32Z</time>
      </trkpt>
      <trkpt lat="46.958672" lon="25.984315">
        <ele>913.429</ele>
        <time>2017-05-26T12:40:39Z</time>
      </trkpt>
      <trkpt lat="46.958753" lon="25.984247">
        <ele>914.120</ele>
        <time>2017-05-26T12:40:59Z</time>
      </trkpt>
      <trkpt lat="46.958845" lon="25.984276">
        <ele>915.639</ele>
        <time>2017-05-26T12:41:09Z</time>
      </trkpt>
      <trkpt lat="46.958963" lon="25.984265">
        <ele>917.486</ele>
        <time>2017-05-26T12:41:17Z</time>
      </trkpt>
      <trkpt lat="46.959028" lon="25.984172">
        <ele>917.634</ele>
        <time>2017-05-26T12:41:28Z</time>
      </trkpt>
      <trkpt lat="46.959115" lon="25.984206">
        <ele>919.555</ele>
        <time>2017-05-26T12:41:50Z</time>
      </trkpt>
      <trkpt lat="46.959207" lon="25.984247">
        <ele>921.410</ele>
        <time>2017-05-26T12:41:56Z</time>
      </trkpt>
      <trkpt lat="46.959303" lon="25.984240">
        <ele>922.508</ele>
        <time>2017-05-26T12:42:02Z</time>
      </trkpt>
      <trkpt lat="46.959393" lon="25.984193">
        <ele>922.974</ele>
        <time>2017-05-26T12:42:27Z</time>
      </trkpt>
      <trkpt lat="46.959469" lon="25.984083">
        <ele>922.440</ele>
        <time>2017-05-26T12:42:39Z</time>
      </trkpt>
      <trkpt lat="46.959552" lon="25.984003">
        <ele>922.652</ele>
        <time>2017-05-26T12:42:47Z</time>
      </trkpt>
      <trkpt lat="46.959647" lon="25.984012">
        <ele>923.851</ele>
        <time>2017-05-26T12:43:07Z</time>
      </trkpt>
      <trkpt lat="46.959740" lon="25.984025">
        <ele>925.055</ele>
        <time>2017-05-26T12:43:18Z</time>
      </trkpt>
      <trkpt lat="46.959827" lon="25.983953">
        <ele>925.136</ele>
        <time>2017-05-26T12:43:53Z</time>
      </trkpt>
      <trkpt lat="46.959920" lon="25.983958">
        <ele>926.175</ele>
        <time>2017-05-26T12:44:07Z</time>
      </trkpt>
      <trkpt lat="46.960009" lon="25.983980">
        <ele>926.852</ele>
        <time>2017-05-26T12:44:17Z</time>
      </trkpt>
      <trkpt lat="46.960078" lon="25.984068">
        <ele>926.389</ele>
        <time>2017-05-26T12:44:26Z</time>
      </trkpt>
      <trkpt lat="46.960129" lon="25.984202">
        <ele>925.206</ele>
        <time>2017-05-26T12:46:47Z</time>
      </trkpt>
      <trkpt lat="46.960220" lon="25.984256">
        <ele>925.626</ele>
        <time>2017-05-26T12:47:03Z</time>
      </trkpt>
      <trkpt lat="46.960273" lon="25.984381">
        <ele>924.708</ele>
        <time>2017-05-26T12:47:12Z</time>
      </trkpt>
      <trkpt lat="46.960371" lon="25.984454">
        <ele>927.479</ele>
        <time>2017-05-26T12:47:27Z</time>
      </trkpt>
      <trkpt lat="46.960469" lon="25.984508">
        <ele>931.385</ele>
        <time>2017-05-26T12:47:41Z</time>
      </trkpt>
      <trkpt lat="46.960557" lon="25.984559">
        <ele>934.537</ele>
        <time>2017-05-26T12:47:50Z</time>
      </trkpt>
      <trkpt lat="46.960646" lon="25.984581">
        <ele>937.986</ele>
        <time>2017-05-26T12:48:00Z</time>
      </trkpt>
      <trkpt lat="46.960758" lon="25.984614">
        <ele>942.370</ele>
        <time>2017-05-26T12:48:54Z</time>
      </trkpt>
      <trkpt lat="46.960908" lon="25.984573">
        <ele>946.241</ele>
        <time>2017-05-26T12:48:56Z</time>
      </trkpt>
      <trkpt lat="46.960998" lon="25.984633">
        <ele>947.750</ele>
        <time>2017-05-26T12:49:00Z</time>
      </trkpt>
      <trkpt lat="46.961089" lon="25.984613">
        <ele>949.197</ele>
        <time>2017-05-26T12:49:12Z</time>
      </trkpt>
      <trkpt lat="46.961189" lon="25.984600">
        <ele>950.017</ele>
        <time>2017-05-26T12:49:22Z</time>
      </trkpt>
      <trkpt lat="46.961280" lon="25.984567">
        <ele>950.787</ele>
        <time>2017-05-26T12:49:35Z</time>
      </trkpt>
      <trkpt lat="46.961374" lon="25.984565">
        <ele>951.315</ele>
        <time>2017-05-26T12:49:54Z</time>
      </trkpt>
      <trkpt lat="46.961471" lon="25.984524">
        <ele>952.508</ele>
        <time>2017-05-26T12:50:02Z</time>
      </trkpt>
      <trkpt lat="46.961549" lon="25.984414">
        <ele>953.682</ele>
        <time>2017-05-26T12:50:26Z</time>
      </trkpt>
      <trkpt lat="46.961637" lon="25.984362">
        <ele>955.288</ele>
        <time>2017-05-26T12:50:33Z</time>
      </trkpt>
      <trkpt lat="46.961724" lon="25.984311">
        <ele>957.040</ele>
        <time>2017-05-26T12:50:54Z</time>
      </trkpt>
      <trkpt lat="46.961802" lon="25.984237">
        <ele>958.969</ele>
        <time>2017-05-26T12:51:06Z</time>
      </trkpt>
      <trkpt lat="46.961898" lon="25.984222">
        <ele>960.823</ele>
        <time>2017-05-26T12:51:42Z</time>
      </trkpt>
      <trkpt lat="46.961994" lon="25.984172">
        <ele>962.764</ele>
        <time>2017-05-26T12:51:58Z</time>
      </trkpt>
      <trkpt lat="46.962075" lon="25.984102">
        <ele>964.313</ele>
        <time>2017-05-26T12:52:11Z</time>
      </trkpt>
      <trkpt lat="46.962183" lon="25.984059">
        <ele>966.220</ele>
        <time>2017-05-26T12:52:32Z</time>
      </trkpt>
      <trkpt lat="46.962277" lon="25.984092">
        <ele>967.494</ele>
        <time>2017-05-26T12:52:40Z</time>
      </trkpt>
      <trkpt lat="46.962379" lon="25.984038">
        <ele>969.457</ele>
        <time>2017-05-26T12:53:42Z</time>
      </trkpt>
      <trkpt lat="46.962479" lon="25.984005">
        <ele>971.422</ele>
        <time>2017-05-26T12:53:53Z</time>
      </trkpt>
      <trkpt lat="46.962563" lon="25.983950">
        <ele>973.508</ele>
        <time>2017-05-26T12:54:11Z</time>
      </trkpt>
      <trkpt lat="46.962631" lon="25.983861">
        <ele>975.690</ele>
        <time>2017-05-26T12:54:18Z</time>
      </trkpt>
      <trkpt lat="46.962700" lon="25.983756">
        <ele>977.616</ele>
        <time>2017-05-26T12:54:28Z</time>
      </trkpt>
      <trkpt lat="46.962797" lon="25.983737">
        <ele>979.468</ele>
        <time>2017-05-26T12:54:48Z</time>
      </trkpt>
      <trkpt lat="46.962878" lon="25.983612">
        <ele>981.447</ele>
        <time>2017-05-26T12:55:05Z</time>
      </trkpt>
      <trkpt lat="46.962920" lon="25.983848">
        <ele>980.351</ele>
        <time>2017-05-26T12:55:11Z</time>
      </trkpt>
      <trkpt lat="46.962992" lon="25.983770">
        <ele>981.992</ele>
        <time>2017-05-26T12:55:40Z</time>
      </trkpt>
      <trkpt lat="46.963075" lon="25.983698">
        <ele>983.621</ele>
        <time>2017-05-26T12:55:49Z</time>
      </trkpt>
      <trkpt lat="46.963158" lon="25.983626">
        <ele>985.018</ele>
        <time>2017-05-26T12:56:04Z</time>
      </trkpt>
      <trkpt lat="46.963248" lon="25.983583">
        <ele>986.376</ele>
        <time>2017-05-26T12:56:11Z</time>
      </trkpt>
      <trkpt lat="46.963352" lon="25.983599">
        <ele>987.490</ele>
        <time>2017-05-26T12:56:56Z</time>
      </trkpt>
      <trkpt lat="46.963412" lon="25.983457">
        <ele>989.119</ele>
        <time>2017-05-26T12:56:58Z</time>
      </trkpt>
      <trkpt lat="46.963505" lon="25.983403">
        <ele>990.508</ele>
        <time>2017-05-26T12:57:01Z</time>
      </trkpt>
      <trkpt lat="46.963581" lon="25.983304">
        <ele>991.948</ele>
        <time>2017-05-26T12:57:05Z</time>
      </trkpt>
      <trkpt lat="46.963640" lon="25.983416">
        <ele>991.964</ele>
        <time>2017-05-26T12:57:13Z</time>
      </trkpt>
      <trkpt lat="46.963638" lon="25.983273">
        <ele>992.636</ele>
        <time>2017-05-26T12:57:21Z</time>
      </trkpt>
      <trkpt lat="46.963729" lon="25.983267">
        <ele>993.225</ele>
        <time>2017-05-26T12:57:57Z</time>
      </trkpt>
      <trkpt lat="46.963818" lon="25.983210">
        <ele>994.089</ele>
        <time>2017-05-26T12:58:11Z</time>
      </trkpt>
      <trkpt lat="46.963879" lon="25.983101">
        <ele>994.890</ele>
        <time>2017-05-26T12:58:31Z</time>
      </trkpt>
      <trkpt lat="46.963950" lon="25.983004">
        <ele>996.519</ele>
        <time>2017-05-26T12:59:08Z</time>
      </trkpt>
      <trkpt lat="46.963994" lon="25.982879">
        <ele>998.236</ele>
        <time>2017-05-26T12:59:24Z</time>
      </trkpt>
      <trkpt lat="46.964027" lon="25.982753">
        <ele>999.865</ele>
        <time>2017-05-26T12:59:43Z</time>
      </trkpt>
      <trkpt lat="46.964082" lon="25.982641">
        <ele>1002.068</ele>
        <time>2017-05-26T13:00:06Z</time>
      </trkpt>
      <trkpt lat="46.964106" lon="25.982476">
        <ele>1004.414</ele>
        <time>2017-05-26T13:00:10Z</time>
      </trkpt>
      <trkpt lat="46.964169" lon="25.982363">
        <ele>1007.508</ele>
        <time>2017-05-26T13:00:19Z</time>
      </trkpt>
      <trkpt lat="46.964219" lon="25.982251">
        <ele>1010.847</ele>
        <time>2017-05-26T13:00:36Z</time>
      </trkpt>
      <trkpt lat="46.964249" lon="25.982126">
        <ele>1013.183</ele>
        <time>2017-05-26T13:00:44Z</time>
      </trkpt>
      <trkpt lat="46.964282" lon="25.982002">
        <ele>1015.355</ele>
        <time>2017-05-26T13:01:44Z</time>
      </trkpt>
      <trkpt lat="46.964345" lon="25.981902">
        <ele>1017.814</ele>
        <time>2017-05-26T13:02:05Z</time>
      </trkpt>
      <trkpt lat="46.964415" lon="25.981812">
        <ele>1019.938</ele>
        <time>2017-05-26T13:02:09Z</time>
      </trkpt>
      <trkpt lat="46.964495" lon="25.981748">
        <ele>1021.669</ele>
        <time>2017-05-26T13:02:24Z</time>
      </trkpt>
      <trkpt lat="46.964575" lon="25.981687">
        <ele>1023.388</ele>
        <time>2017-05-26T13:02:35Z</time>
      </trkpt>
      <trkpt lat="46.964602" lon="25.981552">
        <ele>1024.035</ele>
        <time>2017-05-26T13:02:48Z</time>
      </trkpt>
      <trkpt lat="46.964640" lon="25.981432">
        <ele>1024.893</ele>
        <time>2017-05-26T13:03:14Z</time>
      </trkpt>
      <trkpt lat="46.964695" lon="25.981313">
        <ele>1025.965</ele>
        <time>2017-05-26T13:03:19Z</time>
      </trkpt>
      <trkpt lat="46.964786" lon="25.981324">
        <ele>1027.021</ele>
        <time>2017-05-26T13:03:42Z</time>
      </trkpt>
      <trkpt lat="46.964879" lon="25.981296">
        <ele>1028.208</ele>
        <time>2017-05-26T13:03:57Z</time>
      </trkpt>
      <trkpt lat="46.964846" lon="25.981115">
        <ele>1028.840</ele>
        <time>2017-05-26T13:17:05Z</time>
      </trkpt>
      <trkpt lat="46.964824" lon="25.981250">
        <ele>1027.856</ele>
        <time>2017-05-26T13:17:52Z</time>
      </trkpt>
      <trkpt lat="46.964775" lon="25.981138">
        <ele>1027.658</ele>
        <time>2017-05-26T13:21:34Z</time>
      </trkpt>
      <trkpt lat="46.964723" lon="25.981016">
        <ele>1029.757</ele>
        <time>2017-05-26T13:21:46Z</time>
      </trkpt>
      <trkpt lat="46.964674" lon="25.980867">
        <ele>1033.591</ele>
        <time>2017-05-26T13:22:09Z</time>
      </trkpt>
      <trkpt lat="46.964631" lon="25.980742">
        <ele>1037.472</ele>
        <time>2017-05-26T13:22:31Z</time>
      </trkpt>
      <trkpt lat="46.964610" lon="25.980577">
        <ele>1043.481</ele>
        <time>2017-05-26T13:23:04Z</time>
      </trkpt>
      <trkpt lat="46.964558" lon="25.980468">
        <ele>1046.888</ele>
        <time>2017-05-26T13:23:09Z</time>
      </trkpt>
      <trkpt lat="46.964517" lon="25.980344">
        <ele>1050.977</ele>
        <time>2017-05-26T13:23:14Z</time>
      </trkpt>
      <trkpt lat="46.964460" lon="25.980240">
        <ele>1053.961</ele>
        <time>2017-05-26T13:23:27Z</time>
      </trkpt>
      <trkpt lat="46.964506" lon="25.980126">
        <ele>1056.427</ele>
        <time>2017-05-26T13:24:07Z</time>
      </trkpt>
      <trkpt lat="46.964466" lon="25.980006">
        <ele>1058.908</ele>
        <time>2017-05-26T13:24:53Z</time>
      </trkpt>
      <trkpt lat="46.964406" lon="25.979904">
        <ele>1060.488</ele>
        <time>2017-05-26T13:25:15Z</time>
      </trkpt>
      <trkpt lat="46.964309" lon="25.979896">
        <ele>1059.784</ele>
        <time>2017-05-26T13:25:22Z</time>
      </trkpt>
      <trkpt lat="46.964225" lon="25.979844">
        <ele>1060.476</ele>
        <time>2017-05-26T13:25:37Z</time>
      </trkpt>
      <trkpt lat="46.964140" lon="25.979789">
        <ele>1061.525</ele>
        <time>2017-05-26T13:25:52Z</time>
      </trkpt>
      <trkpt lat="46.964070" lon="25.979703">
        <ele>1063.459</ele>
        <time>2017-05-26T13:26:02Z</time>
      </trkpt>
      <trkpt lat="46.963986" lon="25.979646">
        <ele>1064.710</ele>
        <time>2017-05-26T13:26:14Z</time>
      </trkpt>
      <trkpt lat="46.963904" lon="25.979586">
        <ele>1066.579</ele>
        <time>2017-05-26T13:26:36Z</time>
      </trkpt>
      <trkpt lat="46.963823" lon="25.979509">
        <ele>1068.446</ele>
        <time>2017-05-26T13:26:50Z</time>
      </trkpt>
      <trkpt lat="46.963727" lon="25.979480">
        <ele>1067.386</ele>
        <time>2017-05-26T13:27:03Z</time>
      </trkpt>
      <trkpt lat="46.963637" lon="25.979399">
        <ele>1068.660</ele>
        <time>2017-05-26T13:27:12Z</time>
      </trkpt>
      <trkpt lat="46.963596" lon="25.979271">
        <ele>1073.126</ele>
        <time>2017-05-26T13:27:20Z</time>
      </trkpt>
      <trkpt lat="46.963582" lon="25.979139">
        <ele>1078.108</ele>
        <time>2017-05-26T13:27:29Z</time>
      </trkpt>
      <trkpt lat="46.963508" lon="25.979058">
        <ele>1079.129</ele>
        <time>2017-05-26T13:27:45Z</time>
      </trkpt>
      <trkpt lat="46.963418" lon="25.978986">
        <ele>1080.275</ele>
        <time>2017-05-26T13:27:53Z</time>
      </trkpt>
      <trkpt lat="46.963325" lon="25.978908">
        <ele>1082.017</ele>
        <time>2017-05-26T13:27:59Z</time>
      </trkpt>
      <trkpt lat="46.963297" lon="25.978783">
        <ele>1084.516</ele>
        <time>2017-05-26T13:28:03Z</time>
      </trkpt>
      <trkpt lat="46.963217" lon="25.978711">
        <ele>1084.830</ele>
        <time>2017-05-26T13:28:27Z</time>
      </trkpt>
      <trkpt lat="46.963132" lon="25.978662">
        <ele>1085.171</ele>
        <time>2017-05-26T13:28:42Z</time>
      </trkpt>
      <trkpt lat="46.963048" lon="25.978600">
        <ele>1085.950</ele>
        <time>2017-05-26T13:28:54Z</time>
      </trkpt>
      <trkpt lat="46.962953" lon="25.978614">
        <ele>1081.587</ele>
        <time>2017-05-26T13:29:34Z</time>
      </trkpt>
      <trkpt lat="46.962914" lon="25.978495">
        <ele>1083.212</ele>
        <time>2017-05-26T13:29:56Z</time>
      </trkpt>
      <trkpt lat="46.962895" lon="25.978359">
        <ele>1086.632</ele>
        <time>2017-05-26T13:30:13Z</time>
      </trkpt>
      <trkpt lat="46.962931" lon="25.978239">
        <ele>1090.905</ele>
        <time>2017-05-26T13:30:21Z</time>
      </trkpt>
      <trkpt lat="46.962846" lon="25.978183">
        <ele>1090.408</ele>
        <time>2017-05-26T13:30:40Z</time>
      </trkpt>
      <trkpt lat="46.962776" lon="25.978092">
        <ele>1091.812</ele>
        <time>2017-05-26T13:31:06Z</time>
      </trkpt>
      <trkpt lat="46.962748" lon="25.977960">
        <ele>1097.698</ele>
        <time>2017-05-26T13:31:17Z</time>
      </trkpt>
      <trkpt lat="46.962796" lon="25.977839">
        <ele>1105.070</ele>
        <time>2017-05-26T13:32:07Z</time>
      </trkpt>
      <trkpt lat="46.962875" lon="25.977729">
        <ele>1111.919</ele>
        <time>2017-05-26T13:33:13Z</time>
      </trkpt>
      <trkpt lat="46.962892" lon="25.977600">
        <ele>1118.773</ele>
        <time>2017-05-26T13:33:28Z</time>
      </trkpt>
      <trkpt lat="46.962966" lon="25.977482">
        <ele>1125.524</ele>
        <time>2017-05-26T13:34:21Z</time>
      </trkpt>
      <trkpt lat="46.963004" lon="25.977362">
        <ele>1133.573</ele>
        <time>2017-05-26T13:34:36Z</time>
      </trkpt>
      <trkpt lat="46.963005" lon="25.977186">
        <ele>1144.430</ele>
        <time>2017-05-26T13:37:05Z</time>
      </trkpt>
      <trkpt lat="46.963087" lon="25.977130">
        <ele>1149.654</ele>
        <time>2017-05-26T13:38:02Z</time>
      </trkpt>
      <trkpt lat="46.963178" lon="25.977111">
        <ele>1152.356</ele>
        <time>2017-05-26T13:38:24Z</time>
      </trkpt>
      <trkpt lat="46.963262" lon="25.977043">
        <ele>1157.211</ele>
        <time>2017-05-26T13:38:32Z</time>
      </trkpt>
      <trkpt lat="46.963280" lon="25.976907">
        <ele>1163.308</ele>
        <time>2017-05-26T13:38:46Z</time>
      </trkpt>
      <trkpt lat="46.963297" lon="25.976769">
        <ele>1167.536</ele>
        <time>2017-05-26T13:39:15Z</time>
      </trkpt>
      <trkpt lat="46.963270" lon="25.976643">
        <ele>1170.612</ele>
        <time>2017-05-26T13:39:30Z</time>
      </trkpt>
      <trkpt lat="46.963272" lon="25.976498">
        <ele>1173.934</ele>
        <time>2017-05-26T13:40:27Z</time>
      </trkpt>
      <trkpt lat="46.963233" lon="25.976366">
        <ele>1176.543</ele>
        <time>2017-05-26T13:40:46Z</time>
      </trkpt>
      <trkpt lat="46.963231" lon="25.976215">
        <ele>1180.357</ele>
        <time>2017-05-26T13:41:18Z</time>
      </trkpt>
      <trkpt lat="46.963206" lon="25.976075">
        <ele>1183.448</ele>
        <time>2017-05-26T13:42:42Z</time>
      </trkpt>
      <trkpt lat="46.963160" lon="25.975954">
        <ele>1185.457</ele>
        <time>2017-05-26T13:43:01Z</time>
      </trkpt>
      <trkpt lat="46.963119" lon="25.975830">
        <ele>1187.224</ele>
        <time>2017-05-26T13:43:21Z</time>
      </trkpt>
      <trkpt lat="46.963124" lon="25.975692">
        <ele>1190.269</ele>
        <time>2017-05-26T13:45:03Z</time>
      </trkpt>
      <trkpt lat="46.963110" lon="25.975561">
        <ele>1192.504</ele>
        <time>2017-05-26T13:45:37Z</time>
      </trkpt>
      <trkpt lat="46.963082" lon="25.975433">
        <ele>1194.524</ele>
        <time>2017-05-26T13:45:49Z</time>
      </trkpt>
      <trkpt lat="46.963046" lon="25.975304">
        <ele>1196.108</ele>
        <time>2017-05-26T13:46:06Z</time>
      </trkpt>
      <trkpt lat="46.962984" lon="25.975196">
        <ele>1197.367</ele>
        <time>2017-05-26T13:46:11Z</time>
      </trkpt>
      <trkpt lat="46.963020" lon="25.975066">
        <ele>1202.673</ele>
        <time>2017-05-26T13:46:32Z</time>
      </trkpt>
      <trkpt lat="46.963067" lon="25.974944">
        <ele>1208.515</ele>
        <time>2017-05-26T13:46:53Z</time>
      </trkpt>
      <trkpt lat="46.963037" lon="25.974814">
        <ele>1211.964</ele>
        <time>2017-05-26T13:47:12Z</time>
      </trkpt>
      <trkpt lat="46.963013" lon="25.974685">
        <ele>1215.368</ele>
        <time>2017-05-26T13:48:45Z</time>
      </trkpt>
      <trkpt lat="46.963014" lon="25.974538">
        <ele>1219.959</ele>
        <time>2017-05-26T13:49:00Z</time>
      </trkpt>
      <trkpt lat="46.963005" lon="25.974406">
        <ele>1223.088</ele>
        <time>2017-05-26T13:49:04Z</time>
      </trkpt>
      <trkpt lat="46.962992" lon="25.974275">
        <ele>1224.725</ele>
        <time>2017-05-26T13:49:36Z</time>
      </trkpt>
      <trkpt lat="46.963080" lon="25.974248">
        <ele>1230.833</ele>
        <time>2017-05-26T13:50:18Z</time>
      </trkpt>
      <trkpt lat="46.963103" lon="25.974119">
        <ele>1235.823</ele>
        <time>2017-05-26T13:53:18Z</time>
      </trkpt>
      <trkpt lat="46.963146" lon="25.974001">
        <ele>1241.915</ele>
        <time>2017-05-26T13:53:27Z</time>
      </trkpt>
      <trkpt lat="46.963184" lon="25.973873">
        <ele>1247.008</ele>
        <time>2017-05-26T13:53:43Z</time>
      </trkpt>
      <trkpt lat="46.963210" lon="25.973746">
        <ele>1248.894</ele>
        <time>2017-05-26T13:53:57Z</time>
      </trkpt>
      <trkpt lat="46.963254" lon="25.973623">
        <ele>1251.310</ele>
        <time>2017-05-26T13:54:19Z</time>
      </trkpt>
      <trkpt lat="46.963348" lon="25.973625">
        <ele>1255.452</ele>
        <time>2017-05-26T13:55:12Z</time>
      </trkpt>
      <trkpt lat="46.963440" lon="25.973602">
        <ele>1258.111</ele>
        <time>2017-05-26T13:55:55Z</time>
      </trkpt>
      <trkpt lat="46.963507" lon="25.973507">
        <ele>1260.245</ele>
        <time>2017-05-26T13:56:14Z</time>
      </trkpt>
      <trkpt lat="46.963515" lon="25.973269">
        <ele>1262.496</ele>
        <time>2017-05-26T13:56:50Z</time>
      </trkpt>
      <trkpt lat="46.963610" lon="25.973272">
        <ele>1265.985</ele>
        <time>2017-05-26T13:56:51Z</time>
      </trkpt>
      <trkpt lat="46.963548" lon="25.973177">
        <ele>1266.152</ele>
        <time>2017-05-26T13:57:08Z</time>
      </trkpt>
      <trkpt lat="46.963544" lon="25.973039">
        <ele>1269.591</ele>
        <time>2017-05-26T14:00:27Z</time>
      </trkpt>
      <trkpt lat="46.963539" lon="25.972901">
        <ele>1272.581</ele>
        <time>2017-05-26T14:00:47Z</time>
      </trkpt>
      <trkpt lat="46.963564" lon="25.972770">
        <ele>1276.819</ele>
        <time>2017-05-26T14:01:01Z</time>
      </trkpt>
      <trkpt lat="46.963610" lon="25.972657">
        <ele>1281.608</ele>
        <time>2017-05-26T14:01:49Z</time>
      </trkpt>
      <trkpt lat="46.963701" lon="25.972595">
        <ele>1283.650</ele>
        <time>2017-05-26T14:02:38Z</time>
      </trkpt>
      <trkpt lat="46.963798" lon="25.972522">
        <ele>1285.416</ele>
        <time>2017-05-26T14:02:48Z</time>
      </trkpt>
      <trkpt lat="46.963890" lon="25.972488">
        <ele>1286.398</ele>
        <time>2017-05-26T14:02:56Z</time>
      </trkpt>
      <trkpt lat="46.963985" lon="25.972454">
        <ele>1287.037</ele>
        <time>2017-05-26T14:03:07Z</time>
      </trkpt>
      <trkpt lat="46.964073" lon="25.972423">
        <ele>1287.421</ele>
        <time>2017-05-26T14:03:13Z</time>
      </trkpt>
      <trkpt lat="46.964156" lon="25.972371">
        <ele>1287.962</ele>
        <time>2017-05-26T14:03:25Z</time>
      </trkpt>
      <trkpt lat="46.964228" lon="25.972281">
        <ele>1288.961</ele>
        <time>2017-05-26T14:03:34Z</time>
      </trkpt>
      <trkpt lat="46.964261" lon="25.972155">
        <ele>1291.458</ele>
        <time>2017-05-26T14:06:14Z</time>
      </trkpt>
      <trkpt lat="46.964329" lon="25.972059">
        <ele>1293.429</ele>
        <time>2017-05-26T14:06:26Z</time>
      </trkpt>
      <trkpt lat="46.964425" lon="25.972023">
        <ele>1293.500</ele>
        <time>2017-05-26T14:06:29Z</time>
      </trkpt>
      <trkpt lat="46.964438" lon="25.971872">
        <ele>1297.520</ele>
        <time>2017-05-26T14:06:42Z</time>
      </trkpt>
      <trkpt lat="46.964506" lon="25.971776">
        <ele>1298.908</ele>
        <time>2017-05-26T14:06:50Z</time>
      </trkpt>
      <trkpt lat="46.964528" lon="25.971640">
        <ele>1302.593</ele>
        <time>2017-05-26T14:06:59Z</time>
      </trkpt>
      <trkpt lat="46.964571" lon="25.971519">
        <ele>1305.419</ele>
        <time>2017-05-26T14:07:07Z</time>
      </trkpt>
      <trkpt lat="46.964642" lon="25.971430">
        <ele>1306.621</ele>
        <time>2017-05-26T14:07:13Z</time>
      </trkpt>
      <trkpt lat="46.964687" lon="25.971308">
        <ele>1308.270</ele>
        <time>2017-05-26T14:07:21Z</time>
      </trkpt>
      <trkpt lat="46.964763" lon="25.971232">
        <ele>1306.464</ele>
        <time>2017-05-26T14:07:26Z</time>
      </trkpt>
      <trkpt lat="46.964834" lon="25.971136">
        <ele>1304.825</ele>
        <time>2017-05-26T14:07:33Z</time>
      </trkpt>
      <trkpt lat="46.964820" lon="25.971002">
        <ele>1307.774</ele>
        <time>2017-05-26T14:07:46Z</time>
      </trkpt>
      <trkpt lat="46.964851" lon="25.970876">
        <ele>1308.071</ele>
        <time>2017-05-26T14:08:11Z</time>
      </trkpt>
      <trkpt lat="46.964940" lon="25.970782">
        <ele>1304.414</ele>
        <time>2017-05-26T14:08:27Z</time>
      </trkpt>
      <trkpt lat="46.964923" lon="25.970647">
        <ele>1309.854</ele>
        <time>2017-05-26T14:08:50Z</time>
      </trkpt>
      <trkpt lat="46.964883" lon="25.970525">
        <ele>1316.409</ele>
        <time>2017-05-26T14:09:08Z</time>
      </trkpt>
      <trkpt lat="46.964798" lon="25.970580">
        <ele>1322.508</ele>
        <time>2017-05-26T14:09:30Z</time>
      </trkpt>
      <trkpt lat="46.964707" lon="25.970589">
        <ele>1330.182</ele>
        <time>2017-05-26T14:10:10Z</time>
      </trkpt>
      <trkpt lat="46.964615" lon="25.970627">
        <ele>1338.358</ele>
        <time>2017-05-26T14:10:45Z</time>
      </trkpt>
      <trkpt lat="46.964540" lon="25.970702">
        <ele>1341.760</ele>
        <time>2017-05-26T14:11:53Z</time>
      </trkpt>
      <trkpt lat="46.964502" lon="25.970828">
        <ele>1337.289</ele>
        <time>2017-05-26T14:12:12Z</time>
      </trkpt>
      <trkpt lat="46.964434" lon="25.970921">
        <ele>1335.883</ele>
        <time>2017-05-26T14:12:36Z</time>
      </trkpt>
      <trkpt lat="46.964343" lon="25.970960">
        <ele>1339.224</ele>
        <time>2017-05-26T14:13:37Z</time>
      </trkpt>
      <trkpt lat="46.964263" lon="25.970898">
        <ele>1348.953</ele>
        <time>2017-05-26T14:15:16Z</time>
      </trkpt>
      <trkpt lat="46.964161" lon="25.970880">
        <ele>1356.280</ele>
        <time>2017-05-26T14:15:46Z</time>
      </trkpt>
      <trkpt lat="46.964071" lon="25.970832">
        <ele>1356.658</ele>
        <time>2017-05-26T14:16:01Z</time>
      </trkpt>
      <trkpt lat="46.964090" lon="25.970687">
        <ele>1362.552</ele>
        <time>2017-05-26T14:17:05Z</time>
      </trkpt>
      <trkpt lat="46.964175" lon="25.970618">
        <ele>1366.517</ele>
        <time>2017-05-26T14:17:11Z</time>
      </trkpt>
      <trkpt lat="46.964163" lon="25.970476">
        <ele>1370.708</ele>
        <time>2017-05-26T14:17:23Z</time>
      </trkpt>
      <trkpt lat="46.964166" lon="25.970335">
        <ele>1373.836</ele>
        <time>2017-05-26T14:17:33Z</time>
      </trkpt>
      <trkpt lat="46.964181" lon="25.970193">
        <ele>1375.592</ele>
        <time>2017-05-26T14:17:59Z</time>
      </trkpt>
      <trkpt lat="46.964157" lon="25.970056">
        <ele>1378.394</ele>
        <time>2017-05-26T14:18:10Z</time>
      </trkpt>
      <trkpt lat="46.964101" lon="25.969947">
        <ele>1380.323</ele>
        <time>2017-05-26T14:18:19Z</time>
      </trkpt>
      <trkpt lat="46.964052" lon="25.969816">
        <ele>1382.957</ele>
        <time>2017-05-26T14:18:34Z</time>
      </trkpt>
      <trkpt lat="46.964059" lon="25.969683">
        <ele>1384.478</ele>
        <time>2017-05-26T14:18:52Z</time>
      </trkpt>
      <trkpt lat="46.964048" lon="25.969545">
        <ele>1385.887</ele>
        <time>2017-05-26T14:19:03Z</time>
      </trkpt>
      <trkpt lat="46.964002" lon="25.969431">
        <ele>1387.474</ele>
        <time>2017-05-26T14:19:15Z</time>
      </trkpt>
      <trkpt lat="46.964031" lon="25.969304">
        <ele>1385.763</ele>
        <time>2017-05-26T14:19:40Z</time>
      </trkpt>
      <trkpt lat="46.964058" lon="25.969176">
        <ele>1384.044</ele>
        <time>2017-05-26T14:20:04Z</time>
      </trkpt>
      <trkpt lat="46.964063" lon="25.969031">
        <ele>1383.618</ele>
        <time>2017-05-26T14:20:22Z</time>
      </trkpt>
      <trkpt lat="46.964065" lon="25.968887">
        <ele>1383.308</ele>
        <time>2017-05-26T14:20:28Z</time>
      </trkpt>
      <trkpt lat="46.964039" lon="25.968738">
        <ele>1389.997</ele>
        <time>2017-05-26T14:20:33Z</time>
      </trkpt>
      <trkpt lat="46.964043" lon="25.968600">
        <ele>1395.683</ele>
        <time>2017-05-26T14:20:42Z</time>
      </trkpt>
      <trkpt lat="46.964054" lon="25.968465">
        <ele>1402.315</ele>
        <time>2017-05-26T14:21:00Z</time>
      </trkpt>
      <trkpt lat="46.964051" lon="25.968331">
        <ele>1409.424</ele>
        <time>2017-05-26T14:21:24Z</time>
      </trkpt>
      <trkpt lat="46.964100" lon="25.968215">
        <ele>1411.258</ele>
        <time>2017-05-26T14:22:50Z</time>
      </trkpt>
      <trkpt lat="46.964066" lon="25.968087">
        <ele>1415.399</ele>
        <time>2017-05-26T14:25:22Z</time>
      </trkpt>
      <trkpt lat="46.964123" lon="25.967985">
        <ele>1416.158</ele>
        <time>2017-05-26T14:25:41Z</time>
      </trkpt>
      <trkpt lat="46.964142" lon="25.967854">
        <ele>1416.815</ele>
        <time>2017-05-26T14:25:56Z</time>
      </trkpt>
      <trkpt lat="46.964187" lon="25.967733">
        <ele>1416.856</ele>
        <time>2017-05-26T14:26:10Z</time>
      </trkpt>
      <trkpt lat="46.964226" lon="25.967611">
        <ele>1416.959</ele>
        <time>2017-05-26T14:26:45Z</time>
      </trkpt>
      <trkpt lat="46.964160" lon="25.967505">
        <ele>1420.014</ele>
        <time>2017-05-26T14:27:15Z</time>
      </trkpt>
      <trkpt lat="46.964130" lon="25.967367">
        <ele>1421.108</ele>
        <time>2017-05-26T14:27:27Z</time>
      </trkpt>
      <trkpt lat="46.964067" lon="25.967269">
        <ele>1422.036</ele>
        <time>2017-05-26T14:27:44Z</time>
      </trkpt>
      <trkpt lat="46.964091" lon="25.967137">
        <ele>1423.582</ele>
        <time>2017-05-26T14:27:56Z</time>
      </trkpt>
      <trkpt lat="46.964031" lon="25.967023">
        <ele>1426.094</ele>
        <time>2017-05-26T14:28:19Z</time>
      </trkpt>
      <trkpt lat="46.963941" lon="25.966955">
        <ele>1428.823</ele>
        <time>2017-05-26T14:28:33Z</time>
      </trkpt>
      <trkpt lat="46.963840" lon="25.966953">
        <ele>1428.887</ele>
        <time>2017-05-26T14:29:00Z</time>
      </trkpt>
      <trkpt lat="46.963764" lon="25.966868">
        <ele>1429.248</ele>
        <time>2017-05-26T14:29:14Z</time>
      </trkpt>
      <trkpt lat="46.963761" lon="25.966730">
        <ele>1432.667</ele>
        <time>2017-05-26T14:29:31Z</time>
      </trkpt>
      <trkpt lat="46.963763" lon="25.966599">
        <ele>1435.724</ele>
        <time>2017-05-26T14:29:49Z</time>
      </trkpt>
      <trkpt lat="46.963765" lon="25.966462">
        <ele>1438.667</ele>
        <time>2017-05-26T14:30:02Z</time>
      </trkpt>
      <trkpt lat="46.963752" lon="25.966332">
        <ele>1441.081</ele>
        <time>2017-05-26T14:30:12Z</time>
      </trkpt>
      <trkpt lat="46.963714" lon="25.966203">
        <ele>1443.119</ele>
        <time>2017-05-26T14:30:23Z</time>
      </trkpt>
      <trkpt lat="46.963675" lon="25.966071">
        <ele>1445.108</ele>
        <time>2017-05-26T14:30:31Z</time>
      </trkpt>
      <trkpt lat="46.963648" lon="25.965940">
        <ele>1447.377</ele>
        <time>2017-05-26T14:30:39Z</time>
      </trkpt>
      <trkpt lat="46.963563" lon="25.965884">
        <ele>1447.473</ele>
        <time>2017-05-26T14:30:48Z</time>
      </trkpt>
      <trkpt lat="46.963515" lon="25.965765">
        <ele>1448.815</ele>
        <time>2017-05-26T14:31:07Z</time>
      </trkpt>
      <trkpt lat="46.963445" lon="25.965663">
        <ele>1449.824</ele>
        <time>2017-05-26T14:31:17Z</time>
      </trkpt>
      <trkpt lat="46.963373" lon="25.965577">
        <ele>1450.838</ele>
        <time>2017-05-26T14:31:27Z</time>
      </trkpt>
      <trkpt lat="46.963317" lon="25.965463">
        <ele>1452.729</ele>
        <time>2017-05-26T14:31:39Z</time>
      </trkpt>
      <trkpt lat="46.963226" lon="25.965463">
        <ele>1450.898</ele>
        <time>2017-05-26T14:31:57Z</time>
      </trkpt>
      <trkpt lat="46.963139" lon="25.965416">
        <ele>1449.885</ele>
        <time>2017-05-26T14:32:03Z</time>
      </trkpt>
      <trkpt lat="46.963098" lon="25.965289">
        <ele>1450.991</ele>
        <time>2017-05-26T14:32:19Z</time>
      </trkpt>
      <trkpt lat="46.963015" lon="25.965234">
        <ele>1449.481</ele>
        <time>2017-05-26T14:32:29Z</time>
      </trkpt>
      <trkpt lat="46.962925" lon="25.965240">
        <ele>1446.819</ele>
        <time>2017-05-26T14:32:46Z</time>
      </trkpt>
      <trkpt lat="46.962816" lon="25.965214">
        <ele>1444.208</ele>
        <time>2017-05-26T14:38:05Z</time>
      </trkpt>
      <trkpt lat="46.962732" lon="25.965144">
        <ele>1444.250</ele>
        <time>2017-05-26T14:38:10Z</time>
      </trkpt>
      <trkpt lat="46.962680" lon="25.965035">
        <ele>1446.026</ele>
        <time>2017-05-26T14:38:15Z</time>
      </trkpt>
      <trkpt lat="46.962632" lon="25.964905">
        <ele>1449.248</ele>
        <time>2017-05-26T14:38:25Z</time>
      </trkpt>
      <trkpt lat="46.962561" lon="25.964813">
        <ele>1451.217</ele>
        <time>2017-05-26T14:38:37Z</time>
      </trkpt>
      <trkpt lat="46.962477" lon="25.964751">
        <ele>1451.861</ele>
        <time>2017-05-26T14:38:42Z</time>
      </trkpt>
      <trkpt lat="46.962382" lon="25.964692">
        <ele>1451.052</ele>
        <time>2017-05-26T14:38:50Z</time>
      </trkpt>
      <trkpt lat="46.962282" lon="25.964646">
        <ele>1449.161</ele>
        <time>2017-05-26T14:38:57Z</time>
      </trkpt>
      <trkpt lat="46.962181" lon="25.964627">
        <ele>1446.518</ele>
        <time>2017-05-26T14:39:02Z</time>
      </trkpt>
      <trkpt lat="46.962117" lon="25.964519">
        <ele>1445.757</ele>
        <time>2017-05-26T14:39:12Z</time>
      </trkpt>
      <trkpt lat="46.962146" lon="25.964382">
        <ele>1447.600</ele>
        <time>2017-05-26T14:39:36Z</time>
      </trkpt>
      <trkpt lat="46.962215" lon="25.964271">
        <ele>1450.720</ele>
        <time>2017-05-26T14:40:01Z</time>
      </trkpt>
      <trkpt lat="46.962281" lon="25.964174">
        <ele>1454.208</ele>
        <time>2017-05-26T14:40:19Z</time>
      </trkpt>
      <trkpt lat="46.962353" lon="25.964076">
        <ele>1457.526</ele>
        <time>2017-05-26T14:40:31Z</time>
      </trkpt>
      <trkpt lat="46.962330" lon="25.963944">
        <ele>1456.722</ele>
        <time>2017-05-26T14:40:55Z</time>
      </trkpt>
      <trkpt lat="46.962370" lon="25.963819">
        <ele>1458.674</ele>
        <time>2017-05-26T14:41:03Z</time>
      </trkpt>
      <trkpt lat="46.962326" lon="25.963694">
        <ele>1455.653</ele>
        <time>2017-05-26T14:41:22Z</time>
      </trkpt>
      <trkpt lat="46.962324" lon="25.963562">
        <ele>1455.267</ele>
        <time>2017-05-26T14:41:59Z</time>
      </trkpt>
      <trkpt lat="46.962343" lon="25.963416">
        <ele>1456.458</ele>
        <time>2017-05-26T14:42:31Z</time>
      </trkpt>
      <trkpt lat="46.962316" lon="25.963282">
        <ele>1454.537</ele>
        <time>2017-05-26T14:42:44Z</time>
      </trkpt>
      <trkpt lat="46.962313" lon="25.963143">
        <ele>1452.814</ele>
        <time>2017-05-26T14:42:52Z</time>
      </trkpt>
      <trkpt lat="46.962289" lon="25.963008">
        <ele>1450.696</ele>
        <time>2017-05-26T14:43:02Z</time>
      </trkpt>
      <trkpt lat="46.962292" lon="25.962867">
        <ele>1450.831</ele>
        <time>2017-05-26T14:43:10Z</time>
      </trkpt>
      <trkpt lat="46.962314" lon="25.962733">
        <ele>1451.324</ele>
        <time>2017-05-26T14:43:18Z</time>
      </trkpt>
      <trkpt lat="46.962306" lon="25.962599">
        <ele>1450.008</ele>
        <time>2017-05-26T14:43:26Z</time>
      </trkpt>
      <trkpt lat="46.962359" lon="25.962492">
        <ele>1451.460</ele>
        <time>2017-05-26T14:43:34Z</time>
      </trkpt>
      <trkpt lat="46.962411" lon="25.962376">
        <ele>1452.686</ele>
        <time>2017-05-26T14:43:40Z</time>
      </trkpt>
      <trkpt lat="46.962464" lon="25.962264">
        <ele>1453.988</ele>
        <time>2017-05-26T14:43:44Z</time>
      </trkpt>
      <trkpt lat="46.962544" lon="25.962198">
        <ele>1455.857</ele>
        <time>2017-05-26T14:43:52Z</time>
      </trkpt>
      <trkpt lat="46.962595" lon="25.962080">
        <ele>1454.711</ele>
        <time>2017-05-26T14:44:12Z</time>
      </trkpt>
      <trkpt lat="46.962633" lon="25.961956">
        <ele>1453.182</ele>
        <time>2017-05-26T14:44:20Z</time>
      </trkpt>
      <trkpt lat="46.962706" lon="25.961838">
        <ele>1453.031</ele>
        <time>2017-05-26T14:44:29Z</time>
      </trkpt>
      <trkpt lat="46.962793" lon="25.961771">
        <ele>1454.978</ele>
        <time>2017-05-26T14:44:39Z</time>
      </trkpt>
      <trkpt lat="46.962864" lon="25.961651">
        <ele>1455.259</ele>
        <time>2017-05-26T14:44:53Z</time>
      </trkpt>
      <trkpt lat="46.962922" lon="25.961549">
        <ele>1456.003</ele>
        <time>2017-05-26T14:45:02Z</time>
      </trkpt>
      <trkpt lat="46.962984" lon="25.961443">
        <ele>1456.623</ele>
        <time>2017-05-26T14:45:11Z</time>
      </trkpt>
      <trkpt lat="46.963074" lon="25.961392">
        <ele>1458.708</ele>
        <time>2017-05-26T14:45:33Z</time>
      </trkpt>
      <trkpt lat="46.963172" lon="25.961390">
        <ele>1462.296</ele>
        <time>2017-05-26T14:45:48Z</time>
      </trkpt>
      <trkpt lat="46.963268" lon="25.961342">
        <ele>1465.262</ele>
        <time>2017-05-26T14:45:52Z</time>
      </trkpt>
      <trkpt lat="46.963387" lon="25.961338">
        <ele>1469.384</ele>
        <time>2017-05-26T14:46:57Z</time>
      </trkpt>
      <trkpt lat="46.963478" lon="25.961315">
        <ele>1472.423</ele>
        <time>2017-05-26T14:47:06Z</time>
      </trkpt>
      <trkpt lat="46.963531" lon="25.961426">
        <ele>1474.887</ele>
        <time>2017-05-26T14:47:27Z</time>
      </trkpt>
      <trkpt lat="46.963532" lon="25.961568">
        <ele>1476.698</ele>
        <time>2017-05-26T14:48:03Z</time>
      </trkpt>
      <trkpt lat="46.963624" lon="25.961559">
        <ele>1479.257</ele>
        <time>2017-05-26T14:48:41Z</time>
      </trkpt>
      <trkpt lat="46.963695" lon="25.961645">
        <ele>1482.274</ele>
        <time>2017-05-26T14:49:06Z</time>
      </trkpt>
      <trkpt lat="46.963754" lon="25.961752">
        <ele>1486.186</ele>
        <time>2017-05-26T14:49:46Z</time>
      </trkpt>
      <trkpt lat="46.963736" lon="25.961892">
        <ele>1489.160</ele>
        <time>2017-05-26T14:50:24Z</time>
      </trkpt>
      <trkpt lat="46.963706" lon="25.962019">
        <ele>1491.826</ele>
        <time>2017-05-26T14:51:09Z</time>
      </trkpt>
      <trkpt lat="46.963766" lon="25.961908">
        <ele>1489.908</ele>
        <time>2017-05-26T14:51:43Z</time>
      </trkpt>
      <trkpt lat="46.963808" lon="25.961782">
        <ele>1487.959</ele>
        <time>2017-05-26T14:51:52Z</time>
      </trkpt>
      <trkpt lat="46.963796" lon="25.961626">
        <ele>1484.925</ele>
        <time>2017-05-26T14:52:02Z</time>
      </trkpt>
      <trkpt lat="46.963708" lon="25.961590">
        <ele>1482.017</ele>
        <time>2017-05-26T14:52:31Z</time>
      </trkpt>
      <trkpt lat="46.963770" lon="25.961455">
        <ele>1482.356</ele>
        <time>2017-05-26T14:57:10Z</time>
      </trkpt>
      <trkpt lat="46.963836" lon="25.961357">
        <ele>1483.620</ele>
        <time>2017-05-26T14:57:18Z</time>
      </trkpt>
      <trkpt lat="46.963928" lon="25.961343">
        <ele>1485.851</ele>
        <time>2017-05-26T14:57:27Z</time>
      </trkpt>
      <trkpt lat="46.963906" lon="25.961208">
        <ele>1485.950</ele>
        <time>2017-05-26T14:57:53Z</time>
      </trkpt>
      <trkpt lat="46.963992" lon="25.961131">
        <ele>1487.417</ele>
        <time>2017-05-26T14:58:13Z</time>
      </trkpt>
      <trkpt lat="46.964071" lon="25.961067">
        <ele>1488.946</ele>
        <time>2017-05-26T14:58:21Z</time>
      </trkpt>
      <trkpt lat="46.964157" lon="25.961010">
        <ele>1490.988</ele>
        <time>2017-05-26T14:58:33Z</time>
      </trkpt>
      <trkpt lat="46.964250" lon="25.961005">
        <ele>1492.416</ele>
        <time>2017-05-26T14:58:37Z</time>
      </trkpt>
      <trkpt lat="46.964314" lon="25.960863">
        <ele>1495.708</ele>
        <time>2017-05-26T14:58:44Z</time>
      </trkpt>
      <trkpt lat="46.964292" lon="25.960730">
        <ele>1497.675</ele>
        <time>2017-05-26T14:58:58Z</time>
      </trkpt>
      <trkpt lat="46.964319" lon="25.960593">
        <ele>1500.641</ele>
        <time>2017-05-26T14:59:11Z</time>
      </trkpt>
      <trkpt lat="46.964295" lon="25.960466">
        <ele>1503.023</ele>
        <time>2017-05-26T14:59:35Z</time>
      </trkpt>
      <trkpt lat="46.964304" lon="25.960335">
        <ele>1506.572</ele>
        <time>2017-05-26T15:00:03Z</time>
      </trkpt>
      <trkpt lat="46.964393" lon="25.960254">
        <ele>1512.046</ele>
        <time>2017-05-26T15:00:50Z</time>
      </trkpt>
      <trkpt lat="46.964412" lon="25.960116">
        <ele>1517.937</ele>
        <time>2017-05-26T15:02:41Z</time>
      </trkpt>
      <trkpt lat="46.964424" lon="25.959976">
        <ele>1523.456</ele>
        <time>2017-05-26T15:02:53Z</time>
      </trkpt>
      <trkpt lat="46.964437" lon="25.959840">
        <ele>1527.063</ele>
        <time>2017-05-26T15:03:25Z</time>
      </trkpt>
      <trkpt lat="46.964482" lon="25.959725">
        <ele>1531.632</ele>
        <time>2017-05-26T15:05:07Z</time>
      </trkpt>
      <trkpt lat="46.964444" lon="25.959596">
        <ele>1532.792</ele>
        <time>2017-05-26T15:05:23Z</time>
      </trkpt>
      <trkpt lat="46.964395" lon="25.959471">
        <ele>1531.811</ele>
        <time>2017-05-26T15:05:32Z</time>
      </trkpt>
      <trkpt lat="46.964420" lon="25.959344">
        <ele>1534.308</ele>
        <time>2017-05-26T15:05:44Z</time>
      </trkpt>
      <trkpt lat="46.964458" lon="25.959221">
        <ele>1536.524</ele>
        <time>2017-05-26T15:06:29Z</time>
      </trkpt>
      <trkpt lat="46.964561" lon="25.959237">
        <ele>1540.380</ele>
        <time>2017-05-26T15:06:42Z</time>
      </trkpt>
      <trkpt lat="46.964552" lon="25.959090">
        <ele>1541.312</ele>
        <time>2017-05-26T15:07:21Z</time>
      </trkpt>
      <trkpt lat="46.964471" lon="25.959006">
        <ele>1539.341</ele>
        <time>2017-05-26T15:07:32Z</time>
      </trkpt>
      <trkpt lat="46.964509" lon="25.958886">
        <ele>1542.495</ele>
        <time>2017-05-26T15:07:47Z</time>
      </trkpt>
      <trkpt lat="46.964523" lon="25.958753">
        <ele>1545.826</ele>
        <time>2017-05-26T15:08:04Z</time>
      </trkpt>
      <trkpt lat="46.964451" lon="25.958653">
        <ele>1545.355</ele>
        <time>2017-05-26T15:08:16Z</time>
      </trkpt>
      <trkpt lat="46.964398" lon="25.958538">
        <ele>1545.152</ele>
        <time>2017-05-26T15:08:52Z</time>
      </trkpt>
      <trkpt lat="46.964343" lon="25.958430">
        <ele>1544.183</ele>
        <time>2017-05-26T15:09:03Z</time>
      </trkpt>
      <trkpt lat="46.964413" lon="25.958340">
        <ele>1549.925</ele>
        <time>2017-05-26T15:09:12Z</time>
      </trkpt>
      <trkpt lat="46.964430" lon="25.958199">
        <ele>1553.517</ele>
        <time>2017-05-26T15:11:18Z</time>
      </trkpt>
      <trkpt lat="46.964508" lon="25.958101">
        <ele>1558.908</ele>
        <time>2017-05-26T15:11:35Z</time>
      </trkpt>
      <trkpt lat="46.964608" lon="25.958048">
        <ele>1564.329</ele>
        <time>2017-05-26T15:12:07Z</time>
      </trkpt>
      <trkpt lat="46.964695" lon="25.958085">
        <ele>1567.115</ele>
        <time>2017-05-26T15:12:19Z</time>
      </trkpt>
      <trkpt lat="46.964771" lon="25.958160">
        <ele>1569.177</ele>
        <time>2017-05-26T15:12:34Z</time>
      </trkpt>
      <trkpt lat="46.964785" lon="25.958296">
        <ele>1566.066</ele>
        <time>2017-05-26T15:13:00Z</time>
      </trkpt>
      <trkpt lat="46.964871" lon="25.958334">
        <ele>1568.990</ele>
        <time>2017-05-26T15:14:09Z</time>
      </trkpt>
      <trkpt lat="46.964959" lon="25.958375">
        <ele>1572.171</ele>
        <time>2017-05-26T15:14:23Z</time>
      </trkpt>
      <trkpt lat="46.965049" lon="25.958340">
        <ele>1577.360</ele>
        <time>2017-05-26T15:14:41Z</time>
      </trkpt>
      <trkpt lat="46.965134" lon="25.958294">
        <ele>1583.087</ele>
        <time>2017-05-26T15:14:51Z</time>
      </trkpt>
      <trkpt lat="46.965137" lon="25.958160">
        <ele>1587.596</ele>
        <time>2017-05-26T15:15:25Z</time>
      </trkpt>
      <trkpt lat="46.965074" lon="25.958056">
        <ele>1588.631</ele>
        <time>2017-05-26T15:15:40Z</time>
      </trkpt>
      <trkpt lat="46.965043" lon="25.957892">
        <ele>1590.924</ele>
        <time>2017-05-26T15:17:13Z</time>
      </trkpt>
      <trkpt lat="46.964974" lon="25.957787">
        <ele>1589.408</ele>
        <time>2017-05-26T15:17:25Z</time>
      </trkpt>
      <trkpt lat="46.964878" lon="25.957701">
        <ele>1586.970</ele>
        <time>2017-05-26T15:17:37Z</time>
      </trkpt>
      <trkpt lat="46.964869" lon="25.957568">
        <ele>1590.726</ele>
        <time>2017-05-26T15:18:02Z</time>
      </trkpt>
      <trkpt lat="46.964757" lon="25.957467">
        <ele>1587.958</ele>
        <time>2017-05-26T15:18:09Z</time>
      </trkpt>
      <trkpt lat="46.964737" lon="25.957314">
        <ele>1591.687</ele>
        <time>2017-05-26T15:18:16Z</time>
      </trkpt>
      <trkpt lat="46.964741" lon="25.957174">
        <ele>1595.981</ele>
        <time>2017-05-26T15:18:28Z</time>
      </trkpt>
      <trkpt lat="46.964699" lon="25.957051">
        <ele>1597.212</ele>
        <time>2017-05-26T15:18:38Z</time>
      </trkpt>
      <trkpt lat="46.964746" lon="25.956923">
        <ele>1602.311</ele>
        <time>2017-05-26T15:18:46Z</time>
      </trkpt>
      <trkpt lat="46.964674" lon="25.956815">
        <ele>1601.388</ele>
        <time>2017-05-26T15:18:53Z</time>
      </trkpt>
      <trkpt lat="46.964681" lon="25.956672">
        <ele>1604.818</ele>
        <time>2017-05-26T15:19:07Z</time>
      </trkpt>
      <trkpt lat="46.964638" lon="25.956542">
        <ele>1604.298</ele>
        <time>2017-05-26T15:19:13Z</time>
      </trkpt>
      <trkpt lat="46.964585" lon="25.956383">
        <ele>1601.617</ele>
        <time>2017-05-26T15:19:23Z</time>
      </trkpt>
      <trkpt lat="46.964534" lon="25.956255">
        <ele>1595.608</ele>
        <time>2017-05-26T15:19:32Z</time>
      </trkpt>
      <trkpt lat="46.964563" lon="25.956115">
        <ele>1596.372</ele>
        <time>2017-05-26T15:19:46Z</time>
      </trkpt>
      <trkpt lat="46.964553" lon="25.955976">
        <ele>1598.878</ele>
        <time>2017-05-26T15:19:56Z</time>
      </trkpt>
      <trkpt lat="46.964459" lon="25.955887">
        <ele>1594.320</ele>
        <time>2017-05-26T15:20:02Z</time>
      </trkpt>
      <trkpt lat="46.964492" lon="25.955761">
        <ele>1600.159</ele>
        <time>2017-05-26T15:20:16Z</time>
      </trkpt>
      <trkpt lat="46.964554" lon="25.955661">
        <ele>1607.163</ele>
        <time>2017-05-26T15:20:24Z</time>
      </trkpt>
      <trkpt lat="46.964585" lon="25.955532">
        <ele>1613.124</ele>
        <time>2017-05-26T15:20:48Z</time>
      </trkpt>
      <trkpt lat="46.964516" lon="25.955431">
        <ele>1612.373</ele>
        <time>2017-05-26T15:21:00Z</time>
      </trkpt>
      <trkpt lat="46.964516" lon="25.955284">
        <ele>1618.460</ele>
        <time>2017-05-26T15:21:16Z</time>
      </trkpt>
      <trkpt lat="46.964428" lon="25.955237">
        <ele>1613.972</ele>
        <time>2017-05-26T15:21:20Z</time>
      </trkpt>
      <trkpt lat="46.964347" lon="25.955130">
        <ele>1610.013</ele>
        <time>2017-05-26T15:21:26Z</time>
      </trkpt>
      <trkpt lat="46.964475" lon="25.955009">
        <ele>1624.414</ele>
        <time>2017-05-26T15:21:35Z</time>
      </trkpt>
      <trkpt lat="46.964558" lon="25.954936">
        <ele>1631.608</ele>
        <time>2017-05-26T15:21:49Z</time>
      </trkpt>
      <trkpt lat="46.964520" lon="25.954816">
        <ele>1634.188</ele>
        <time>2017-05-26T15:22:05Z</time>
      </trkpt>
      <trkpt lat="46.964464" lon="25.954685">
        <ele>1636.064</ele>
        <time>2017-05-26T15:22:15Z</time>
      </trkpt>
      <trkpt lat="46.964515" lon="25.954563">
        <ele>1644.686</ele>
        <time>2017-05-26T15:22:23Z</time>
      </trkpt>
      <trkpt lat="46.964532" lon="25.954432">
        <ele>1650.735</ele>
        <time>2017-05-26T15:22:35Z</time>
      </trkpt>
      <trkpt lat="46.964601" lon="25.954321">
        <ele>1653.719</ele>
        <time>2017-05-26T15:22:49Z</time>
      </trkpt>
      <trkpt lat="46.964572" lon="25.954187">
        <ele>1651.920</ele>
        <time>2017-05-26T15:23:03Z</time>
      </trkpt>
      <trkpt lat="46.964501" lon="25.954081">
        <ele>1644.779</ele>
        <time>2017-05-26T15:23:09Z</time>
      </trkpt>
      <trkpt lat="46.964526" lon="25.953945">
        <ele>1641.866</ele>
        <time>2017-05-26T15:23:23Z</time>
      </trkpt>
      <trkpt lat="46.964515" lon="25.953813">
        <ele>1639.386</ele>
        <time>2017-05-26T15:23:34Z</time>
      </trkpt>
      <trkpt lat="46.964609" lon="25.953819">
        <ele>1645.360</ele>
        <time>2017-05-26T15:24:27Z</time>
      </trkpt>
      <trkpt lat="46.964599" lon="25.953667">
        <ele>1645.026</ele>
        <time>2017-05-26T15:25:15Z</time>
      </trkpt>
      <trkpt lat="46.964659" lon="25.953555">
        <ele>1649.508</ele>
        <time>2017-05-26T15:25:41Z</time>
      </trkpt>
      <trkpt lat="46.964744" lon="25.953493">
        <ele>1655.789</ele>
        <time>2017-05-26T15:25:54Z</time>
      </trkpt>
      <trkpt lat="46.964721" lon="25.953364">
        <ele>1654.895</ele>
        <time>2017-05-26T15:26:09Z</time>
      </trkpt>
      <trkpt lat="46.964747" lon="25.953492">
        <ele>1655.947</ele>
        <time>2017-05-26T15:26:49Z</time>
      </trkpt>
      <trkpt lat="46.964798" lon="25.953610">
        <ele>1658.486</ele>
        <time>2017-05-26T15:27:21Z</time>
      </trkpt>
      <trkpt lat="46.964886" lon="25.953639">
        <ele>1663.460</ele>
        <time>2017-05-26T15:28:03Z</time>
      </trkpt>
      <trkpt lat="46.964693" lon="25.953519">
        <ele>1652.141</ele>
        <time>2017-05-26T15:28:39Z</time>
      </trkpt>
      <trkpt lat="46.964795" lon="25.953559">
        <ele>1658.410</ele>
        <time>2017-05-26T15:28:44Z</time>
      </trkpt>
      <trkpt lat="46.964901" lon="25.953683">
        <ele>1664.117</ele>
        <time>2017-05-26T15:29:00Z</time>
      </trkpt>
      <trkpt lat="46.964986" lon="25.953605">
        <ele>1669.268</ele>
        <time>2017-05-26T15:29:13Z</time>
      </trkpt>
      <trkpt lat="46.964946" lon="25.953480">
        <ele>1667.442</ele>
        <time>2017-05-26T15:29:59Z</time>
      </trkpt>
      <trkpt lat="46.965066" lon="25.953497">
        <ele>1673.326</ele>
        <time>2017-05-26T15:30:10Z</time>
      </trkpt>
      <trkpt lat="46.965054" lon="25.953356">
        <ele>1673.308</ele>
        <time>2017-05-26T15:31:04Z</time>
      </trkpt>
      <trkpt lat="46.965086" lon="25.953223">
        <ele>1675.517</ele>
        <time>2017-05-26T15:31:24Z</time>
      </trkpt>
      <trkpt lat="46.965074" lon="25.953081">
        <ele>1676.063</ele>
        <time>2017-05-26T15:31:43Z</time>
      </trkpt>
      <trkpt lat="46.965167" lon="25.953067">
        <ele>1680.175</ele>
        <time>2017-05-26T15:32:28Z</time>
      </trkpt>
      <trkpt lat="46.965089" lon="25.952988">
        <ele>1677.244</ele>
        <time>2017-05-26T15:32:43Z</time>
      </trkpt>
      <trkpt lat="46.965151" lon="25.952880">
        <ele>1680.888</ele>
        <time>2017-05-26T15:33:47Z</time>
      </trkpt>
      <trkpt lat="46.965171" lon="25.952748">
        <ele>1682.849</ele>
        <time>2017-05-26T15:34:26Z</time>
      </trkpt>
      <trkpt lat="46.965292" lon="25.952707">
        <ele>1688.738</ele>
        <time>2017-05-26T15:35:47Z</time>
      </trkpt>
      <trkpt lat="46.965208" lon="25.952590">
        <ele>1685.595</ele>
        <time>2017-05-26T15:35:50Z</time>
      </trkpt>
      <trkpt lat="46.965341" lon="25.952647">
        <ele>1690.619</ele>
        <time>2017-05-26T15:35:55Z</time>
      </trkpt>
      <trkpt lat="46.965169" lon="25.952515">
        <ele>1684.209</ele>
        <time>2017-05-26T15:35:57Z</time>
      </trkpt>
      <trkpt lat="46.965268" lon="25.952597">
        <ele>1688.219</ele>
        <time>2017-05-26T15:36:14Z</time>
      </trkpt>
      <trkpt lat="46.965359" lon="25.952677">
        <ele>1691.008</ele>
        <time>2017-05-26T15:36:20Z</time>
      </trkpt>
      <trkpt lat="46.965423" lon="25.952571">
        <ele>1694.112</ele>
        <time>2017-05-26T15:37:07Z</time>
      </trkpt>
      <trkpt lat="46.965425" lon="25.952426">
        <ele>1695.898</ele>
        <time>2017-05-26T15:37:19Z</time>
      </trkpt>
      <trkpt lat="46.965355" lon="25.952312">
        <ele>1694.380</ele>
        <time>2017-05-26T15:37:46Z</time>
      </trkpt>
      <trkpt lat="46.965339" lon="25.952160">
        <ele>1695.229</ele>
        <time>2017-05-26T15:38:08Z</time>
      </trkpt>
      <trkpt lat="46.965365" lon="25.952030">
        <ele>1697.493</ele>
        <time>2017-05-26T15:38:27Z</time>
      </trkpt>
      <trkpt lat="46.965401" lon="25.951901">
        <ele>1699.724</ele>
        <time>2017-05-26T15:38:47Z</time>
      </trkpt>
      <trkpt lat="46.965361" lon="25.951765">
        <ele>1698.833</ele>
        <time>2017-05-26T15:39:07Z</time>
      </trkpt>
      <trkpt lat="46.965292" lon="25.951668">
        <ele>1696.660</ele>
        <time>2017-05-26T15:39:17Z</time>
      </trkpt>
      <trkpt lat="46.965290" lon="25.951530">
        <ele>1697.064</ele>
        <time>2017-05-26T15:39:32Z</time>
      </trkpt>
      <trkpt lat="46.965349" lon="25.951427">
        <ele>1699.706</ele>
        <time>2017-05-26T15:39:47Z</time>
      </trkpt>
      <trkpt lat="46.965288" lon="25.951317">
        <ele>1697.916</ele>
        <time>2017-05-26T15:39:53Z</time>
      </trkpt>
      <trkpt lat="46.965313" lon="25.951188">
        <ele>1699.908</ele>
        <time>2017-05-26T15:40:12Z</time>
      </trkpt>
      <trkpt lat="46.965265" lon="25.951070">
        <ele>1699.187</ele>
        <time>2017-05-26T15:40:20Z</time>
      </trkpt>
      <trkpt lat="46.965321" lon="25.950945">
        <ele>1703.283</ele>
        <time>2017-05-26T15:40:49Z</time>
      </trkpt>
      <trkpt lat="46.965406" lon="25.950899">
        <ele>1707.225</ele>
        <time>2017-05-26T15:41:04Z</time>
      </trkpt>
      <trkpt lat="46.965497" lon="25.950901">
        <ele>1710.984</ele>
        <time>2017-05-26T15:41:27Z</time>
      </trkpt>
      <trkpt lat="46.965587" lon="25.950909">
        <ele>1714.888</ele>
        <time>2017-05-26T15:42:07Z</time>
      </trkpt>
      <trkpt lat="46.965670" lon="25.950855">
        <ele>1719.979</ele>
        <time>2017-05-26T15:43:49Z</time>
      </trkpt>
      <trkpt lat="46.965679" lon="25.950717">
        <ele>1723.588</ele>
        <time>2017-05-26T15:44:09Z</time>
      </trkpt>
      <trkpt lat="46.965735" lon="25.950612">
        <ele>1729.745</ele>
        <time>2017-05-26T15:44:41Z</time>
      </trkpt>
      <trkpt lat="46.965790" lon="25.950500">
        <ele>1735.934</ele>
        <time>2017-05-26T15:45:03Z</time>
      </trkpt>
      <trkpt lat="46.965822" lon="25.950364">
        <ele>1740.155</ele>
        <time>2017-05-26T15:45:20Z</time>
      </trkpt>
      <trkpt lat="46.965832" lon="25.950227">
        <ele>1742.510</ele>
        <time>2017-05-26T15:45:34Z</time>
      </trkpt>
      <trkpt lat="46.965819" lon="25.950092">
        <ele>1743.308</ele>
        <time>2017-05-26T15:45:48Z</time>
      </trkpt>
      <trkpt lat="46.965823" lon="25.949953">
        <ele>1745.834</ele>
        <time>2017-05-26T15:46:05Z</time>
      </trkpt>
      <trkpt lat="46.965807" lon="25.949814">
        <ele>1748.740</ele>
        <time>2017-05-26T15:46:24Z</time>
      </trkpt>
      <trkpt lat="46.965755" lon="25.949704">
        <ele>1749.972</ele>
        <time>2017-05-26T15:46:58Z</time>
      </trkpt>
      <trkpt lat="46.965718" lon="25.949581">
        <ele>1753.551</ele>
        <time>2017-05-26T15:47:16Z</time>
      </trkpt>
      <trkpt lat="46.965687" lon="25.949458">
        <ele>1757.125</ele>
        <time>2017-05-26T15:47:30Z</time>
      </trkpt>
      <trkpt lat="46.965632" lon="25.949347">
        <ele>1758.616</ele>
        <time>2017-05-26T15:47:43Z</time>
      </trkpt>
      <trkpt lat="46.965556" lon="25.949271">
        <ele>1758.385</ele>
        <time>2017-05-26T15:48:01Z</time>
      </trkpt>
      <trkpt lat="46.965469" lon="25.949226">
        <ele>1757.482</ele>
        <time>2017-05-26T15:48:33Z</time>
      </trkpt>
      <trkpt lat="46.965406" lon="25.949114">
        <ele>1758.832</ele>
        <time>2017-05-26T15:48:48Z</time>
      </trkpt>
      <trkpt lat="46.965337" lon="25.949015">
        <ele>1759.092</ele>
        <time>2017-05-26T15:49:04Z</time>
      </trkpt>
      <trkpt lat="46.965274" lon="25.948920">
        <ele>1759.311</ele>
        <time>2017-05-26T15:49:24Z</time>
      </trkpt>
      <trkpt lat="46.965208" lon="25.948830">
        <ele>1760.608</ele>
        <time>2017-05-26T15:49:40Z</time>
      </trkpt>
      <trkpt lat="46.965136" lon="25.948750">
        <ele>1762.024</ele>
        <time>2017-05-26T15:49:57Z</time>
      </trkpt>
      <trkpt lat="46.965087" lon="25.948629">
        <ele>1764.870</ele>
        <time>2017-05-26T15:50:08Z</time>
      </trkpt>
    </trkseg>
  </trk></gpx>