<?xml version="1.0" encoding="UTF-8"?>
<gpx creator="Wikiloc - https://www.wikiloc.com" version="1.1" xmlns="http://www.topografix.com/GPX/1/1" xmlns:xsi="http://www.w3.org/2001/XMLSchema-instance" xsi:schemaLocation="http://www.topografix.com/GPX/1/1 http://www.topografix.com/GPX/1/1/gpx.xsd">
  <metadata>
    <name>Wikiloc - Piatra Iorgovanului - Hiking 10/4/15 8:45 am</name>
    <author>
      <name>Toni Grecu</name>
      <link href="https://www.wikiloc.com/wikiloc/user.do?id=2082631">
        <text>Toni Grecu on Wikiloc</text>
      </link>
    </author>
    <link href="https://www.wikiloc.com/hiking-trails/piatra-iorgovanului-hiking-10-4-15-8-45-am-17102634">
      <text>Piatra Iorgovanului - Hiking 10/4/15 8:45 am on Wikiloc</text>
    </link>
    <time>2015-10-04T10:42:10Z</time>
  </metadata>
  <trk>
    <name>Piatra Iorgovanului - Hiking 10/4/15 8:45 am - Wikiloc</name>
    <cmt>Piatra Iorgovanului 2014 m Masivul Piule - Iorgovanului (Retezatul Mic) 
4 octombrie 2015 
Cabana de vanatoare Campusel - Piatra Iorgovanului 
marcaj: TR</cmt>
    <desc>Piatra Iorgovanului 2014 m Masivul Piule - Iorgovanului (Retezatul Mic) 
4 octombrie 2015 
Cabana de vanatoare Campusel - Piatra Iorgovanului 
marcaj: TR</desc>
    <trkseg>
      <trkpt lat="45.262384" lon="22.868954">
        <ele>1194.422</ele>
        <time>2015-10-04T05:45:04Z</time>
      </trkpt>
      <trkpt lat="45.262656" lon="22.867848">
        <ele>1204.462</ele>
        <time>2015-10-04T05:48:36Z</time>
      </trkpt>
      <trkpt lat="45.262568" lon="22.867894">
        <ele>1200.808</ele>
        <time>2015-10-04T05:48:41Z</time>
      </trkpt>
      <trkpt lat="45.262556" lon="22.867773">
        <ele>1201.108</ele>
        <time>2015-10-04T05:49:12Z</time>
      </trkpt>
      <trkpt lat="45.262608" lon="22.867683">
        <ele>1204.333</ele>
        <time>2015-10-04T05:49:22Z</time>
      </trkpt>
      <trkpt lat="45.262703" lon="22.867628">
        <ele>1209.189</ele>
        <time>2015-10-04T05:49:37Z</time>
      </trkpt>
      <trkpt lat="45.262763" lon="22.867531">
        <ele>1213.713</ele>
        <time>2015-10-04T05:49:59Z</time>
      </trkpt>
      <trkpt lat="45.262836" lon="22.867451">
        <ele>1217.742</ele>
        <time>2015-10-04T05:50:34Z</time>
      </trkpt>
      <trkpt lat="45.262951" lon="22.867333">
        <ele>1223.274</ele>
        <time>2015-10-04T05:51:20Z</time>
      </trkpt>
      <trkpt lat="45.263021" lon="22.867263">
        <ele>1226.468</ele>
        <time>2015-10-04T05:51:35Z</time>
      </trkpt>
      <trkpt lat="45.263083" lon="22.867185">
        <ele>1229.265</ele>
        <time>2015-10-04T05:52:00Z</time>
      </trkpt>
      <trkpt lat="45.263185" lon="22.867166">
        <ele>1232.476</ele>
        <time>2015-10-04T05:52:31Z</time>
      </trkpt>
      <trkpt lat="45.263228" lon="22.867065">
        <ele>1235.066</ele>
        <time>2015-10-04T05:53:06Z</time>
      </trkpt>
      <trkpt lat="45.263301" lon="22.867011">
        <ele>1238.029</ele>
        <time>2015-10-04T05:53:34Z</time>
      </trkpt>
      <trkpt lat="45.263215" lon="22.867098">
        <ele>1234.221</ele>
        <time>2015-10-04T05:53:43Z</time>
      </trkpt>
      <trkpt lat="45.263288" lon="22.867043">
        <ele>1237.208</ele>
        <time>2015-10-04T05:54:30Z</time>
      </trkpt>
      <trkpt lat="45.263358" lon="22.866979">
        <ele>1240.877</ele>
        <time>2015-10-04T05:54:53Z</time>
      </trkpt>
      <trkpt lat="45.263448" lon="22.866990">
        <ele>1245.563</ele>
        <time>2015-10-04T05:55:05Z</time>
      </trkpt>
      <trkpt lat="45.263551" lon="22.866968">
        <ele>1251.317</ele>
        <time>2015-10-04T05:55:30Z</time>
      </trkpt>
      <trkpt lat="45.263636" lon="22.866921">
        <ele>1256.856</ele>
        <time>2015-10-04T05:55:44Z</time>
      </trkpt>
      <trkpt lat="45.263753" lon="22.866923">
        <ele>1263.148</ele>
        <time>2015-10-04T05:56:11Z</time>
      </trkpt>
      <trkpt lat="45.263835" lon="22.866900">
        <ele>1267.972</ele>
        <time>2015-10-04T05:57:08Z</time>
      </trkpt>
      <trkpt lat="45.263923" lon="22.866901">
        <ele>1272.249</ele>
        <time>2015-10-04T05:57:17Z</time>
      </trkpt>
      <trkpt lat="45.264005" lon="22.866911">
        <ele>1275.660</ele>
        <time>2015-10-04T05:57:36Z</time>
      </trkpt>
      <trkpt lat="45.263923" lon="22.866916">
        <ele>1272.035</ele>
        <time>2015-10-04T05:58:07Z</time>
      </trkpt>
      <trkpt lat="45.263838" lon="22.866931">
        <ele>1267.586</ele>
        <time>2015-10-04T05:58:24Z</time>
      </trkpt>
      <trkpt lat="45.263755" lon="22.866975">
        <ele>1262.314</ele>
        <time>2015-10-04T05:58:29Z</time>
      </trkpt>
      <trkpt lat="45.263835" lon="22.866938">
        <ele>1267.208</ele>
        <time>2015-10-04T05:58:51Z</time>
      </trkpt>
      <trkpt lat="45.263905" lon="22.867000">
        <ele>1269.964</ele>
        <time>2015-10-04T05:58:58Z</time>
      </trkpt>
      <trkpt lat="45.263988" lon="22.867038">
        <ele>1272.770</ele>
        <time>2015-10-04T06:02:31Z</time>
      </trkpt>
      <trkpt lat="45.264090" lon="22.866963">
        <ele>1278.334</ele>
        <time>2015-10-04T06:03:54Z</time>
      </trkpt>
      <trkpt lat="45.264171" lon="22.866949">
        <ele>1282.143</ele>
        <time>2015-10-04T06:04:05Z</time>
      </trkpt>
      <trkpt lat="45.264249" lon="22.867008">
        <ele>1283.525</ele>
        <time>2015-10-04T06:04:24Z</time>
      </trkpt>
      <trkpt lat="45.264339" lon="22.867021">
        <ele>1286.429</ele>
        <time>2015-10-04T06:04:36Z</time>
      </trkpt>
      <trkpt lat="45.264421" lon="22.867028">
        <ele>1289.126</ele>
        <time>2015-10-04T06:04:43Z</time>
      </trkpt>
      <trkpt lat="45.264519" lon="22.867078">
        <ele>1290.277</ele>
        <time>2015-10-04T06:05:00Z</time>
      </trkpt>
      <trkpt lat="45.264604" lon="22.867086">
        <ele>1291.999</ele>
        <time>2015-10-04T06:05:47Z</time>
      </trkpt>
      <trkpt lat="45.264613" lon="22.866971">
        <ele>1295.007</ele>
        <time>2015-10-04T06:06:02Z</time>
      </trkpt>
      <trkpt lat="45.264681" lon="22.866910">
        <ele>1298.227</ele>
        <time>2015-10-04T06:06:11Z</time>
      </trkpt>
      <trkpt lat="45.264815" lon="22.866900">
        <ele>1301.708</ele>
        <time>2015-10-04T06:06:42Z</time>
      </trkpt>
      <trkpt lat="45.264894" lon="22.867013">
        <ele>1300.950</ele>
        <time>2015-10-04T06:07:44Z</time>
      </trkpt>
      <trkpt lat="45.264984" lon="22.867020">
        <ele>1303.246</ele>
        <time>2015-10-04T06:07:54Z</time>
      </trkpt>
      <trkpt lat="45.265059" lon="22.867066">
        <ele>1305.160</ele>
        <time>2015-10-04T06:08:14Z</time>
      </trkpt>
      <trkpt lat="45.265170" lon="22.867053">
        <ele>1309.869</ele>
        <time>2015-10-04T06:09:26Z</time>
      </trkpt>
      <trkpt lat="45.265251" lon="22.867015">
        <ele>1313.791</ele>
        <time>2015-10-04T06:09:42Z</time>
      </trkpt>
      <trkpt lat="45.265336" lon="22.867030">
        <ele>1316.665</ele>
        <time>2015-10-04T06:09:54Z</time>
      </trkpt>
      <trkpt lat="45.265441" lon="22.867021">
        <ele>1320.782</ele>
        <time>2015-10-04T06:10:15Z</time>
      </trkpt>
      <trkpt lat="45.265561" lon="22.867016">
        <ele>1325.163</ele>
        <time>2015-10-04T06:10:25Z</time>
      </trkpt>
      <trkpt lat="45.265445" lon="22.867106">
        <ele>1319.579</ele>
        <time>2015-10-04T06:11:00Z</time>
      </trkpt>
      <trkpt lat="45.265518" lon="22.867166">
        <ele>1321.405</ele>
        <time>2015-10-04T06:11:24Z</time>
      </trkpt>
      <trkpt lat="45.265435" lon="22.867135">
        <ele>1318.625</ele>
        <time>2015-10-04T06:12:36Z</time>
      </trkpt>
      <trkpt lat="45.265385" lon="22.867031">
        <ele>1318.408</ele>
        <time>2015-10-04T06:12:48Z</time>
      </trkpt>
      <trkpt lat="45.265480" lon="22.867008">
        <ele>1322.378</ele>
        <time>2015-10-04T06:13:47Z</time>
      </trkpt>
      <trkpt lat="45.265560" lon="22.867038">
        <ele>1324.854</ele>
        <time>2015-10-04T06:13:52Z</time>
      </trkpt>
      <trkpt lat="45.265641" lon="22.866996">
        <ele>1328.098</ele>
        <time>2015-10-04T06:15:24Z</time>
      </trkpt>
      <trkpt lat="45.265641" lon="22.867113">
        <ele>1326.237</ele>
        <time>2015-10-04T06:16:10Z</time>
      </trkpt>
      <trkpt lat="45.265725" lon="22.867111">
        <ele>1328.739</ele>
        <time>2015-10-04T06:16:18Z</time>
      </trkpt>
      <trkpt lat="45.265786" lon="22.867211">
        <ele>1328.813</ele>
        <time>2015-10-04T06:16:54Z</time>
      </trkpt>
      <trkpt lat="45.265868" lon="22.867293">
        <ele>1330.380</ele>
        <time>2015-10-04T06:17:49Z</time>
      </trkpt>
      <trkpt lat="45.265966" lon="22.867308">
        <ele>1333.291</ele>
        <time>2015-10-04T06:18:16Z</time>
      </trkpt>
      <trkpt lat="45.266058" lon="22.867343">
        <ele>1335.619</ele>
        <time>2015-10-04T06:18:28Z</time>
      </trkpt>
      <trkpt lat="45.266146" lon="22.867321">
        <ele>1338.609</ele>
        <time>2015-10-04T06:18:38Z</time>
      </trkpt>
      <trkpt lat="45.266229" lon="22.867298">
        <ele>1341.419</ele>
        <time>2015-10-04T06:18:50Z</time>
      </trkpt>
      <trkpt lat="45.266313" lon="22.867306">
        <ele>1343.708</ele>
        <time>2015-10-04T06:19:04Z</time>
      </trkpt>
      <trkpt lat="45.266398" lon="22.867380">
        <ele>1344.112</ele>
        <time>2015-10-04T06:19:45Z</time>
      </trkpt>
      <trkpt lat="45.266488" lon="22.867388">
        <ele>1345.128</ele>
        <time>2015-10-04T06:23:51Z</time>
      </trkpt>
      <trkpt lat="45.266589" lon="22.867399">
        <ele>1346.282</ele>
        <time>2015-10-04T06:24:03Z</time>
      </trkpt>
      <trkpt lat="45.266675" lon="22.867399">
        <ele>1347.341</ele>
        <time>2015-10-04T06:24:10Z</time>
      </trkpt>
      <trkpt lat="45.266755" lon="22.867381">
        <ele>1348.523</ele>
        <time>2015-10-04T06:24:21Z</time>
      </trkpt>
      <trkpt lat="45.266836" lon="22.867321">
        <ele>1350.797</ele>
        <time>2015-10-04T06:24:36Z</time>
      </trkpt>
      <trkpt lat="45.266966" lon="22.867346">
        <ele>1351.624</ele>
        <time>2015-10-04T06:26:14Z</time>
      </trkpt>
      <trkpt lat="45.267046" lon="22.867318">
        <ele>1353.455</ele>
        <time>2015-10-04T06:28:17Z</time>
      </trkpt>
      <trkpt lat="45.267131" lon="22.867301">
        <ele>1355.096</ele>
        <time>2015-10-04T06:28:43Z</time>
      </trkpt>
      <trkpt lat="45.267213" lon="22.867266">
        <ele>1356.931</ele>
        <time>2015-10-04T06:28:52Z</time>
      </trkpt>
      <trkpt lat="45.267309" lon="22.867266">
        <ele>1358.424</ele>
        <time>2015-10-04T06:29:00Z</time>
      </trkpt>
      <trkpt lat="45.267395" lon="22.867273">
        <ele>1359.608</ele>
        <time>2015-10-04T06:29:06Z</time>
      </trkpt>
      <trkpt lat="45.267473" lon="22.867236">
        <ele>1361.490</ele>
        <time>2015-10-04T06:29:18Z</time>
      </trkpt>
      <trkpt lat="45.267628" lon="22.867189">
        <ele>1363.636</ele>
        <time>2015-10-04T06:29:48Z</time>
      </trkpt>
      <trkpt lat="45.267713" lon="22.867203">
        <ele>1363.940</ele>
        <time>2015-10-04T06:29:56Z</time>
      </trkpt>
      <trkpt lat="45.267803" lon="22.867210">
        <ele>1364.549</ele>
        <time>2015-10-04T06:30:02Z</time>
      </trkpt>
      <trkpt lat="45.267888" lon="22.867208">
        <ele>1365.421</ele>
        <time>2015-10-04T06:30:10Z</time>
      </trkpt>
      <trkpt lat="45.267986" lon="22.867215">
        <ele>1366.475</ele>
        <time>2015-10-04T06:30:21Z</time>
      </trkpt>
      <trkpt lat="45.268066" lon="22.867188">
        <ele>1367.752</ele>
        <time>2015-10-04T06:30:28Z</time>
      </trkpt>
      <trkpt lat="45.268156" lon="22.867178">
        <ele>1369.773</ele>
        <time>2015-10-04T06:30:37Z</time>
      </trkpt>
      <trkpt lat="45.268240" lon="22.867188">
        <ele>1371.439</ele>
        <time>2015-10-04T06:30:46Z</time>
      </trkpt>
      <trkpt lat="45.268321" lon="22.867195">
        <ele>1373.001</ele>
        <time>2015-10-04T06:30:55Z</time>
      </trkpt>
      <trkpt lat="45.268403" lon="22.867256">
        <ele>1373.621</ele>
        <time>2015-10-04T06:31:13Z</time>
      </trkpt>
      <trkpt lat="45.268484" lon="22.867301">
        <ele>1374.208</ele>
        <time>2015-10-04T06:31:19Z</time>
      </trkpt>
      <trkpt lat="45.268598" lon="22.867356">
        <ele>1374.984</ele>
        <time>2015-10-04T06:31:40Z</time>
      </trkpt>
      <trkpt lat="45.268683" lon="22.867380">
        <ele>1375.350</ele>
        <time>2015-10-04T06:31:50Z</time>
      </trkpt>
      <trkpt lat="45.268766" lon="22.867388">
        <ele>1375.864</ele>
        <time>2015-10-04T06:32:00Z</time>
      </trkpt>
      <trkpt lat="45.268851" lon="22.867371">
        <ele>1376.953</ele>
        <time>2015-10-04T06:32:16Z</time>
      </trkpt>
      <trkpt lat="45.268901" lon="22.867278">
        <ele>1379.745</ele>
        <time>2015-10-04T06:32:45Z</time>
      </trkpt>
      <trkpt lat="45.268895" lon="22.867160">
        <ele>1382.029</ele>
        <time>2015-10-04T06:32:59Z</time>
      </trkpt>
      <trkpt lat="45.268930" lon="22.867041">
        <ele>1384.456</ele>
        <time>2015-10-04T06:33:24Z</time>
      </trkpt>
      <trkpt lat="45.268946" lon="22.866913">
        <ele>1387.017</ele>
        <time>2015-10-04T06:33:36Z</time>
      </trkpt>
      <trkpt lat="45.268943" lon="22.866798">
        <ele>1388.992</ele>
        <time>2015-10-04T06:33:46Z</time>
      </trkpt>
      <trkpt lat="45.268928" lon="22.866683">
        <ele>1390.673</ele>
        <time>2015-10-04T06:33:58Z</time>
      </trkpt>
      <trkpt lat="45.268898" lon="22.866566">
        <ele>1392.020</ele>
        <time>2015-10-04T06:34:14Z</time>
      </trkpt>
      <trkpt lat="45.268918" lon="22.866445">
        <ele>1394.708</ele>
        <time>2015-10-04T06:34:33Z</time>
      </trkpt>
      <trkpt lat="45.268931" lon="22.866325">
        <ele>1398.080</ele>
        <time>2015-10-04T06:36:27Z</time>
      </trkpt>
      <trkpt lat="45.268945" lon="22.866186">
        <ele>1402.546</ele>
        <time>2015-10-04T06:36:44Z</time>
      </trkpt>
      <trkpt lat="45.269013" lon="22.866040">
        <ele>1407.250</ele>
        <time>2015-10-04T06:37:20Z</time>
      </trkpt>
      <trkpt lat="45.269066" lon="22.865951">
        <ele>1409.699</ele>
        <time>2015-10-04T06:37:30Z</time>
      </trkpt>
      <trkpt lat="45.269118" lon="22.865859">
        <ele>1412.081</ele>
        <time>2015-10-04T06:37:40Z</time>
      </trkpt>
      <trkpt lat="45.269165" lon="22.865761">
        <ele>1413.835</ele>
        <time>2015-10-04T06:37:56Z</time>
      </trkpt>
      <trkpt lat="45.269241" lon="22.865721">
        <ele>1414.732</ele>
        <time>2015-10-04T06:38:04Z</time>
      </trkpt>
      <trkpt lat="45.269335" lon="22.865681">
        <ele>1415.913</ele>
        <time>2015-10-04T06:38:31Z</time>
      </trkpt>
      <trkpt lat="45.269428" lon="22.865720">
        <ele>1416.152</ele>
        <time>2015-10-04T06:38:40Z</time>
      </trkpt>
      <trkpt lat="45.269525" lon="22.865750">
        <ele>1416.453</ele>
        <time>2015-10-04T06:38:49Z</time>
      </trkpt>
      <trkpt lat="45.269606" lon="22.865768">
        <ele>1416.608</ele>
        <time>2015-10-04T06:38:57Z</time>
      </trkpt>
      <trkpt lat="45.269683" lon="22.865816">
        <ele>1416.208</ele>
        <time>2015-10-04T06:39:08Z</time>
      </trkpt>
      <trkpt lat="45.269766" lon="22.865823">
        <ele>1416.536</ele>
        <time>2015-10-04T06:39:20Z</time>
      </trkpt>
      <trkpt lat="45.269855" lon="22.865895">
        <ele>1415.822</ele>
        <time>2015-10-04T06:43:53Z</time>
      </trkpt>
      <trkpt lat="45.269938" lon="22.865861">
        <ele>1416.916</ele>
        <time>2015-10-04T06:45:17Z</time>
      </trkpt>
      <trkpt lat="45.270006" lon="22.865773">
        <ele>1419.515</ele>
        <time>2015-10-04T06:45:27Z</time>
      </trkpt>
      <trkpt lat="45.270080" lon="22.865691">
        <ele>1421.687</ele>
        <time>2015-10-04T06:45:36Z</time>
      </trkpt>
      <trkpt lat="45.270121" lon="22.865591">
        <ele>1424.881</ele>
        <time>2015-10-04T06:45:51Z</time>
      </trkpt>
      <trkpt lat="45.270116" lon="22.865476">
        <ele>1427.798</ele>
        <time>2015-10-04T06:46:05Z</time>
      </trkpt>
      <trkpt lat="45.270136" lon="22.865363">
        <ele>1430.569</ele>
        <time>2015-10-04T06:46:15Z</time>
      </trkpt>
      <trkpt lat="45.270175" lon="22.865261">
        <ele>1433.071</ele>
        <time>2015-10-04T06:46:35Z</time>
      </trkpt>
      <trkpt lat="45.270215" lon="22.865148">
        <ele>1435.641</ele>
        <time>2015-10-04T06:46:52Z</time>
      </trkpt>
      <trkpt lat="45.270288" lon="22.865083">
        <ele>1437.115</ele>
        <time>2015-10-04T06:47:07Z</time>
      </trkpt>
      <trkpt lat="45.270321" lon="22.864921">
        <ele>1439.708</ele>
        <time>2015-10-04T06:47:41Z</time>
      </trkpt>
      <trkpt lat="45.270368" lon="22.864703">
        <ele>1443.288</ele>
        <time>2015-10-04T06:48:17Z</time>
      </trkpt>
      <trkpt lat="45.270394" lon="22.864591">
        <ele>1445.484</ele>
        <time>2015-10-04T06:49:14Z</time>
      </trkpt>
      <trkpt lat="45.270463" lon="22.864516">
        <ele>1446.058</ele>
        <time>2015-10-04T06:49:30Z</time>
      </trkpt>
      <trkpt lat="45.270521" lon="22.864435">
        <ele>1446.917</ele>
        <time>2015-10-04T06:49:44Z</time>
      </trkpt>
      <trkpt lat="45.270570" lon="22.864341">
        <ele>1449.129</ele>
        <time>2015-10-04T06:49:59Z</time>
      </trkpt>
      <trkpt lat="45.270628" lon="22.864250">
        <ele>1452.123</ele>
        <time>2015-10-04T06:50:14Z</time>
      </trkpt>
      <trkpt lat="45.270715" lon="22.864201">
        <ele>1454.240</ele>
        <time>2015-10-04T06:50:26Z</time>
      </trkpt>
      <trkpt lat="45.270763" lon="22.864100">
        <ele>1457.281</ele>
        <time>2015-10-04T06:50:38Z</time>
      </trkpt>
      <trkpt lat="45.270799" lon="22.863986">
        <ele>1460.397</ele>
        <time>2015-10-04T06:50:49Z</time>
      </trkpt>
      <trkpt lat="45.270855" lon="22.863891">
        <ele>1463.223</ele>
        <time>2015-10-04T06:51:04Z</time>
      </trkpt>
      <trkpt lat="45.270949" lon="22.863861">
        <ele>1464.825</ele>
        <time>2015-10-04T06:51:30Z</time>
      </trkpt>
      <trkpt lat="45.271035" lon="22.863863">
        <ele>1465.608</ele>
        <time>2015-10-04T06:51:35Z</time>
      </trkpt>
      <trkpt lat="45.271131" lon="22.863908">
        <ele>1465.950</ele>
        <time>2015-10-04T06:51:57Z</time>
      </trkpt>
      <trkpt lat="45.271215" lon="22.863873">
        <ele>1468.246</ele>
        <time>2015-10-04T06:52:07Z</time>
      </trkpt>
      <trkpt lat="45.271294" lon="22.863828">
        <ele>1470.590</ele>
        <time>2015-10-04T06:52:17Z</time>
      </trkpt>
      <trkpt lat="45.271376" lon="22.863833">
        <ele>1472.089</ele>
        <time>2015-10-04T06:52:34Z</time>
      </trkpt>
      <trkpt lat="45.271463" lon="22.863826">
        <ele>1474.141</ele>
        <time>2015-10-04T06:52:46Z</time>
      </trkpt>
      <trkpt lat="45.271548" lon="22.863850">
        <ele>1475.575</ele>
        <time>2015-10-04T06:53:19Z</time>
      </trkpt>
      <trkpt lat="45.271633" lon="22.863845">
        <ele>1477.632</ele>
        <time>2015-10-04T06:54:04Z</time>
      </trkpt>
      <trkpt lat="45.271713" lon="22.863823">
        <ele>1480.233</ele>
        <time>2015-10-04T06:54:16Z</time>
      </trkpt>
      <trkpt lat="45.271800" lon="22.863820">
        <ele>1482.227</ele>
        <time>2015-10-04T06:54:26Z</time>
      </trkpt>
      <trkpt lat="45.271876" lon="22.863763">
        <ele>1485.368</ele>
        <time>2015-10-04T06:55:09Z</time>
      </trkpt>
      <trkpt lat="45.271935" lon="22.863633">
        <ele>1489.414</ele>
        <time>2015-10-04T06:55:32Z</time>
      </trkpt>
      <trkpt lat="45.271995" lon="22.863548">
        <ele>1492.208</ele>
        <time>2015-10-04T06:55:44Z</time>
      </trkpt>
      <trkpt lat="45.272058" lon="22.863471">
        <ele>1495.053</ele>
        <time>2015-10-04T06:56:21Z</time>
      </trkpt>
      <trkpt lat="45.272140" lon="22.863433">
        <ele>1497.149</ele>
        <time>2015-10-04T06:56:33Z</time>
      </trkpt>
      <trkpt lat="45.272201" lon="22.863358">
        <ele>1500.063</ele>
        <time>2015-10-04T06:56:51Z</time>
      </trkpt>
      <trkpt lat="45.272270" lon="22.863296">
        <ele>1502.562</ele>
        <time>2015-10-04T06:57:01Z</time>
      </trkpt>
      <trkpt lat="45.272315" lon="22.863195">
        <ele>1505.364</ele>
        <time>2015-10-04T06:57:18Z</time>
      </trkpt>
      <trkpt lat="45.272411" lon="22.863163">
        <ele>1507.448</ele>
        <time>2015-10-04T06:59:21Z</time>
      </trkpt>
      <trkpt lat="45.272468" lon="22.863078">
        <ele>1510.175</ele>
        <time>2015-10-04T07:00:34Z</time>
      </trkpt>
      <trkpt lat="45.272533" lon="22.862996">
        <ele>1513.016</ele>
        <time>2015-10-04T07:00:46Z</time>
      </trkpt>
      <trkpt lat="45.272636" lon="22.862935">
        <ele>1516.269</ele>
        <time>2015-10-04T07:01:05Z</time>
      </trkpt>
      <trkpt lat="45.272683" lon="22.862838">
        <ele>1519.604</ele>
        <time>2015-10-04T07:01:28Z</time>
      </trkpt>
      <trkpt lat="45.272758" lon="22.862779">
        <ele>1522.624</ele>
        <time>2015-10-04T07:01:38Z</time>
      </trkpt>
      <trkpt lat="45.272845" lon="22.862766">
        <ele>1524.408</ele>
        <time>2015-10-04T07:01:51Z</time>
      </trkpt>
      <trkpt lat="45.272893" lon="22.862643">
        <ele>1527.557</ele>
        <time>2015-10-04T07:02:47Z</time>
      </trkpt>
      <trkpt lat="45.272955" lon="22.862566">
        <ele>1530.013</ele>
        <time>2015-10-04T07:03:04Z</time>
      </trkpt>
      <trkpt lat="45.272983" lon="22.862446">
        <ele>1532.217</ele>
        <time>2015-10-04T07:03:18Z</time>
      </trkpt>
      <trkpt lat="45.273030" lon="22.862351">
        <ele>1534.116</ele>
        <time>2015-10-04T07:03:30Z</time>
      </trkpt>
      <trkpt lat="45.273109" lon="22.862296">
        <ele>1536.488</ele>
        <time>2015-10-04T07:03:46Z</time>
      </trkpt>
      <trkpt lat="45.273186" lon="22.862241">
        <ele>1538.672</ele>
        <time>2015-10-04T07:04:00Z</time>
      </trkpt>
      <trkpt lat="45.273266" lon="22.862196">
        <ele>1540.559</ele>
        <time>2015-10-04T07:04:21Z</time>
      </trkpt>
      <trkpt lat="45.273351" lon="22.862166">
        <ele>1542.370</ele>
        <time>2015-10-04T07:04:37Z</time>
      </trkpt>
      <trkpt lat="45.273440" lon="22.862160">
        <ele>1544.189</ele>
        <time>2015-10-04T07:05:01Z</time>
      </trkpt>
      <trkpt lat="45.273521" lon="22.862181">
        <ele>1545.606</ele>
        <time>2015-10-04T07:05:16Z</time>
      </trkpt>
      <trkpt lat="45.273605" lon="22.862181">
        <ele>1547.226</ele>
        <time>2015-10-04T07:05:35Z</time>
      </trkpt>
      <trkpt lat="45.273691" lon="22.862164">
        <ele>1548.108</ele>
        <time>2015-10-04T07:05:58Z</time>
      </trkpt>
      <trkpt lat="45.273766" lon="22.862121">
        <ele>1549.099</ele>
        <time>2015-10-04T07:06:13Z</time>
      </trkpt>
      <trkpt lat="45.273851" lon="22.862135">
        <ele>1549.635</ele>
        <time>2015-10-04T07:06:28Z</time>
      </trkpt>
      <trkpt lat="45.273931" lon="22.862113">
        <ele>1550.229</ele>
        <time>2015-10-04T07:06:40Z</time>
      </trkpt>
      <trkpt lat="45.273995" lon="22.862036">
        <ele>1551.588</ele>
        <time>2015-10-04T07:06:55Z</time>
      </trkpt>
      <trkpt lat="45.274055" lon="22.861955">
        <ele>1553.680</ele>
        <time>2015-10-04T07:07:10Z</time>
      </trkpt>
      <trkpt lat="45.274121" lon="22.861863">
        <ele>1555.664</ele>
        <time>2015-10-04T07:07:23Z</time>
      </trkpt>
      <trkpt lat="45.274196" lon="22.861813">
        <ele>1556.931</ele>
        <time>2015-10-04T07:07:38Z</time>
      </trkpt>
      <trkpt lat="45.274248" lon="22.861716">
        <ele>1558.922</ele>
        <time>2015-10-04T07:07:49Z</time>
      </trkpt>
      <trkpt lat="45.274311" lon="22.861641">
        <ele>1560.845</ele>
        <time>2015-10-04T07:08:01Z</time>
      </trkpt>
      <trkpt lat="45.274374" lon="22.861569">
        <ele>1562.347</ele>
        <time>2015-10-04T07:08:12Z</time>
      </trkpt>
      <trkpt lat="45.274415" lon="22.861470">
        <ele>1564.211</ele>
        <time>2015-10-04T07:08:23Z</time>
      </trkpt>
      <trkpt lat="45.274488" lon="22.861413">
        <ele>1565.908</ele>
        <time>2015-10-04T07:09:52Z</time>
      </trkpt>
      <trkpt lat="45.274584" lon="22.861443">
        <ele>1565.525</ele>
        <time>2015-10-04T07:21:51Z</time>
      </trkpt>
      <trkpt lat="45.274635" lon="22.861341">
        <ele>1567.951</ele>
        <time>2015-10-04T07:22:05Z</time>
      </trkpt>
      <trkpt lat="45.274688" lon="22.861251">
        <ele>1569.615</ele>
        <time>2015-10-04T07:22:16Z</time>
      </trkpt>
      <trkpt lat="45.274764" lon="22.861198">
        <ele>1570.814</ele>
        <time>2015-10-04T07:22:27Z</time>
      </trkpt>
      <trkpt lat="45.274841" lon="22.861160">
        <ele>1571.836</ele>
        <time>2015-10-04T07:22:39Z</time>
      </trkpt>
      <trkpt lat="45.274916" lon="22.861100">
        <ele>1573.510</ele>
        <time>2015-10-04T07:22:53Z</time>
      </trkpt>
      <trkpt lat="45.274989" lon="22.861035">
        <ele>1574.757</ele>
        <time>2015-10-04T07:23:09Z</time>
      </trkpt>
      <trkpt lat="45.275045" lon="22.860943">
        <ele>1576.578</ele>
        <time>2015-10-04T07:23:23Z</time>
      </trkpt>
      <trkpt lat="45.275094" lon="22.860849">
        <ele>1579.122</ele>
        <time>2015-10-04T07:23:34Z</time>
      </trkpt>
      <trkpt lat="45.275166" lon="22.860783">
        <ele>1582.262</ele>
        <time>2015-10-04T07:23:53Z</time>
      </trkpt>
      <trkpt lat="45.275246" lon="22.860735">
        <ele>1585.508</ele>
        <time>2015-10-04T07:24:06Z</time>
      </trkpt>
      <trkpt lat="45.275328" lon="22.860705">
        <ele>1588.208</ele>
        <time>2015-10-04T07:25:50Z</time>
      </trkpt>
      <trkpt lat="45.275388" lon="22.860623">
        <ele>1591.683</ele>
        <time>2015-10-04T07:26:05Z</time>
      </trkpt>
      <trkpt lat="45.275454" lon="22.860546">
        <ele>1594.989</ele>
        <time>2015-10-04T07:26:17Z</time>
      </trkpt>
      <trkpt lat="45.275528" lon="22.860493">
        <ele>1597.473</ele>
        <time>2015-10-04T07:26:32Z</time>
      </trkpt>
      <trkpt lat="45.275611" lon="22.860478">
        <ele>1599.282</ele>
        <time>2015-10-04T07:26:56Z</time>
      </trkpt>
      <trkpt lat="45.275666" lon="22.860393">
        <ele>1601.574</ele>
        <time>2015-10-04T07:28:25Z</time>
      </trkpt>
      <trkpt lat="45.275736" lon="22.860318">
        <ele>1603.928</ele>
        <time>2015-10-04T07:28:45Z</time>
      </trkpt>
      <trkpt lat="45.275805" lon="22.860249">
        <ele>1605.815</ele>
        <time>2015-10-04T07:29:03Z</time>
      </trkpt>
      <trkpt lat="45.275886" lon="22.860216">
        <ele>1607.736</ele>
        <time>2015-10-04T07:29:18Z</time>
      </trkpt>
      <trkpt lat="45.275973" lon="22.860218">
        <ele>1609.314</ele>
        <time>2015-10-04T07:29:32Z</time>
      </trkpt>
      <trkpt lat="45.276095" lon="22.860234">
        <ele>1611.354</ele>
        <time>2015-10-04T07:36:26Z</time>
      </trkpt>
      <trkpt lat="45.276141" lon="22.860123">
        <ele>1613.309</ele>
        <time>2015-10-04T07:36:40Z</time>
      </trkpt>
      <trkpt lat="45.276180" lon="22.860014">
        <ele>1615.308</ele>
        <time>2015-10-04T07:36:50Z</time>
      </trkpt>
      <trkpt lat="45.276248" lon="22.859935">
        <ele>1616.132</ele>
        <time>2015-10-04T07:37:00Z</time>
      </trkpt>
      <trkpt lat="45.276313" lon="22.859848">
        <ele>1617.118</ele>
        <time>2015-10-04T07:37:33Z</time>
      </trkpt>
      <trkpt lat="45.276360" lon="22.859740">
        <ele>1618.432</ele>
        <time>2015-10-04T07:37:41Z</time>
      </trkpt>
      <trkpt lat="45.276403" lon="22.859635">
        <ele>1619.951</ele>
        <time>2015-10-04T07:37:49Z</time>
      </trkpt>
      <trkpt lat="45.276468" lon="22.859563">
        <ele>1622.173</ele>
        <time>2015-10-04T07:38:01Z</time>
      </trkpt>
      <trkpt lat="45.276538" lon="22.859500">
        <ele>1624.677</ele>
        <time>2015-10-04T07:38:32Z</time>
      </trkpt>
      <trkpt lat="45.276610" lon="22.859418">
        <ele>1627.794</ele>
        <time>2015-10-04T07:38:55Z</time>
      </trkpt>
      <trkpt lat="45.276681" lon="22.859358">
        <ele>1630.525</ele>
        <time>2015-10-04T07:39:05Z</time>
      </trkpt>
      <trkpt lat="45.276740" lon="22.859271">
        <ele>1633.049</ele>
        <time>2015-10-04T07:39:16Z</time>
      </trkpt>
      <trkpt lat="45.276820" lon="22.859228">
        <ele>1635.302</ele>
        <time>2015-10-04T07:39:35Z</time>
      </trkpt>
      <trkpt lat="45.276894" lon="22.859171">
        <ele>1637.822</ele>
        <time>2015-10-04T07:40:08Z</time>
      </trkpt>
      <trkpt lat="45.276968" lon="22.859120">
        <ele>1639.808</ele>
        <time>2015-10-04T07:40:20Z</time>
      </trkpt>
      <trkpt lat="45.277040" lon="22.859060">
        <ele>1642.055</ele>
        <time>2015-10-04T07:40:40Z</time>
      </trkpt>
      <trkpt lat="45.277143" lon="22.858971">
        <ele>1646.061</ele>
        <time>2015-10-04T07:41:28Z</time>
      </trkpt>
      <trkpt lat="45.277214" lon="22.858915">
        <ele>1649.275</ele>
        <time>2015-10-04T07:41:38Z</time>
      </trkpt>
      <trkpt lat="45.277304" lon="22.858858">
        <ele>1651.944</ele>
        <time>2015-10-04T07:44:30Z</time>
      </trkpt>
      <trkpt lat="45.277358" lon="22.858758">
        <ele>1654.166</ele>
        <time>2015-10-04T07:44:40Z</time>
      </trkpt>
      <trkpt lat="45.277426" lon="22.858686">
        <ele>1657.140</ele>
        <time>2015-10-04T07:44:51Z</time>
      </trkpt>
      <trkpt lat="45.277476" lon="22.858594">
        <ele>1660.137</ele>
        <time>2015-10-04T07:45:05Z</time>
      </trkpt>
      <trkpt lat="45.277536" lon="22.858511">
        <ele>1662.348</ele>
        <time>2015-10-04T07:45:46Z</time>
      </trkpt>
      <trkpt lat="45.277604" lon="22.858445">
        <ele>1664.727</ele>
        <time>2015-10-04T07:46:03Z</time>
      </trkpt>
      <trkpt lat="45.277680" lon="22.858398">
        <ele>1667.668</ele>
        <time>2015-10-04T07:46:20Z</time>
      </trkpt>
      <trkpt lat="45.277741" lon="22.858320">
        <ele>1670.814</ele>
        <time>2015-10-04T07:51:31Z</time>
      </trkpt>
      <trkpt lat="45.277811" lon="22.858256">
        <ele>1673.808</ele>
        <time>2015-10-04T07:51:42Z</time>
      </trkpt>
      <trkpt lat="45.277893" lon="22.858246">
        <ele>1676.253</ele>
        <time>2015-10-04T07:51:54Z</time>
      </trkpt>
      <trkpt lat="45.277968" lon="22.858171">
        <ele>1679.739</ele>
        <time>2015-10-04T07:52:28Z</time>
      </trkpt>
      <trkpt lat="45.278045" lon="22.858125">
        <ele>1683.123</ele>
        <time>2015-10-04T07:52:59Z</time>
      </trkpt>
      <trkpt lat="45.278095" lon="22.858023">
        <ele>1686.682</ele>
        <time>2015-10-04T07:53:11Z</time>
      </trkpt>
      <trkpt lat="45.278158" lon="22.857943">
        <ele>1690.594</ele>
        <time>2015-10-04T07:53:48Z</time>
      </trkpt>
      <trkpt lat="45.278218" lon="22.857861">
        <ele>1695.038</ele>
        <time>2015-10-04T07:54:09Z</time>
      </trkpt>
      <trkpt lat="45.278279" lon="22.857783">
        <ele>1700.025</ele>
        <time>2015-10-04T07:54:23Z</time>
      </trkpt>
      <trkpt lat="45.278261" lon="22.857661">
        <ele>1703.466</ele>
        <time>2015-10-04T07:54:34Z</time>
      </trkpt>
      <trkpt lat="45.278255" lon="22.857538">
        <ele>1707.165</ele>
        <time>2015-10-04T07:54:43Z</time>
      </trkpt>
      <trkpt lat="45.278300" lon="22.857431">
        <ele>1711.568</ele>
        <time>2015-10-04T07:54:57Z</time>
      </trkpt>
      <trkpt lat="45.278331" lon="22.857323">
        <ele>1714.414</ele>
        <time>2015-10-04T07:55:08Z</time>
      </trkpt>
      <trkpt lat="45.278396" lon="22.857248">
        <ele>1717.708</ele>
        <time>2015-10-04T07:55:45Z</time>
      </trkpt>
      <trkpt lat="45.278466" lon="22.857188">
        <ele>1720.797</ele>
        <time>2015-10-04T07:56:45Z</time>
      </trkpt>
      <trkpt lat="45.278548" lon="22.857180">
        <ele>1723.593</ele>
        <time>2015-10-04T07:58:27Z</time>
      </trkpt>
      <trkpt lat="45.278620" lon="22.857120">
        <ele>1726.677</ele>
        <time>2015-10-04T07:58:44Z</time>
      </trkpt>
      <trkpt lat="45.278626" lon="22.857005">
        <ele>1728.446</ele>
        <time>2015-10-04T07:58:56Z</time>
      </trkpt>
      <trkpt lat="45.278648" lon="22.856890">
        <ele>1730.488</ele>
        <time>2015-10-04T07:59:12Z</time>
      </trkpt>
      <trkpt lat="45.278683" lon="22.856783">
        <ele>1732.672</ele>
        <time>2015-10-04T07:59:31Z</time>
      </trkpt>
      <trkpt lat="45.278753" lon="22.856724">
        <ele>1735.379</ele>
        <time>2015-10-04T08:00:06Z</time>
      </trkpt>
      <trkpt lat="45.278806" lon="22.856633">
        <ele>1738.430</ele>
        <time>2015-10-04T08:00:22Z</time>
      </trkpt>
      <trkpt lat="45.278886" lon="22.856583">
        <ele>1742.035</ele>
        <time>2015-10-04T08:01:55Z</time>
      </trkpt>
      <trkpt lat="45.278963" lon="22.856528">
        <ele>1745.486</ele>
        <time>2015-10-04T08:02:06Z</time>
      </trkpt>
      <trkpt lat="45.279035" lon="22.856465">
        <ele>1748.814</ele>
        <time>2015-10-04T08:02:47Z</time>
      </trkpt>
      <trkpt lat="45.279068" lon="22.856356">
        <ele>1752.408</ele>
        <time>2015-10-04T08:03:01Z</time>
      </trkpt>
      <trkpt lat="45.279140" lon="22.856261">
        <ele>1757.374</ele>
        <time>2015-10-04T08:11:09Z</time>
      </trkpt>
      <trkpt lat="45.279180" lon="22.856151">
        <ele>1761.920</ele>
        <time>2015-10-04T08:11:24Z</time>
      </trkpt>
      <trkpt lat="45.279243" lon="22.856076">
        <ele>1765.664</ele>
        <time>2015-10-04T08:11:48Z</time>
      </trkpt>
      <trkpt lat="45.279228" lon="22.855963">
        <ele>1768.393</ele>
        <time>2015-10-04T08:12:40Z</time>
      </trkpt>
      <trkpt lat="45.279208" lon="22.855838">
        <ele>1771.195</ele>
        <time>2015-10-04T08:12:47Z</time>
      </trkpt>
      <trkpt lat="45.279194" lon="22.855719">
        <ele>1774.259</ele>
        <time>2015-10-04T08:13:01Z</time>
      </trkpt>
      <trkpt lat="45.279203" lon="22.855599">
        <ele>1778.056</ele>
        <time>2015-10-04T08:13:18Z</time>
      </trkpt>
      <trkpt lat="45.279273" lon="22.855533">
        <ele>1782.547</ele>
        <time>2015-10-04T08:13:30Z</time>
      </trkpt>
      <trkpt lat="45.279328" lon="22.855430">
        <ele>1787.579</ele>
        <time>2015-10-04T08:14:08Z</time>
      </trkpt>
      <trkpt lat="45.279316" lon="22.855311">
        <ele>1790.505</ele>
        <time>2015-10-04T08:14:23Z</time>
      </trkpt>
      <trkpt lat="45.279385" lon="22.855250">
        <ele>1795.225</ele>
        <time>2015-10-04T08:14:57Z</time>
      </trkpt>
      <trkpt lat="45.279466" lon="22.855221">
        <ele>1798.808</ele>
        <time>2015-10-04T08:15:42Z</time>
      </trkpt>
      <trkpt lat="45.279550" lon="22.855248">
        <ele>1799.398</ele>
        <time>2015-10-04T08:15:54Z</time>
      </trkpt>
      <trkpt lat="45.279585" lon="22.855143">
        <ele>1802.754</ele>
        <time>2015-10-04T08:16:35Z</time>
      </trkpt>
      <trkpt lat="45.279656" lon="22.855068">
        <ele>1805.968</ele>
        <time>2015-10-04T08:16:58Z</time>
      </trkpt>
      <trkpt lat="45.279720" lon="22.854989">
        <ele>1809.387</ele>
        <time>2015-10-04T08:17:29Z</time>
      </trkpt>
      <trkpt lat="45.279775" lon="22.854905">
        <ele>1810.589</ele>
        <time>2015-10-04T08:31:14Z</time>
      </trkpt>
      <trkpt lat="45.279806" lon="22.854796">
        <ele>1813.243</ele>
        <time>2015-10-04T08:31:45Z</time>
      </trkpt>
      <trkpt lat="45.279858" lon="22.854703">
        <ele>1815.130</ele>
        <time>2015-10-04T08:33:53Z</time>
      </trkpt>
      <trkpt lat="45.279873" lon="22.854581">
        <ele>1818.781</ele>
        <time>2015-10-04T08:34:18Z</time>
      </trkpt>
      <trkpt lat="45.279923" lon="22.854481">
        <ele>1821.748</ele>
        <time>2015-10-04T08:35:00Z</time>
      </trkpt>
      <trkpt lat="45.279961" lon="22.854366">
        <ele>1826.561</ele>
        <time>2015-10-04T08:35:53Z</time>
      </trkpt>
      <trkpt lat="45.280021" lon="22.854286">
        <ele>1830.117</ele>
        <time>2015-10-04T08:36:10Z</time>
      </trkpt>
      <trkpt lat="45.280004" lon="22.854168">
        <ele>1835.908</ele>
        <time>2015-10-04T08:36:27Z</time>
      </trkpt>
      <trkpt lat="45.280036" lon="22.854055">
        <ele>1839.545</ele>
        <time>2015-10-04T08:37:43Z</time>
      </trkpt>
      <trkpt lat="45.280105" lon="22.853984">
        <ele>1841.921</ele>
        <time>2015-10-04T08:37:53Z</time>
      </trkpt>
      <trkpt lat="45.280110" lon="22.853869">
        <ele>1846.265</ele>
        <time>2015-10-04T08:38:03Z</time>
      </trkpt>
      <trkpt lat="45.280163" lon="22.853783">
        <ele>1850.684</ele>
        <time>2015-10-04T08:38:18Z</time>
      </trkpt>
      <trkpt lat="45.280204" lon="22.853680">
        <ele>1856.466</ele>
        <time>2015-10-04T08:38:42Z</time>
      </trkpt>
      <trkpt lat="45.280276" lon="22.853620">
        <ele>1861.490</ele>
        <time>2015-10-04T08:39:18Z</time>
      </trkpt>
      <trkpt lat="45.280350" lon="22.853561">
        <ele>1865.627</ele>
        <time>2015-10-04T08:40:09Z</time>
      </trkpt>
      <trkpt lat="45.280406" lon="22.853470">
        <ele>1869.868</ele>
        <time>2015-10-04T08:45:16Z</time>
      </trkpt>
      <trkpt lat="45.280473" lon="22.853391">
        <ele>1873.648</ele>
        <time>2015-10-04T08:46:13Z</time>
      </trkpt>
      <trkpt lat="45.280480" lon="22.853270">
        <ele>1877.061</ele>
        <time>2015-10-04T08:47:44Z</time>
      </trkpt>
      <trkpt lat="45.280528" lon="22.853175">
        <ele>1880.417</ele>
        <time>2015-10-04T08:47:56Z</time>
      </trkpt>
      <trkpt lat="45.280576" lon="22.853080">
        <ele>1883.508</ele>
        <time>2015-10-04T08:48:21Z</time>
      </trkpt>
      <trkpt lat="45.280638" lon="22.853001">
        <ele>1885.815</ele>
        <time>2015-10-04T08:48:34Z</time>
      </trkpt>
      <trkpt lat="45.280706" lon="22.852928">
        <ele>1888.121</ele>
        <time>2015-10-04T08:48:48Z</time>
      </trkpt>
      <trkpt lat="45.280725" lon="22.852804">
        <ele>1891.215</ele>
        <time>2015-10-04T08:49:36Z</time>
      </trkpt>
      <trkpt lat="45.280740" lon="22.852691">
        <ele>1894.074</ele>
        <time>2015-10-04T08:50:12Z</time>
      </trkpt>
      <trkpt lat="45.280798" lon="22.852605">
        <ele>1896.866</ele>
        <time>2015-10-04T08:51:03Z</time>
      </trkpt>
      <trkpt lat="45.280856" lon="22.852519">
        <ele>1899.910</ele>
        <time>2015-10-04T08:51:21Z</time>
      </trkpt>
      <trkpt lat="45.280933" lon="22.852471">
        <ele>1902.117</ele>
        <time>2015-10-04T08:51:39Z</time>
      </trkpt>
      <trkpt lat="45.281016" lon="22.852493">
        <ele>1902.888</ele>
        <time>2015-10-04T08:51:56Z</time>
      </trkpt>
      <trkpt lat="45.281096" lon="22.852461">
        <ele>1904.627</ele>
        <time>2015-10-04T08:52:12Z</time>
      </trkpt>
      <trkpt lat="45.281105" lon="22.852346">
        <ele>1907.268</ele>
        <time>2015-10-04T08:52:30Z</time>
      </trkpt>
      <trkpt lat="45.281074" lon="22.852238">
        <ele>1909.114</ele>
        <time>2015-10-04T08:53:08Z</time>
      </trkpt>
      <trkpt lat="45.281068" lon="22.852116">
        <ele>1911.408</ele>
        <time>2015-10-04T08:53:24Z</time>
      </trkpt>
      <trkpt lat="45.281086" lon="22.852003">
        <ele>1913.743</ele>
        <time>2015-10-04T08:53:37Z</time>
      </trkpt>
      <trkpt lat="45.281148" lon="22.851905">
        <ele>1915.989</ele>
        <time>2015-10-04T08:54:14Z</time>
      </trkpt>
      <trkpt lat="45.281218" lon="22.851843">
        <ele>1917.713</ele>
        <time>2015-10-04T08:54:45Z</time>
      </trkpt>
      <trkpt lat="45.281275" lon="22.851751">
        <ele>1920.282</ele>
        <time>2015-10-04T08:54:57Z</time>
      </trkpt>
      <trkpt lat="45.281341" lon="22.851675">
        <ele>1922.944</ele>
        <time>2015-10-04T08:57:15Z</time>
      </trkpt>
      <trkpt lat="45.281423" lon="22.851646">
        <ele>1924.498</ele>
        <time>2015-10-04T08:57:32Z</time>
      </trkpt>
      <trkpt lat="45.281498" lon="22.851585">
        <ele>1925.755</ele>
        <time>2015-10-04T08:57:39Z</time>
      </trkpt>
      <trkpt lat="45.281573" lon="22.851519">
        <ele>1927.656</ele>
        <time>2015-10-04T08:58:03Z</time>
      </trkpt>
      <trkpt lat="45.281651" lon="22.851490">
        <ele>1928.726</ele>
        <time>2015-10-04T08:58:13Z</time>
      </trkpt>
      <trkpt lat="45.281719" lon="22.851420">
        <ele>1931.447</ele>
        <time>2015-10-04T08:58:29Z</time>
      </trkpt>
      <trkpt lat="45.281786" lon="22.851335">
        <ele>1934.411</ele>
        <time>2015-10-04T08:59:14Z</time>
      </trkpt>
      <trkpt lat="45.281846" lon="22.851251">
        <ele>1937.308</ele>
        <time>2015-10-04T08:59:29Z</time>
      </trkpt>
      <trkpt lat="45.281899" lon="22.851165">
        <ele>1940.113</ele>
        <time>2015-10-04T08:59:55Z</time>
      </trkpt>
      <trkpt lat="45.281968" lon="22.851101">
        <ele>1942.129</ele>
        <time>2015-10-04T09:00:07Z</time>
      </trkpt>
      <trkpt lat="45.282041" lon="22.851024">
        <ele>1943.783</ele>
        <time>2015-10-04T09:00:33Z</time>
      </trkpt>
      <trkpt lat="45.282116" lon="22.850964">
        <ele>1944.642</ele>
        <time>2015-10-04T09:03:33Z</time>
      </trkpt>
      <trkpt lat="45.282185" lon="22.850900">
        <ele>1945.694</ele>
        <time>2015-10-04T09:04:23Z</time>
      </trkpt>
      <trkpt lat="45.282255" lon="22.850841">
        <ele>1946.858</ele>
        <time>2015-10-04T09:04:30Z</time>
      </trkpt>
      <trkpt lat="45.282313" lon="22.850759">
        <ele>1949.385</ele>
        <time>2015-10-04T09:04:44Z</time>
      </trkpt>
      <trkpt lat="45.282376" lon="22.850686">
        <ele>1951.856</ele>
        <time>2015-10-04T09:05:01Z</time>
      </trkpt>
      <trkpt lat="45.282448" lon="22.850615">
        <ele>1954.666</ele>
        <time>2015-10-04T09:05:24Z</time>
      </trkpt>
      <trkpt lat="45.282520" lon="22.850550">
        <ele>1957.229</ele>
        <time>2015-10-04T09:05:34Z</time>
      </trkpt>
      <trkpt lat="45.282573" lon="22.850456">
        <ele>1960.321</ele>
        <time>2015-10-04T09:05:47Z</time>
      </trkpt>
      <trkpt lat="45.282630" lon="22.850368">
        <ele>1962.908</ele>
        <time>2015-10-04T09:13:50Z</time>
      </trkpt>
      <trkpt lat="45.282693" lon="22.850290">
        <ele>1965.077</ele>
        <time>2015-10-04T09:13:59Z</time>
      </trkpt>
      <trkpt lat="45.282775" lon="22.850238">
        <ele>1966.273</ele>
        <time>2015-10-04T09:14:10Z</time>
      </trkpt>
      <trkpt lat="45.282836" lon="22.850161">
        <ele>1967.057</ele>
        <time>2015-10-04T09:14:27Z</time>
      </trkpt>
      <trkpt lat="45.282876" lon="22.850060">
        <ele>1968.486</ele>
        <time>2015-10-04T09:14:37Z</time>
      </trkpt>
      <trkpt lat="45.282883" lon="22.849943">
        <ele>1971.078</ele>
        <time>2015-10-04T09:15:55Z</time>
      </trkpt>
      <trkpt lat="45.282856" lon="22.849833">
        <ele>1974.892</ele>
        <time>2015-10-04T09:16:23Z</time>
      </trkpt>
      <trkpt lat="45.282863" lon="22.849715">
        <ele>1977.589</ele>
        <time>2015-10-04T09:17:02Z</time>
      </trkpt>
      <trkpt lat="45.282825" lon="22.849600">
        <ele>1982.110</ele>
        <time>2015-10-04T09:17:12Z</time>
      </trkpt>
      <trkpt lat="45.282810" lon="22.849481">
        <ele>1985.857</ele>
        <time>2015-10-04T09:17:56Z</time>
      </trkpt>
      <trkpt lat="45.282785" lon="22.849361">
        <ele>1989.500</ele>
        <time>2015-10-04T09:18:42Z</time>
      </trkpt>
      <trkpt lat="45.282796" lon="22.849246">
        <ele>1991.720</ele>
        <time>2015-10-04T09:19:05Z</time>
      </trkpt>
      <trkpt lat="45.282745" lon="22.849118">
        <ele>1994.208</ele>
        <time>2015-10-04T09:19:37Z</time>
      </trkpt>
      <trkpt lat="45.282673" lon="22.849053">
        <ele>1994.396</ele>
        <time>2015-10-04T09:19:59Z</time>
      </trkpt>
      <trkpt lat="45.282686" lon="22.848934">
        <ele>1995.132</ele>
        <time>2015-10-04T09:20:16Z</time>
      </trkpt>
      <trkpt lat="45.282698" lon="22.848813">
        <ele>1995.786</ele>
        <time>2015-10-04T09:20:40Z</time>
      </trkpt>
      <trkpt lat="45.282616" lon="22.848766">
        <ele>1995.345</ele>
        <time>2015-10-04T09:20:53Z</time>
      </trkpt>
      <trkpt lat="45.282538" lon="22.848798">
        <ele>1994.627</ele>
        <time>2015-10-04T09:21:04Z</time>
      </trkpt>
      <trkpt lat="45.282476" lon="22.848891">
        <ele>1993.791</ele>
        <time>2015-10-04T09:24:09Z</time>
      </trkpt>
      <trkpt lat="45.282496" lon="22.848776">
        <ele>1994.448</ele>
        <time>2015-10-04T09:50:54Z</time>
      </trkpt>
      <trkpt lat="45.282540" lon="22.848678">
        <ele>1995.089</ele>
        <time>2015-10-04T09:52:22Z</time>
      </trkpt>
      <trkpt lat="45.282545" lon="22.848561">
        <ele>1995.478</ele>
        <time>2015-10-04T09:52:50Z</time>
      </trkpt>
      <trkpt lat="45.282628" lon="22.848593">
        <ele>1995.933</ele>
        <time>2015-10-04T09:54:15Z</time>
      </trkpt>
      <trkpt lat="45.282701" lon="22.848651">
        <ele>1996.326</ele>
        <time>2015-10-04T09:54:37Z</time>
      </trkpt>
      <trkpt lat="45.282738" lon="22.848546">
        <ele>1996.508</ele>
        <time>2015-10-04T09:54:44Z</time>
      </trkpt>
      <trkpt lat="45.282753" lon="22.848411">
        <ele>1996.218</ele>
        <time>2015-10-04T09:55:51Z</time>
      </trkpt>
      <trkpt lat="45.282750" lon="22.848283">
        <ele>1995.834</ele>
        <time>2015-10-04T09:56:00Z</time>
      </trkpt>
      <trkpt lat="45.282701" lon="22.848391">
        <ele>1996.178</ele>
        <time>2015-10-04T09:56:27Z</time>
      </trkpt>
      <trkpt lat="45.282650" lon="22.848484">
        <ele>1996.097</ele>
        <time>2015-10-04T09:56:39Z</time>
      </trkpt>
      <trkpt lat="45.282573" lon="22.848544">
        <ele>1995.619</ele>
        <time>2015-10-04T09:56:46Z</time>
      </trkpt>
      <trkpt lat="45.282529" lon="22.848441">
        <ele>1995.763</ele>
        <time>2015-10-04T09:56:57Z</time>
      </trkpt>
      <trkpt lat="45.282463" lon="22.848366">
        <ele>1995.460</ele>
        <time>2015-10-04T09:57:49Z</time>
      </trkpt>
      <trkpt lat="45.282405" lon="22.848273">
        <ele>1994.031</ele>
        <time>2015-10-04T09:57:57Z</time>
      </trkpt>
      <trkpt lat="45.282410" lon="22.848396">
        <ele>1994.625</ele>
        <time>2015-10-04T09:58:36Z</time>
      </trkpt>
      <trkpt lat="45.282413" lon="22.848511">
        <ele>1994.326</ele>
        <time>2015-10-04T09:58:44Z</time>
      </trkpt>
      <trkpt lat="45.282391" lon="22.848630">
        <ele>1993.808</ele>
        <time>2015-10-04T09:58:59Z</time>
      </trkpt>
      <trkpt lat="45.282320" lon="22.848688">
        <ele>1992.808</ele>
        <time>2015-10-04T09:59:39Z</time>
      </trkpt>
      <trkpt lat="45.282235" lon="22.848731">
        <ele>1991.773</ele>
        <time>2015-10-04T09:59:47Z</time>
      </trkpt>
      <trkpt lat="45.282216" lon="22.848860">
        <ele>1990.999</ele>
        <time>2015-10-04T10:00:10Z</time>
      </trkpt>
      <trkpt lat="45.282173" lon="22.848970">
        <ele>1989.683</ele>
        <time>2015-10-04T10:00:16Z</time>
      </trkpt>
      <trkpt lat="45.282171" lon="22.849086">
        <ele>1989.352</ele>
        <time>2015-10-04T10:00:20Z</time>
      </trkpt>
      <trkpt lat="45.282213" lon="22.849193">
        <ele>1989.714</ele>
        <time>2015-10-04T10:00:59Z</time>
      </trkpt>
      <trkpt lat="45.282241" lon="22.849303">
        <ele>1989.658</ele>
        <time>2015-10-04T10:01:09Z</time>
      </trkpt>
      <trkpt lat="45.282161" lon="22.849255">
        <ele>1988.645</ele>
        <time>2015-10-04T10:16:11Z</time>
      </trkpt>
      <trkpt lat="45.282078" lon="22.849220">
        <ele>1987.296</ele>
        <time>2015-10-04T10:16:26Z</time>
      </trkpt>
      <trkpt lat="45.281998" lon="22.849240">
        <ele>1985.748</ele>
        <time>2015-10-04T10:17:01Z</time>
      </trkpt>
      <trkpt lat="45.281936" lon="22.849328">
        <ele>1984.061</ele>
        <time>2015-10-04T10:17:18Z</time>
      </trkpt>
      <trkpt lat="45.281878" lon="22.849409">
        <ele>1980.617</ele>
        <time>2015-10-04T10:17:29Z</time>
      </trkpt>
      <trkpt lat="45.281833" lon="22.849513">
        <ele>1976.708</ele>
        <time>2015-10-04T10:17:41Z</time>
      </trkpt>
      <trkpt lat="45.281756" lon="22.849556">
        <ele>1972.015</ele>
        <time>2015-10-04T10:18:06Z</time>
      </trkpt>
      <trkpt lat="45.281674" lon="22.849555">
        <ele>1967.831</ele>
        <time>2015-10-04T10:18:15Z</time>
      </trkpt>
      <trkpt lat="45.281593" lon="22.849550">
        <ele>1964.015</ele>
        <time>2015-10-04T10:18:30Z</time>
      </trkpt>
      <trkpt lat="45.281601" lon="22.849670">
        <ele>1963.224</ele>
        <time>2015-10-04T10:21:05Z</time>
      </trkpt>
      <trkpt lat="45.281640" lon="22.849775">
        <ele>1963.836</ele>
        <time>2015-10-04T10:21:18Z</time>
      </trkpt>
      <trkpt lat="45.281616" lon="22.849890">
        <ele>1962.580</ele>
        <time>2015-10-04T10:21:28Z</time>
      </trkpt>
      <trkpt lat="45.281550" lon="22.849963">
        <ele>1960.987</ele>
        <time>2015-10-04T10:21:39Z</time>
      </trkpt>
      <trkpt lat="45.281468" lon="22.849996">
        <ele>1959.468</ele>
        <time>2015-10-04T10:22:21Z</time>
      </trkpt>
      <trkpt lat="45.281389" lon="22.850039">
        <ele>1958.163</ele>
        <time>2015-10-04T10:22:57Z</time>
      </trkpt>
      <trkpt lat="45.281306" lon="22.850084">
        <ele>1958.244</ele>
        <time>2015-10-04T10:23:20Z</time>
      </trkpt>
      <trkpt lat="45.281213" lon="22.850068">
        <ele>1958.318</ele>
        <time>2015-10-04T10:23:27Z</time>
      </trkpt>
      <trkpt lat="45.281158" lon="22.849968">
        <ele>1958.108</ele>
        <time>2015-10-04T10:23:34Z</time>
      </trkpt>
      <trkpt lat="45.281083" lon="22.850025">
        <ele>1958.117</ele>
        <time>2015-10-04T10:29:37Z</time>
      </trkpt>
      <trkpt lat="45.281168" lon="22.850054">
        <ele>1958.423</ele>
        <time>2015-10-04T10:31:43Z</time>
      </trkpt>
      <trkpt lat="45.281235" lon="22.850125">
        <ele>1958.047</ele>
        <time>2015-10-04T10:32:10Z</time>
      </trkpt>
      <trkpt lat="45.281248" lon="22.850240">
        <ele>1957.686</ele>
        <time>2015-10-04T10:32:47Z</time>
      </trkpt>
      <trkpt lat="45.281221" lon="22.850351">
        <ele>1955.938</ele>
        <time>2015-10-04T10:33:10Z</time>
      </trkpt>
      <trkpt lat="45.281248" lon="22.850463">
        <ele>1954.172</ele>
        <time>2015-10-04T10:33:28Z</time>
      </trkpt>
      <trkpt lat="45.281320" lon="22.850531">
        <ele>1953.759</ele>
        <time>2015-10-04T10:33:41Z</time>
      </trkpt>
      <trkpt lat="45.281388" lon="22.850600">
        <ele>1952.710</ele>
        <time>2015-10-04T10:33:52Z</time>
      </trkpt>
      <trkpt lat="45.281415" lon="22.850710">
        <ele>1949.779</ele>
        <time>2015-10-04T10:34:02Z</time>
      </trkpt>
      <trkpt lat="45.281434" lon="22.850825">
        <ele>1946.605</ele>
        <time>2015-10-04T10:34:13Z</time>
      </trkpt>
      <trkpt lat="45.281449" lon="22.850938">
        <ele>1943.125</ele>
        <time>2015-10-04T10:34:22Z</time>
      </trkpt>
      <trkpt lat="45.281443" lon="22.851058">
        <ele>1939.308</ele>
        <time>2015-10-04T10:34:34Z</time>
      </trkpt>
      <trkpt lat="45.281440" lon="22.851180">
        <ele>1935.888</ele>
        <time>2015-10-04T10:34:46Z</time>
      </trkpt>
      <trkpt lat="45.281408" lon="22.851288">
        <ele>1932.784</ele>
        <time>2015-10-04T10:34:59Z</time>
      </trkpt>
      <trkpt lat="45.281378" lon="22.851396">
        <ele>1929.768</ele>
        <time>2015-10-04T10:36:42Z</time>
      </trkpt>
      <trkpt lat="45.281358" lon="22.851513">
        <ele>1926.897</ele>
        <time>2015-10-04T10:36:53Z</time>
      </trkpt>
      <trkpt lat="45.281361" lon="22.851635">
        <ele>1924.299</ele>
        <time>2015-10-04T10:37:04Z</time>
      </trkpt>
      <trkpt lat="45.281346" lon="22.851753">
        <ele>1921.233</ele>
        <time>2015-10-04T10:37:15Z</time>
      </trkpt>
      <trkpt lat="45.281330" lon="22.851871">
        <ele>1918.340</ele>
        <time>2015-10-04T10:37:26Z</time>
      </trkpt>
      <trkpt lat="45.281245" lon="22.851875">
        <ele>1917.371</ele>
        <time>2015-10-04T10:38:52Z</time>
      </trkpt>
      <trkpt lat="45.281156" lon="22.851901">
        <ele>1916.054</ele>
        <time>2015-10-04T10:38:59Z</time>
      </trkpt>
      <trkpt lat="45.281078" lon="22.851963">
        <ele>1914.356</ele>
        <time>2015-10-04T10:39:05Z</time>
      </trkpt>
      <trkpt lat="45.281070" lon="22.852096">
        <ele>1911.711</ele>
        <time>2015-10-04T10:39:13Z</time>
      </trkpt>
      <trkpt lat="45.281050" lon="22.852216">
        <ele>1909.208</ele>
        <time>2015-10-04T10:39:19Z</time>
      </trkpt>
      <trkpt lat="45.281074" lon="22.852330">
        <ele>1907.156</ele>
        <time>2015-10-04T10:39:27Z</time>
      </trkpt>
      <trkpt lat="45.281080" lon="22.852448">
        <ele>1904.792</ele>
        <time>2015-10-04T10:40:07Z</time>
      </trkpt>
      <trkpt lat="45.281010" lon="22.852518">
        <ele>1902.276</ele>
        <time>2015-10-04T10:40:26Z</time>
      </trkpt>
      <trkpt lat="45.280928" lon="22.852493">
        <ele>1901.515</ele>
        <time>2015-10-04T10:40:38Z</time>
      </trkpt>
      <trkpt lat="45.280846" lon="22.852508">
        <ele>1900.047</ele>
        <time>2015-10-04T10:40:51Z</time>
      </trkpt>
      <trkpt lat="45.280781" lon="22.852588">
        <ele>1897.041</ele>
        <time>2015-10-04T10:41:08Z</time>
      </trkpt>
      <trkpt lat="45.280723" lon="22.852674">
        <ele>1894.198</ele>
        <time>2015-10-04T10:41:20Z</time>
      </trkpt>
      <trkpt lat="45.280705" lon="22.852793">
        <ele>1891.349</ele>
        <time>2015-10-04T10:41:33Z</time>
      </trkpt>
      <trkpt lat="45.280684" lon="22.852909">
        <ele>1888.311</ele>
        <time>2015-10-04T10:41:48Z</time>
      </trkpt>
      <trkpt lat="45.280628" lon="22.852999">
        <ele>1885.821</ele>
        <time>2015-10-04T10:41:58Z</time>
      </trkpt>
      <trkpt lat="45.280545" lon="22.853059">
        <ele>1883.703</ele>
        <time>2015-10-04T10:42:18Z</time>
      </trkpt>
      <trkpt lat="45.280541" lon="22.853190">
        <ele>1880.308</ele>
        <time>2015-10-04T10:42:40Z</time>
      </trkpt>
      <trkpt lat="45.280518" lon="22.853301">
        <ele>1877.022</ele>
        <time>2015-10-04T10:42:48Z</time>
      </trkpt>
      <trkpt lat="45.280474" lon="22.853411">
        <ele>1873.168</ele>
        <time>2015-10-04T10:43:12Z</time>
      </trkpt>
      <trkpt lat="45.280411" lon="22.853483">
        <ele>1869.572</ele>
        <time>2015-10-04T10:43:35Z</time>
      </trkpt>
      <trkpt lat="45.280368" lon="22.853583">
        <ele>1865.441</ele>
        <time>2015-10-04T10:46:46Z</time>
      </trkpt>
      <trkpt lat="45.280285" lon="22.853628">
        <ele>1861.253</ele>
        <time>2015-10-04T10:48:25Z</time>
      </trkpt>
      <trkpt lat="45.280208" lon="22.853666">
        <ele>1857.267</ele>
        <time>2015-10-04T10:49:06Z</time>
      </trkpt>
      <trkpt lat="45.280151" lon="22.853753">
        <ele>1851.884</ele>
        <time>2015-10-04T10:49:25Z</time>
      </trkpt>
      <trkpt lat="45.280111" lon="22.853860">
        <ele>1846.675</ele>
        <time>2015-10-04T10:49:43Z</time>
      </trkpt>
      <trkpt lat="45.280096" lon="22.853983">
        <ele>1841.988</ele>
        <time>2015-10-04T10:49:59Z</time>
      </trkpt>
      <trkpt lat="45.280035" lon="22.854066">
        <ele>1839.124</ele>
        <time>2015-10-04T10:50:23Z</time>
      </trkpt>
      <trkpt lat="45.279978" lon="22.854156">
        <ele>1835.926</ele>
        <time>2015-10-04T10:50:56Z</time>
      </trkpt>
      <trkpt lat="45.279943" lon="22.854266">
        <ele>1830.708</ele>
        <time>2015-10-04T10:52:17Z</time>
      </trkpt>
      <trkpt lat="45.279925" lon="22.854383">
        <ele>1825.639</ele>
        <time>2015-10-04T10:52:30Z</time>
      </trkpt>
      <trkpt lat="45.279940" lon="22.854503">
        <ele>1820.995</ele>
        <time>2015-10-04T10:52:44Z</time>
      </trkpt>
      <trkpt lat="45.279889" lon="22.854595">
        <ele>1818.169</ele>
        <time>2015-10-04T10:52:56Z</time>
      </trkpt>
      <trkpt lat="45.279841" lon="22.854689">
        <ele>1815.818</ele>
        <time>2015-10-04T10:53:12Z</time>
      </trkpt>
      <trkpt lat="45.279816" lon="22.854821">
        <ele>1812.280</ele>
        <time>2015-10-04T10:53:44Z</time>
      </trkpt>
      <trkpt lat="45.279788" lon="22.854931">
        <ele>1809.474</ele>
        <time>2015-10-04T10:54:07Z</time>
      </trkpt>
      <trkpt lat="45.279736" lon="22.855034">
        <ele>1807.651</ele>
        <time>2015-10-04T10:54:19Z</time>
      </trkpt>
      <trkpt lat="45.279673" lon="22.855111">
        <ele>1805.092</ele>
        <time>2015-10-04T10:54:42Z</time>
      </trkpt>
      <trkpt lat="45.279590" lon="22.855133">
        <ele>1803.029</ele>
        <time>2015-10-04T10:54:58Z</time>
      </trkpt>
      <trkpt lat="45.279565" lon="22.855248">
        <ele>1799.500</ele>
        <time>2015-10-04T10:55:11Z</time>
      </trkpt>
      <trkpt lat="45.279509" lon="22.855333">
        <ele>1795.920</ele>
        <time>2015-10-04T10:55:32Z</time>
      </trkpt>
      <trkpt lat="45.279426" lon="22.855340">
        <ele>1794.208</ele>
        <time>2015-10-04T10:55:44Z</time>
      </trkpt>
      <trkpt lat="45.279350" lon="22.855295">
        <ele>1792.493</ele>
        <time>2015-10-04T10:55:53Z</time>
      </trkpt>
      <trkpt lat="45.279310" lon="22.855394">
        <ele>1787.869</ele>
        <time>2015-10-04T10:56:03Z</time>
      </trkpt>
      <trkpt lat="45.279251" lon="22.855521">
        <ele>1782.073</ele>
        <time>2015-10-04T10:56:37Z</time>
      </trkpt>
      <trkpt lat="45.279191" lon="22.855603">
        <ele>1777.522</ele>
        <time>2015-10-04T10:56:49Z</time>
      </trkpt>
      <trkpt lat="45.279155" lon="22.855706">
        <ele>1773.184</ele>
        <time>2015-10-04T10:57:17Z</time>
      </trkpt>
      <trkpt lat="45.279153" lon="22.855831">
        <ele>1769.558</ele>
        <time>2015-10-04T10:57:33Z</time>
      </trkpt>
      <trkpt lat="45.279161" lon="22.855955">
        <ele>1766.725</ele>
        <time>2015-10-04T10:57:50Z</time>
      </trkpt>
      <trkpt lat="45.279186" lon="22.856073">
        <ele>1764.466</ele>
        <time>2015-10-04T10:58:10Z</time>
      </trkpt>
      <trkpt lat="45.279186" lon="22.856195">
        <ele>1760.538</ele>
        <time>2015-10-04T10:58:23Z</time>
      </trkpt>
      <trkpt lat="45.279113" lon="22.856255">
        <ele>1756.570</ele>
        <time>2015-10-04T10:58:37Z</time>
      </trkpt>
      <trkpt lat="45.279086" lon="22.856364">
        <ele>1752.617</ele>
        <time>2015-10-04T10:58:56Z</time>
      </trkpt>
      <trkpt lat="45.279038" lon="22.856461">
        <ele>1748.908</ele>
        <time>2015-10-04T10:59:17Z</time>
      </trkpt>
      <trkpt lat="45.278971" lon="22.856531">
        <ele>1745.524</ele>
        <time>2015-10-04T10:59:41Z</time>
      </trkpt>
      <trkpt lat="45.278911" lon="22.856613">
        <ele>1741.930</ele>
        <time>2015-10-04T10:59:58Z</time>
      </trkpt>
      <trkpt lat="45.278826" lon="22.856633">
        <ele>1739.044</ele>
        <time>2015-10-04T11:00:13Z</time>
      </trkpt>
      <trkpt lat="45.278765" lon="22.856718">
        <ele>1735.763</ele>
        <time>2015-10-04T11:00:31Z</time>
      </trkpt>
      <trkpt lat="45.278684" lon="22.856781">
        <ele>1732.635</ele>
        <time>2015-10-04T11:00:53Z</time>
      </trkpt>
      <trkpt lat="45.278626" lon="22.856878">
        <ele>1730.169</ele>
        <time>2015-10-04T11:01:14Z</time>
      </trkpt>
      <trkpt lat="45.278620" lon="22.857005">
        <ele>1728.366</ele>
        <time>2015-10-04T11:01:26Z</time>
      </trkpt>
      <trkpt lat="45.278576" lon="22.857105">
        <ele>1725.467</ele>
        <time>2015-10-04T11:01:50Z</time>
      </trkpt>
      <trkpt lat="45.278515" lon="22.857180">
        <ele>1722.412</ele>
        <time>2015-10-04T11:02:12Z</time>
      </trkpt>
      <trkpt lat="45.278435" lon="22.857225">
        <ele>1719.332</ele>
        <time>2015-10-04T11:02:40Z</time>
      </trkpt>
      <trkpt lat="45.278351" lon="22.857259">
        <ele>1716.005</ele>
        <time>2015-10-04T11:03:00Z</time>
      </trkpt>
      <trkpt lat="45.278298" lon="22.857351">
        <ele>1712.608</ele>
        <time>2015-10-04T11:03:16Z</time>
      </trkpt>
      <trkpt lat="45.278258" lon="22.857454">
        <ele>1709.212</ele>
        <time>2015-10-04T11:03:29Z</time>
      </trkpt>
      <trkpt lat="45.278228" lon="22.857568">
        <ele>1705.068</ele>
        <time>2015-10-04T11:03:40Z</time>
      </trkpt>
      <trkpt lat="45.278231" lon="22.857694">
        <ele>1701.392</ele>
        <time>2015-10-04T11:03:47Z</time>
      </trkpt>
      <trkpt lat="45.278256" lon="22.857805">
        <ele>1698.421</ele>
        <time>2015-10-04T11:03:54Z</time>
      </trkpt>
      <trkpt lat="45.278210" lon="22.857900">
        <ele>1693.343</ele>
        <time>2015-10-04T11:04:08Z</time>
      </trkpt>
      <trkpt lat="45.278146" lon="22.857971">
        <ele>1689.217</ele>
        <time>2015-10-04T11:04:41Z</time>
      </trkpt>
      <trkpt lat="45.278088" lon="22.858076">
        <ele>1685.064</ele>
        <time>2015-10-04T11:24:09Z</time>
      </trkpt>
      <trkpt lat="45.278041" lon="22.858175">
        <ele>1682.075</ele>
        <time>2015-10-04T11:24:25Z</time>
      </trkpt>
      <trkpt lat="45.277971" lon="22.858236">
        <ele>1678.778</ele>
        <time>2015-10-04T11:24:38Z</time>
      </trkpt>
      <trkpt lat="45.277893" lon="22.858286">
        <ele>1675.633</ele>
        <time>2015-10-04T11:24:51Z</time>
      </trkpt>
      <trkpt lat="45.277813" lon="22.858310">
        <ele>1673.226</ele>
        <time>2015-10-04T11:25:22Z</time>
      </trkpt>
      <trkpt lat="45.277743" lon="22.858380">
        <ele>1670.008</ele>
        <time>2015-10-04T11:25:34Z</time>
      </trkpt>
      <trkpt lat="45.277671" lon="22.858470">
        <ele>1666.588</ele>
        <time>2015-10-04T11:25:58Z</time>
      </trkpt>
      <trkpt lat="45.277595" lon="22.858510">
        <ele>1663.974</ele>
        <time>2015-10-04T11:26:17Z</time>
      </trkpt>
      <trkpt lat="45.277540" lon="22.858598">
        <ele>1661.958</ele>
        <time>2015-10-04T11:26:32Z</time>
      </trkpt>
      <trkpt lat="45.277461" lon="22.858645">
        <ele>1658.987</ele>
        <time>2015-10-04T11:26:47Z</time>
      </trkpt>
      <trkpt lat="45.277411" lon="22.858736">
        <ele>1655.989</ele>
        <time>2015-10-04T11:27:00Z</time>
      </trkpt>
      <trkpt lat="45.277363" lon="22.858836">
        <ele>1653.593</ele>
        <time>2015-10-04T11:27:17Z</time>
      </trkpt>
      <trkpt lat="45.277304" lon="22.858919">
        <ele>1651.050</ele>
        <time>2015-10-04T11:27:31Z</time>
      </trkpt>
      <trkpt lat="45.277226" lon="22.858960">
        <ele>1648.591</ele>
        <time>2015-10-04T11:27:40Z</time>
      </trkpt>
      <trkpt lat="45.277154" lon="22.859028">
        <ele>1645.367</ele>
        <time>2015-10-04T11:28:02Z</time>
      </trkpt>
      <trkpt lat="45.277075" lon="22.859084">
        <ele>1642.581</ele>
        <time>2015-10-04T11:28:22Z</time>
      </trkpt>
      <trkpt lat="45.277026" lon="22.859178">
        <ele>1640.219</ele>
        <time>2015-10-04T11:28:34Z</time>
      </trkpt>
      <trkpt lat="45.276956" lon="22.859236">
        <ele>1637.908</ele>
        <time>2015-10-04T11:28:46Z</time>
      </trkpt>
      <trkpt lat="45.276878" lon="22.859288">
        <ele>1635.537</ele>
        <time>2015-10-04T11:29:02Z</time>
      </trkpt>
      <trkpt lat="45.276793" lon="22.859323">
        <ele>1633.223</ele>
        <time>2015-10-04T11:29:14Z</time>
      </trkpt>
      <trkpt lat="45.276730" lon="22.859413">
        <ele>1630.667</ele>
        <time>2015-10-04T11:29:25Z</time>
      </trkpt>
      <trkpt lat="45.276653" lon="22.859451">
        <ele>1628.576</ele>
        <time>2015-10-04T11:29:33Z</time>
      </trkpt>
      <trkpt lat="45.276581" lon="22.859513">
        <ele>1625.568</ele>
        <time>2015-10-04T11:29:45Z</time>
      </trkpt>
      <trkpt lat="45.276501" lon="22.859568">
        <ele>1622.812</ele>
        <time>2015-10-04T11:29:59Z</time>
      </trkpt>
      <trkpt lat="45.276435" lon="22.859643">
        <ele>1620.529</ele>
        <time>2015-10-04T11:30:18Z</time>
      </trkpt>
      <trkpt lat="45.276381" lon="22.859743">
        <ele>1618.750</ele>
        <time>2015-10-04T11:30:32Z</time>
      </trkpt>
      <trkpt lat="45.276320" lon="22.859838">
        <ele>1617.228</ele>
        <time>2015-10-04T11:30:44Z</time>
      </trkpt>
      <trkpt lat="45.276281" lon="22.859950">
        <ele>1616.489</ele>
        <time>2015-10-04T11:30:53Z</time>
      </trkpt>
      <trkpt lat="45.276215" lon="22.860021">
        <ele>1615.417</ele>
        <time>2015-10-04T11:31:09Z</time>
      </trkpt>
      <trkpt lat="45.276150" lon="22.860098">
        <ele>1613.808</ele>
        <time>2015-10-04T11:31:19Z</time>
      </trkpt>
      <trkpt lat="45.276091" lon="22.860188">
        <ele>1611.963</ele>
        <time>2015-10-04T11:31:34Z</time>
      </trkpt>
      <trkpt lat="45.276030" lon="22.860264">
        <ele>1609.729</ele>
        <time>2015-10-04T11:31:51Z</time>
      </trkpt>
      <trkpt lat="45.275961" lon="22.860200">
        <ele>1609.373</ele>
        <time>2015-10-04T11:32:26Z</time>
      </trkpt>
      <trkpt lat="45.275886" lon="22.860258">
        <ele>1607.252</ele>
        <time>2015-10-04T11:32:40Z</time>
      </trkpt>
      <trkpt lat="45.275806" lon="22.860279">
        <ele>1605.644</ele>
        <time>2015-10-04T11:32:52Z</time>
      </trkpt>
      <trkpt lat="45.275740" lon="22.860360">
        <ele>1603.288</ele>
        <time>2015-10-04T11:33:10Z</time>
      </trkpt>
      <trkpt lat="45.275670" lon="22.860421">
        <ele>1601.155</ele>
        <time>2015-10-04T11:33:47Z</time>
      </trkpt>
      <trkpt lat="45.275585" lon="22.860426">
        <ele>1599.816</ele>
        <time>2015-10-04T11:34:27Z</time>
      </trkpt>
      <trkpt lat="45.275501" lon="22.860416">
        <ele>1597.897</ele>
        <time>2015-10-04T11:34:39Z</time>
      </trkpt>
      <trkpt lat="45.275470" lon="22.860533">
        <ele>1595.423</ele>
        <time>2015-10-04T11:35:03Z</time>
      </trkpt>
      <trkpt lat="45.275403" lon="22.860615">
        <ele>1592.125</ele>
        <time>2015-10-04T11:35:32Z</time>
      </trkpt>
      <trkpt lat="45.275356" lon="22.860716">
        <ele>1588.508</ele>
        <time>2015-10-04T11:35:48Z</time>
      </trkpt>
      <trkpt lat="45.275286" lon="22.860780">
        <ele>1585.540</ele>
        <time>2015-10-04T11:36:02Z</time>
      </trkpt>
      <trkpt lat="45.275221" lon="22.860849">
        <ele>1582.196</ele>
        <time>2015-10-04T11:36:15Z</time>
      </trkpt>
      <trkpt lat="45.275143" lon="22.860886">
        <ele>1579.450</ele>
        <time>2015-10-04T11:36:36Z</time>
      </trkpt>
      <trkpt lat="45.275066" lon="22.860925">
        <ele>1577.139</ele>
        <time>2015-10-04T11:36:51Z</time>
      </trkpt>
      <trkpt lat="45.275011" lon="22.861023">
        <ele>1575.091</ele>
        <time>2015-10-04T11:37:06Z</time>
      </trkpt>
      <trkpt lat="45.274955" lon="22.861106">
        <ele>1573.765</ele>
        <time>2015-10-04T11:37:26Z</time>
      </trkpt>
      <trkpt lat="45.274890" lon="22.861188">
        <ele>1571.372</ele>
        <time>2015-10-04T11:37:45Z</time>
      </trkpt>
      <trkpt lat="45.274809" lon="22.861224">
        <ele>1570.483</ele>
        <time>2015-10-04T11:38:02Z</time>
      </trkpt>
      <trkpt lat="45.274726" lon="22.861261">
        <ele>1569.884</ele>
        <time>2015-10-04T11:38:17Z</time>
      </trkpt>
      <trkpt lat="45.274651" lon="22.861310">
        <ele>1568.407</ele>
        <time>2015-10-04T11:38:32Z</time>
      </trkpt>
      <trkpt lat="45.274601" lon="22.861415">
        <ele>1566.417</ele>
        <time>2015-10-04T11:38:46Z</time>
      </trkpt>
      <trkpt lat="45.274516" lon="22.861441">
        <ele>1565.408</ele>
        <time>2015-10-04T11:38:56Z</time>
      </trkpt>
      <trkpt lat="45.274443" lon="22.861493">
        <ele>1564.599</ele>
        <time>2015-10-04T11:39:08Z</time>
      </trkpt>
      <trkpt lat="45.274368" lon="22.861553">
        <ele>1562.415</ele>
        <time>2015-10-04T11:39:19Z</time>
      </trkpt>
      <trkpt lat="45.274320" lon="22.861656">
        <ele>1560.799</ele>
        <time>2015-10-04T11:39:28Z</time>
      </trkpt>
      <trkpt lat="45.274275" lon="22.861755">
        <ele>1558.398</ele>
        <time>2015-10-04T11:39:36Z</time>
      </trkpt>
      <trkpt lat="45.274201" lon="22.861804">
        <ele>1557.110</ele>
        <time>2015-10-04T11:39:47Z</time>
      </trkpt>
      <trkpt lat="45.274145" lon="22.861891">
        <ele>1555.594</ele>
        <time>2015-10-04T11:40:00Z</time>
      </trkpt>
      <trkpt lat="45.274085" lon="22.861971">
        <ele>1553.591</ele>
        <time>2015-10-04T11:40:24Z</time>
      </trkpt>
      <trkpt lat="45.274038" lon="22.862073">
        <ele>1551.092</ele>
        <time>2015-10-04T11:40:37Z</time>
      </trkpt>
      <trkpt lat="45.273971" lon="22.862149">
        <ele>1549.658</ele>
        <time>2015-10-04T11:40:47Z</time>
      </trkpt>
      <trkpt lat="45.273890" lon="22.862168">
        <ele>1549.652</ele>
        <time>2015-10-04T11:40:57Z</time>
      </trkpt>
      <trkpt lat="45.273804" lon="22.862161">
        <ele>1549.017</ele>
        <time>2015-10-04T11:41:08Z</time>
      </trkpt>
      <trkpt lat="45.273718" lon="22.862194">
        <ele>1548.008</ele>
        <time>2015-10-04T11:41:16Z</time>
      </trkpt>
      <trkpt lat="45.273631" lon="22.862221">
        <ele>1547.266</ele>
        <time>2015-10-04T11:41:26Z</time>
      </trkpt>
      <trkpt lat="45.273551" lon="22.862260">
        <ele>1545.592</ele>
        <time>2015-10-04T11:41:45Z</time>
      </trkpt>
      <trkpt lat="45.273463" lon="22.862273">
        <ele>1543.826</ele>
        <time>2015-10-04T11:41:54Z</time>
      </trkpt>
      <trkpt lat="45.273381" lon="22.862258">
        <ele>1542.535</ele>
        <time>2015-10-04T11:42:09Z</time>
      </trkpt>
      <trkpt lat="45.273298" lon="22.862261">
        <ele>1540.867</ele>
        <time>2015-10-04T11:42:25Z</time>
      </trkpt>
      <trkpt lat="45.273220" lon="22.862296">
        <ele>1538.851</ele>
        <time>2015-10-04T11:42:38Z</time>
      </trkpt>
      <trkpt lat="45.273141" lon="22.862263">
        <ele>1537.428</ele>
        <time>2015-10-04T11:42:52Z</time>
      </trkpt>
      <trkpt lat="45.273071" lon="22.862321">
        <ele>1535.359</ele>
        <time>2015-10-04T11:43:01Z</time>
      </trkpt>
      <trkpt lat="45.272993" lon="22.862368">
        <ele>1533.237</ele>
        <time>2015-10-04T11:43:13Z</time>
      </trkpt>
      <trkpt lat="45.272935" lon="22.862450">
        <ele>1531.349</ele>
        <time>2015-10-04T11:43:26Z</time>
      </trkpt>
      <trkpt lat="45.272886" lon="22.862543">
        <ele>1529.213</ele>
        <time>2015-10-04T11:43:41Z</time>
      </trkpt>
      <trkpt lat="45.272831" lon="22.862638">
        <ele>1526.508</ele>
        <time>2015-10-04T11:43:54Z</time>
      </trkpt>
      <trkpt lat="45.272831" lon="22.862770">
        <ele>1524.164</ele>
        <time>2015-10-04T11:44:17Z</time>
      </trkpt>
      <trkpt lat="45.272728" lon="22.862951">
        <ele>1517.220</ele>
        <time>2015-10-04T11:46:00Z</time>
      </trkpt>
      <trkpt lat="45.272653" lon="22.863015">
        <ele>1514.324</ele>
        <time>2015-10-04T11:46:08Z</time>
      </trkpt>
      <trkpt lat="45.272571" lon="22.863055">
        <ele>1512.013</ele>
        <time>2015-10-04T11:46:22Z</time>
      </trkpt>
      <trkpt lat="45.272496" lon="22.863181">
        <ele>1508.285</ele>
        <time>2015-10-04T11:46:59Z</time>
      </trkpt>
      <trkpt lat="45.272451" lon="22.863284">
        <ele>1505.479</ele>
        <time>2015-10-04T11:47:32Z</time>
      </trkpt>
      <trkpt lat="45.272368" lon="22.863336">
        <ele>1503.066</ele>
        <time>2015-10-04T11:47:43Z</time>
      </trkpt>
      <trkpt lat="45.272238" lon="22.863448">
        <ele>1497.927</ele>
        <time>2015-10-04T11:48:08Z</time>
      </trkpt>
      <trkpt lat="45.272136" lon="22.863521">
        <ele>1494.617</ele>
        <time>2015-10-04T11:48:26Z</time>
      </trkpt>
      <trkpt lat="45.272085" lon="22.863613">
        <ele>1491.587</ele>
        <time>2015-10-04T11:48:38Z</time>
      </trkpt>
      <trkpt lat="45.271998" lon="22.863648">
        <ele>1489.815</ele>
        <time>2015-10-04T11:48:59Z</time>
      </trkpt>
      <trkpt lat="45.271921" lon="22.863696">
        <ele>1487.808</ele>
        <time>2015-10-04T11:49:07Z</time>
      </trkpt>
      <trkpt lat="45.271848" lon="22.863806">
        <ele>1483.782</ele>
        <time>2015-10-04T11:49:27Z</time>
      </trkpt>
      <trkpt lat="45.271908" lon="22.863901">
        <ele>1482.628</ele>
        <time>2015-10-04T11:49:44Z</time>
      </trkpt>
      <trkpt lat="45.271833" lon="22.863991">
        <ele>1477.572</ele>
        <time>2015-10-04T11:50:09Z</time>
      </trkpt>
      <trkpt lat="45.271768" lon="22.864101">
        <ele>1471.981</ele>
        <time>2015-10-04T11:51:00Z</time>
      </trkpt>
      <trkpt lat="45.271690" lon="22.864154">
        <ele>1468.043</ele>
        <time>2015-10-04T11:51:09Z</time>
      </trkpt>
      <trkpt lat="45.271598" lon="22.864103">
        <ele>1468.427</ele>
        <time>2015-10-04T11:51:22Z</time>
      </trkpt>
      <trkpt lat="45.271506" lon="22.864083">
        <ele>1467.854</ele>
        <time>2015-10-04T11:51:40Z</time>
      </trkpt>
      <trkpt lat="45.271391" lon="22.864131">
        <ele>1464.995</ele>
        <time>2015-10-04T11:52:06Z</time>
      </trkpt>
      <trkpt lat="45.271301" lon="22.864201">
        <ele>1461.913</ele>
        <time>2015-10-04T11:52:23Z</time>
      </trkpt>
      <trkpt lat="45.271196" lon="22.864193">
        <ele>1460.643</ele>
        <time>2015-10-04T11:52:42Z</time>
      </trkpt>
      <trkpt lat="45.271103" lon="22.864231">
        <ele>1458.307</ele>
        <time>2015-10-04T11:52:53Z</time>
      </trkpt>
      <trkpt lat="45.270985" lon="22.864220">
        <ele>1456.808</ele>
        <time>2015-10-04T11:53:26Z</time>
      </trkpt>
      <trkpt lat="45.270900" lon="22.864216">
        <ele>1455.612</ele>
        <time>2015-10-04T11:53:41Z</time>
      </trkpt>
      <trkpt lat="45.270826" lon="22.864273">
        <ele>1452.998</ele>
        <time>2015-10-04T11:53:51Z</time>
      </trkpt>
      <trkpt lat="45.270776" lon="22.864388">
        <ele>1449.232</ele>
        <time>2015-10-04T11:54:04Z</time>
      </trkpt>
      <trkpt lat="45.270700" lon="22.864530">
        <ele>1444.951</ele>
        <time>2015-10-04T11:54:31Z</time>
      </trkpt>
      <trkpt lat="45.270623" lon="22.864626">
        <ele>1442.293</ele>
        <time>2015-10-04T11:55:11Z</time>
      </trkpt>
      <trkpt lat="45.270488" lon="22.864746">
        <ele>1440.557</ele>
        <time>2015-10-04T11:55:44Z</time>
      </trkpt>
      <trkpt lat="45.270433" lon="22.864846">
        <ele>1439.314</ele>
        <time>2015-10-04T11:56:26Z</time>
      </trkpt>
      <trkpt lat="45.270423" lon="22.864989">
        <ele>1436.645</ele>
        <time>2015-10-04T11:56:52Z</time>
      </trkpt>
      <trkpt lat="45.270391" lon="22.865098">
        <ele>1435.331</ele>
        <time>2015-10-04T11:57:12Z</time>
      </trkpt>
      <trkpt lat="45.270394" lon="22.865218">
        <ele>1433.261</ele>
        <time>2015-10-04T11:57:39Z</time>
      </trkpt>
      <trkpt lat="45.270360" lon="22.865331">
        <ele>1431.207</ele>
        <time>2015-10-04T11:57:54Z</time>
      </trkpt>
      <trkpt lat="45.270310" lon="22.865436">
        <ele>1429.308</ele>
        <time>2015-10-04T11:58:10Z</time>
      </trkpt>
      <trkpt lat="45.270221" lon="22.865636">
        <ele>1423.634</ele>
        <time>2015-10-04T11:58:31Z</time>
      </trkpt>
      <trkpt lat="45.270201" lon="22.865750">
        <ele>1419.540</ele>
        <time>2015-10-04T11:58:44Z</time>
      </trkpt>
      <trkpt lat="45.270156" lon="22.865858">
        <ele>1416.124</ele>
        <time>2015-10-04T11:58:59Z</time>
      </trkpt>
      <trkpt lat="45.270080" lon="22.865910">
        <ele>1415.393</ele>
        <time>2015-10-04T11:59:14Z</time>
      </trkpt>
      <trkpt lat="45.269998" lon="22.865965">
        <ele>1414.755</ele>
        <time>2015-10-04T11:59:21Z</time>
      </trkpt>
      <trkpt lat="45.269909" lon="22.866023">
        <ele>1413.249</ele>
        <time>2015-10-04T11:59:31Z</time>
      </trkpt>
      <trkpt lat="45.269841" lon="22.866090">
        <ele>1412.066</ele>
        <time>2015-10-04T11:59:42Z</time>
      </trkpt>
      <trkpt lat="45.269760" lon="22.866061">
        <ele>1412.727</ele>
        <time>2015-10-04T11:59:57Z</time>
      </trkpt>
      <trkpt lat="45.269671" lon="22.866065">
        <ele>1412.524</ele>
        <time>2015-10-04T12:00:04Z</time>
      </trkpt>
      <trkpt lat="45.269586" lon="22.866035">
        <ele>1412.604</ele>
        <time>2015-10-04T12:00:17Z</time>
      </trkpt>
      <trkpt lat="45.269496" lon="22.866046">
        <ele>1412.114</ele>
        <time>2015-10-04T12:00:26Z</time>
      </trkpt>
      <trkpt lat="45.269416" lon="22.866016">
        <ele>1412.108</ele>
        <time>2015-10-04T12:00:33Z</time>
      </trkpt>
      <trkpt lat="45.269336" lon="22.866041">
        <ele>1410.943</ele>
        <time>2015-10-04T12:00:46Z</time>
      </trkpt>
      <trkpt lat="45.269245" lon="22.866101">
        <ele>1409.099</ele>
        <time>2015-10-04T12:00:54Z</time>
      </trkpt>
      <trkpt lat="45.269158" lon="22.866135">
        <ele>1407.413</ele>
        <time>2015-10-04T12:01:00Z</time>
      </trkpt>
      <trkpt lat="45.269099" lon="22.866258">
        <ele>1403.562</ele>
        <time>2015-10-04T12:01:21Z</time>
      </trkpt>
      <trkpt lat="45.269028" lon="22.866320">
        <ele>1400.494</ele>
        <time>2015-10-04T12:01:37Z</time>
      </trkpt>
      <trkpt lat="45.268953" lon="22.866376">
        <ele>1397.058</ele>
        <time>2015-10-04T12:01:43Z</time>
      </trkpt>
      <trkpt lat="45.268900" lon="22.866468">
        <ele>1393.835</ele>
        <time>2015-10-04T12:01:55Z</time>
      </trkpt>
      <trkpt lat="45.268950" lon="22.866563">
        <ele>1393.386</ele>
        <time>2015-10-04T12:02:21Z</time>
      </trkpt>
      <trkpt lat="45.268979" lon="22.866676">
        <ele>1391.859</ele>
        <time>2015-10-04T12:02:32Z</time>
      </trkpt>
      <trkpt lat="45.268979" lon="22.866793">
        <ele>1389.803</ele>
        <time>2015-10-04T12:02:43Z</time>
      </trkpt>
      <trkpt lat="45.268991" lon="22.866943">
        <ele>1387.623</ele>
        <time>2015-10-04T12:03:08Z</time>
      </trkpt>
      <trkpt lat="45.269018" lon="22.867056">
        <ele>1385.908</ele>
        <time>2015-10-04T12:03:16Z</time>
      </trkpt>
      <trkpt lat="45.268946" lon="22.867131">
        <ele>1383.276</ele>
        <time>2015-10-04T12:03:23Z</time>
      </trkpt>
      <trkpt lat="45.268919" lon="22.867251">
        <ele>1380.612</ele>
        <time>2015-10-04T12:03:27Z</time>
      </trkpt>
      <trkpt lat="45.268868" lon="22.867350">
        <ele>1377.686</ele>
        <time>2015-10-04T12:03:40Z</time>
      </trkpt>
      <trkpt lat="45.268799" lon="22.867503">
        <ele>1373.615</ele>
        <time>2015-10-04T12:04:30Z</time>
      </trkpt>
      <trkpt lat="45.268730" lon="22.867600">
        <ele>1371.597</ele>
        <time>2015-10-04T12:05:06Z</time>
      </trkpt>
      <trkpt lat="45.268643" lon="22.867583">
        <ele>1371.831</ele>
        <time>2015-10-04T12:05:19Z</time>
      </trkpt>
      <trkpt lat="45.268565" lon="22.867518">
        <ele>1372.298</ele>
        <time>2015-10-04T12:05:35Z</time>
      </trkpt>
      <trkpt lat="45.268493" lon="22.867463">
        <ele>1372.259</ele>
        <time>2015-10-04T12:05:47Z</time>
      </trkpt>
      <trkpt lat="45.268409" lon="22.867444">
        <ele>1371.566</ele>
        <time>2015-10-04T12:06:00Z</time>
      </trkpt>
      <trkpt lat="45.268323" lon="22.867448">
        <ele>1370.429</ele>
        <time>2015-10-04T12:06:11Z</time>
      </trkpt>
      <trkpt lat="45.268238" lon="22.867455">
        <ele>1368.721</ele>
        <time>2015-10-04T12:06:18Z</time>
      </trkpt>
      <trkpt lat="45.268154" lon="22.867458">
        <ele>1367.108</ele>
        <time>2015-10-04T12:06:26Z</time>
      </trkpt>
      <trkpt lat="45.268068" lon="22.867458">
        <ele>1365.547</ele>
        <time>2015-10-04T12:06:33Z</time>
      </trkpt>
      <trkpt lat="45.267986" lon="22.867459">
        <ele>1364.533</ele>
        <time>2015-10-04T12:06:41Z</time>
      </trkpt>
      <trkpt lat="45.267908" lon="22.867421">
        <ele>1364.057</ele>
        <time>2015-10-04T12:06:56Z</time>
      </trkpt>
      <trkpt lat="45.267806" lon="22.867433">
        <ele>1362.826</ele>
        <time>2015-10-04T12:07:02Z</time>
      </trkpt>
      <trkpt lat="45.267726" lon="22.867455">
        <ele>1361.698</ele>
        <time>2015-10-04T12:07:09Z</time>
      </trkpt>
      <trkpt lat="45.267638" lon="22.867525">
        <ele>1359.832</ele>
        <time>2015-10-04T12:07:23Z</time>
      </trkpt>
      <trkpt lat="45.267558" lon="22.867548">
        <ele>1358.449</ele>
        <time>2015-10-04T12:07:34Z</time>
      </trkpt>
      <trkpt lat="45.267428" lon="22.867555">
        <ele>1355.730</ele>
        <time>2015-10-04T12:07:56Z</time>
      </trkpt>
      <trkpt lat="45.267343" lon="22.867568">
        <ele>1353.552</ele>
        <time>2015-10-04T12:08:01Z</time>
      </trkpt>
      <trkpt lat="45.267258" lon="22.867541">
        <ele>1351.953</ele>
        <time>2015-10-04T12:08:13Z</time>
      </trkpt>
      <trkpt lat="45.267168" lon="22.867543">
        <ele>1350.308</ele>
        <time>2015-10-04T12:08:24Z</time>
      </trkpt>
      <trkpt lat="45.267081" lon="22.867560">
        <ele>1348.708</ele>
        <time>2015-10-04T12:08:34Z</time>
      </trkpt>
      <trkpt lat="45.267006" lon="22.867610">
        <ele>1346.566</ele>
        <time>2015-10-04T12:08:46Z</time>
      </trkpt>
      <trkpt lat="45.266891" lon="22.867638">
        <ele>1344.562</ele>
        <time>2015-10-04T12:08:52Z</time>
      </trkpt>
      <trkpt lat="45.266814" lon="22.867684">
        <ele>1342.986</ele>
        <time>2015-10-04T12:08:57Z</time>
      </trkpt>
      <trkpt lat="45.266730" lon="22.867733">
        <ele>1341.345</ele>
        <time>2015-10-04T12:09:15Z</time>
      </trkpt>
      <trkpt lat="45.266645" lon="22.867731">
        <ele>1340.577</ele>
        <time>2015-10-04T12:09:30Z</time>
      </trkpt>
      <trkpt lat="45.266563" lon="22.867803">
        <ele>1337.961</ele>
        <time>2015-10-04T12:09:49Z</time>
      </trkpt>
      <trkpt lat="45.266484" lon="22.867761">
        <ele>1337.748</ele>
        <time>2015-10-04T12:10:08Z</time>
      </trkpt>
      <trkpt lat="45.266413" lon="22.867695">
        <ele>1337.849</ele>
        <time>2015-10-04T12:10:53Z</time>
      </trkpt>
      <trkpt lat="45.266336" lon="22.867646">
        <ele>1337.171</ele>
        <time>2015-10-04T12:11:07Z</time>
      </trkpt>
      <trkpt lat="45.266255" lon="22.867653">
        <ele>1335.141</ele>
        <time>2015-10-04T12:11:19Z</time>
      </trkpt>
      <trkpt lat="45.266173" lon="22.867676">
        <ele>1332.715</ele>
        <time>2015-10-04T12:11:28Z</time>
      </trkpt>
      <trkpt lat="45.266090" lon="22.867639">
        <ele>1331.508</ele>
        <time>2015-10-04T12:11:41Z</time>
      </trkpt>
      <trkpt lat="45.266003" lon="22.867623">
        <ele>1329.918</ele>
        <time>2015-10-04T12:11:54Z</time>
      </trkpt>
      <trkpt lat="45.265913" lon="22.867613">
        <ele>1328.014</ele>
        <time>2015-10-04T12:12:07Z</time>
      </trkpt>
      <trkpt lat="45.265845" lon="22.867516">
        <ele>1327.258</ele>
        <time>2015-10-04T12:12:18Z</time>
      </trkpt>
      <trkpt lat="45.265766" lon="22.867481">
        <ele>1325.037</ele>
        <time>2015-10-04T12:12:40Z</time>
      </trkpt>
      <trkpt lat="45.265681" lon="22.867378">
        <ele>1323.649</ele>
        <time>2015-10-04T12:13:20Z</time>
      </trkpt>
      <trkpt lat="45.265611" lon="22.867318">
        <ele>1322.393</ele>
        <time>2015-10-04T12:13:58Z</time>
      </trkpt>
      <trkpt lat="45.265498" lon="22.867223">
        <ele>1319.720</ele>
        <time>2015-10-04T12:16:26Z</time>
      </trkpt>
      <trkpt lat="45.265391" lon="22.867166">
        <ele>1316.411</ele>
        <time>2015-10-04T12:17:08Z</time>
      </trkpt>
      <trkpt lat="45.265453" lon="22.867261">
        <ele>1317.443</ele>
        <time>2015-10-04T12:18:26Z</time>
      </trkpt>
      <trkpt lat="45.265536" lon="22.867335">
        <ele>1319.664</ele>
        <time>2015-10-04T12:19:33Z</time>
      </trkpt>
      <trkpt lat="45.265556" lon="22.867205">
        <ele>1322.310</ele>
        <time>2015-10-04T12:20:21Z</time>
      </trkpt>
      <trkpt lat="45.265451" lon="22.867210">
        <ele>1318.108</ele>
        <time>2015-10-04T12:20:50Z</time>
      </trkpt>
      <trkpt lat="45.265396" lon="22.867301">
        <ele>1314.525</ele>
        <time>2015-10-04T12:22:24Z</time>
      </trkpt>
      <trkpt lat="45.265310" lon="22.867341">
        <ele>1310.611</ele>
        <time>2015-10-04T12:22:47Z</time>
      </trkpt>
      <trkpt lat="45.265233" lon="22.867396">
        <ele>1306.765</ele>
        <time>2015-10-04T12:22:58Z</time>
      </trkpt>
      <trkpt lat="45.265153" lon="22.867425">
        <ele>1303.184</ele>
        <time>2015-10-04T12:23:11Z</time>
      </trkpt>
      <trkpt lat="45.265070" lon="22.867458">
        <ele>1299.416</ele>
        <time>2015-10-04T12:23:24Z</time>
      </trkpt>
      <trkpt lat="45.264986" lon="22.867441">
        <ele>1296.430</ele>
        <time>2015-10-04T12:24:03Z</time>
      </trkpt>
      <trkpt lat="45.264908" lon="22.867485">
        <ele>1293.287</ele>
        <time>2015-10-04T12:24:11Z</time>
      </trkpt>
      <trkpt lat="45.264830" lon="22.867440">
        <ele>1291.478</ele>
        <time>2015-10-04T12:24:24Z</time>
      </trkpt>
      <trkpt lat="45.264750" lon="22.867406">
        <ele>1289.389</ele>
        <time>2015-10-04T12:24:38Z</time>
      </trkpt>
      <trkpt lat="45.264673" lon="22.867366">
        <ele>1287.606</ele>
        <time>2015-10-04T12:24:54Z</time>
      </trkpt>
      <trkpt lat="45.264593" lon="22.867321">
        <ele>1286.326</ele>
        <time>2015-10-04T12:25:09Z</time>
      </trkpt>
      <trkpt lat="45.264513" lon="22.867356">
        <ele>1283.508</ele>
        <time>2015-10-04T12:25:27Z</time>
      </trkpt>
      <trkpt lat="45.264481" lon="22.867465">
        <ele>1280.029</ele>
        <time>2015-10-04T12:25:40Z</time>
      </trkpt>
      <trkpt lat="45.264403" lon="22.867513">
        <ele>1276.565</ele>
        <time>2015-10-04T12:25:52Z</time>
      </trkpt>
      <trkpt lat="45.264318" lon="22.867470">
        <ele>1275.179</ele>
        <time>2015-10-04T12:26:04Z</time>
      </trkpt>
      <trkpt lat="45.264231" lon="22.867478">
        <ele>1272.338</ele>
        <time>2015-10-04T12:26:18Z</time>
      </trkpt>
      <trkpt lat="45.264158" lon="22.867423">
        <ele>1271.320</ele>
        <time>2015-10-04T12:26:29Z</time>
      </trkpt>
      <trkpt lat="45.264069" lon="22.867323">
        <ele>1270.254</ele>
        <time>2015-10-04T12:26:51Z</time>
      </trkpt>
      <trkpt lat="45.263945" lon="22.867261">
        <ele>1267.131</ele>
        <time>2015-10-04T12:27:31Z</time>
      </trkpt>
      <trkpt lat="45.263801" lon="22.867250">
        <ele>1260.382</ele>
        <time>2015-10-04T12:28:46Z</time>
      </trkpt>
      <trkpt lat="45.263633" lon="22.867279">
        <ele>1250.239</ele>
        <time>2015-10-04T12:29:22Z</time>
      </trkpt>
      <trkpt lat="45.263543" lon="22.867251">
        <ele>1246.101</ele>
        <time>2015-10-04T12:29:51Z</time>
      </trkpt>
      <trkpt lat="45.263486" lon="22.867165">
        <ele>1244.621</ele>
        <time>2015-10-04T12:30:13Z</time>
      </trkpt>
      <trkpt lat="45.263370" lon="22.867168">
        <ele>1238.708</ele>
        <time>2015-10-04T12:31:00Z</time>
      </trkpt>
      <trkpt lat="45.263296" lon="22.867226">
        <ele>1234.944</ele>
        <time>2015-10-04T12:32:31Z</time>
      </trkpt>
      <trkpt lat="45.263238" lon="22.867318">
        <ele>1231.980</ele>
        <time>2015-10-04T12:32:56Z</time>
      </trkpt>
      <trkpt lat="45.263155" lon="22.867343">
        <ele>1229.124</ele>
        <time>2015-10-04T12:33:09Z</time>
      </trkpt>
      <trkpt lat="45.263074" lon="22.867375">
        <ele>1226.373</ele>
        <time>2015-10-04T12:33:27Z</time>
      </trkpt>
      <trkpt lat="45.263005" lon="22.867435">
        <ele>1223.345</ele>
        <time>2015-10-04T12:33:41Z</time>
      </trkpt>
      <trkpt lat="45.262923" lon="22.867455">
        <ele>1220.469</ele>
        <time>2015-10-04T12:33:52Z</time>
      </trkpt>
      <trkpt lat="45.262870" lon="22.867549">
        <ele>1217.176</ele>
        <time>2015-10-04T12:34:07Z</time>
      </trkpt>
      <trkpt lat="45.262781" lon="22.867613">
        <ele>1212.757</ele>
        <time>2015-10-04T12:34:29Z</time>
      </trkpt>
      <trkpt lat="45.262705" lon="22.867655">
        <ele>1208.763</ele>
        <time>2015-10-04T12:34:47Z</time>
      </trkpt>
      <trkpt lat="45.262669" lon="22.867828">
        <ele>1204.944</ele>
        <time>2015-10-04T12:35:40Z</time>
      </trkpt>
      <trkpt lat="45.262620" lon="22.867925">
        <ele>1202.718</ele>
        <time>2015-10-04T12:35:52Z</time>
      </trkpt>
      <trkpt lat="45.262561" lon="22.868029">
        <ele>1199.808</ele>
        <time>2015-10-04T12:36:02Z</time>
      </trkpt>
      <trkpt lat="45.262575" lon="22.868156">
        <ele>1200.377</ele>
        <time>2015-10-04T12:36:07Z</time>
      </trkpt>
      <trkpt lat="45.262541" lon="22.868263">
        <ele>1198.983</ele>
        <time>2015-10-04T12:36:15Z</time>
      </trkpt>
      <trkpt lat="45.262468" lon="22.868336">
        <ele>1196.167</ele>
        <time>2015-10-04T12:36:36Z</time>
      </trkpt>
      <trkpt lat="45.262483" lon="22.868456">
        <ele>1197.366</ele>
        <time>2015-10-04T12:36:49Z</time>
      </trkpt>
      <trkpt lat="45.262463" lon="22.868568">
        <ele>1197.238</ele>
        <time>2015-10-04T12:36:57Z</time>
      </trkpt>
      <trkpt lat="45.262425" lon="22.868675">
        <ele>1195.962</ele>
        <time>2015-10-04T12:37:04Z</time>
      </trkpt>
      <trkpt lat="45.262370" lon="22.868760">
        <ele>1193.959</ele>
        <time>2015-10-04T12:37:18Z</time>
      </trkpt>
      <trkpt lat="45.262353" lon="22.868873">
        <ele>1193.640</ele>
        <time>2015-10-04T12:37:28Z</time>
      </trkpt>
      <trkpt lat="45.262339" lon="22.868996">
        <ele>1192.711</ele>
        <time>2015-10-04T12:38:53Z</time>
      </trkpt>
      <trkpt lat="45.262328" lon="22.869120">
        <ele>1191.921</ele>
        <time>2015-10-04T12:39:06Z</time>
      </trkpt>
      <trkpt lat="45.262313" lon="22.869243">
        <ele>1191.103</ele>
        <time>2015-10-04T12:39:51Z</time>
      </trkpt>
      <trkpt lat="45.262308" lon="22.869370">
        <ele>1190.708</ele>
        <time>2015-10-04T12:39:59Z</time>
      </trkpt>
      <trkpt lat="45.262235" lon="22.869441">
        <ele>1189.232</ele>
        <time>2015-10-04T12:40:07Z</time>
      </trkpt>
      <trkpt lat="45.262153" lon="22.869486">
        <ele>1188.418</ele>
        <time>2015-10-04T12:40:18Z</time>
      </trkpt>
      <trkpt lat="45.262110" lon="22.869586">
        <ele>1187.942</ele>
        <time>2015-10-04T12:40:28Z</time>
      </trkpt>
      <trkpt lat="45.262098" lon="22.869701">
        <ele>1187.621</ele>
        <time>2015-10-04T12:40:38Z</time>
      </trkpt>
      <trkpt lat="45.262098" lon="22.869818">
        <ele>1186.183</ele>
        <time>2015-10-04T12:40:48Z</time>
      </trkpt>
      <trkpt lat="45.262135" lon="22.869931">
        <ele>1184.137</ele>
        <time>2015-10-04T12:40:57Z</time>
      </trkpt>
      <trkpt lat="45.262148" lon="22.870060">
        <ele>1182.184</ele>
        <time>2015-10-04T12:41:13Z</time>
      </trkpt>
      <trkpt lat="45.262180" lon="22.870179">
        <ele>1180.145</ele>
        <time>2015-10-04T12:41:23Z</time>
      </trkpt>
      <trkpt lat="45.262203" lon="22.870296">
        <ele>1178.396</ele>
        <time>2015-10-04T12:41:34Z</time>
      </trkpt>
      <trkpt lat="45.262223" lon="22.870411">
        <ele>1178.031</ele>
        <time>2015-10-04T12:41:44Z</time>
      </trkpt>
      <trkpt lat="45.262264" lon="22.870511">
        <ele>1178.224</ele>
        <time>2015-10-04T12:42:10Z</time>
      </trkpt>
    </trkseg>
  </trk></gpx>