<?xml version="1.0" encoding="UTF-8"?>
<gpx creator="Wikiloc - https://www.wikiloc.com" version="1.1" xmlns="http://www.topografix.com/GPX/1/1" xmlns:xsi="http://www.w3.org/2001/XMLSchema-instance" xsi:schemaLocation="http://www.topografix.com/GPX/1/1 http://www.topografix.com/GPX/1/1/gpx.xsd">
  <metadata>
    <name>Wikiloc - SPALNACA</name>
    <author>
      <name>Toni Grecu</name>
      <link href="https://www.wikiloc.com/wikiloc/user.do?id=2082631">
        <text>Toni Grecu on Wikiloc</text>
      </link>
    </author>
    <link href="https://www.wikiloc.com/hiking-trails/spalnaca-17097022">
      <text>SPALNACA on Wikiloc</text>
    </link>
    <time>2015-03-08T12:15:50Z</time>
  </metadata>
  <trk>
    <name>SPALNACA - Wikiloc</name>
    <cmt>Hiking 3/8/15 11:59 am</cmt>
    <desc>Hiking 3/8/15 11:59 am</desc>
    <trkseg>
      <trkpt lat="46.340523" lon="23.906801">
        <ele>311.088</ele>
        <time>2015-03-08T09:59:42Z</time>
      </trkpt>
      <trkpt lat="46.340659" lon="23.906875">
        <ele>311.024</ele>
        <time>2015-03-08T09:59:43Z</time>
      </trkpt>
      <trkpt lat="46.340636" lon="23.906754">
        <ele>311.026</ele>
        <time>2015-03-08T09:59:51Z</time>
      </trkpt>
      <trkpt lat="46.340704" lon="23.906686">
        <ele>311.008</ele>
        <time>2015-03-08T10:00:12Z</time>
      </trkpt>
      <trkpt lat="46.340791" lon="23.906653">
        <ele>311.039</ele>
        <time>2015-03-08T10:00:46Z</time>
      </trkpt>
      <trkpt lat="46.340856" lon="23.906730">
        <ele>311.345</ele>
        <time>2015-03-08T10:00:55Z</time>
      </trkpt>
      <trkpt lat="46.340935" lon="23.906788">
        <ele>311.568</ele>
        <time>2015-03-08T10:01:04Z</time>
      </trkpt>
      <trkpt lat="46.340988" lon="23.906881">
        <ele>311.577</ele>
        <time>2015-03-08T10:01:19Z</time>
      </trkpt>
      <trkpt lat="46.341051" lon="23.906968">
        <ele>311.415</ele>
        <time>2015-03-08T10:01:27Z</time>
      </trkpt>
      <trkpt lat="46.341109" lon="23.907051">
        <ele>311.318</ele>
        <time>2015-03-08T10:01:36Z</time>
      </trkpt>
      <trkpt lat="46.341163" lon="23.907156">
        <ele>311.260</ele>
        <time>2015-03-08T10:01:45Z</time>
      </trkpt>
      <trkpt lat="46.341229" lon="23.907249">
        <ele>311.150</ele>
        <time>2015-03-08T10:01:53Z</time>
      </trkpt>
      <trkpt lat="46.341288" lon="23.907343">
        <ele>311.031</ele>
        <time>2015-03-08T10:02:01Z</time>
      </trkpt>
      <trkpt lat="46.341340" lon="23.907448">
        <ele>310.961</ele>
        <time>2015-03-08T10:02:09Z</time>
      </trkpt>
      <trkpt lat="46.341388" lon="23.907544">
        <ele>310.807</ele>
        <time>2015-03-08T10:02:18Z</time>
      </trkpt>
      <trkpt lat="46.341451" lon="23.907628">
        <ele>310.708</ele>
        <time>2015-03-08T10:02:25Z</time>
      </trkpt>
      <trkpt lat="46.341483" lon="23.907741">
        <ele>310.464</ele>
        <time>2015-03-08T10:02:34Z</time>
      </trkpt>
      <trkpt lat="46.341553" lon="23.907816">
        <ele>310.050</ele>
        <time>2015-03-08T10:02:41Z</time>
      </trkpt>
      <trkpt lat="46.341633" lon="23.907866">
        <ele>310.073</ele>
        <time>2015-03-08T10:02:52Z</time>
      </trkpt>
      <trkpt lat="46.341703" lon="23.907801">
        <ele>310.012</ele>
        <time>2015-03-08T10:03:02Z</time>
      </trkpt>
      <trkpt lat="46.341771" lon="23.907724">
        <ele>309.950</ele>
        <time>2015-03-08T10:03:12Z</time>
      </trkpt>
      <trkpt lat="46.341826" lon="23.907636">
        <ele>309.843</ele>
        <time>2015-03-08T10:03:22Z</time>
      </trkpt>
      <trkpt lat="46.341758" lon="23.907723">
        <ele>309.765</ele>
        <time>2015-03-08T10:06:18Z</time>
      </trkpt>
      <trkpt lat="46.341705" lon="23.907823">
        <ele>309.645</ele>
        <time>2015-03-08T10:06:26Z</time>
      </trkpt>
      <trkpt lat="46.341631" lon="23.907898">
        <ele>309.535</ele>
        <time>2015-03-08T10:06:35Z</time>
      </trkpt>
      <trkpt lat="46.341613" lon="23.908015">
        <ele>309.586</ele>
        <time>2015-03-08T10:06:45Z</time>
      </trkpt>
      <trkpt lat="46.341663" lon="23.908108">
        <ele>309.414</ele>
        <time>2015-03-08T10:06:51Z</time>
      </trkpt>
      <trkpt lat="46.341723" lon="23.908196">
        <ele>309.308</ele>
        <time>2015-03-08T10:06:59Z</time>
      </trkpt>
      <trkpt lat="46.341773" lon="23.908301">
        <ele>309.514</ele>
        <time>2015-03-08T10:07:07Z</time>
      </trkpt>
      <trkpt lat="46.341825" lon="23.908405">
        <ele>309.690</ele>
        <time>2015-03-08T10:07:14Z</time>
      </trkpt>
      <trkpt lat="46.341885" lon="23.908486">
        <ele>309.563</ele>
        <time>2015-03-08T10:07:21Z</time>
      </trkpt>
      <trkpt lat="46.341945" lon="23.908575">
        <ele>309.472</ele>
        <time>2015-03-08T10:07:28Z</time>
      </trkpt>
      <trkpt lat="46.341966" lon="23.908698">
        <ele>309.320</ele>
        <time>2015-03-08T10:07:36Z</time>
      </trkpt>
      <trkpt lat="46.342000" lon="23.908806">
        <ele>309.263</ele>
        <time>2015-03-08T10:07:43Z</time>
      </trkpt>
      <trkpt lat="46.342053" lon="23.908904">
        <ele>309.155</ele>
        <time>2015-03-08T10:07:50Z</time>
      </trkpt>
      <trkpt lat="46.342120" lon="23.908996">
        <ele>309.045</ele>
        <time>2015-03-08T10:07:59Z</time>
      </trkpt>
      <trkpt lat="46.342175" lon="23.909086">
        <ele>308.918</ele>
        <time>2015-03-08T10:08:06Z</time>
      </trkpt>
      <trkpt lat="46.342230" lon="23.909188">
        <ele>308.898</ele>
        <time>2015-03-08T10:08:14Z</time>
      </trkpt>
      <trkpt lat="46.342308" lon="23.909253">
        <ele>308.617</ele>
        <time>2015-03-08T10:08:21Z</time>
      </trkpt>
      <trkpt lat="46.342388" lon="23.909273">
        <ele>308.208</ele>
        <time>2015-03-08T10:08:26Z</time>
      </trkpt>
      <trkpt lat="46.342421" lon="23.909381">
        <ele>307.742</ele>
        <time>2015-03-08T10:08:32Z</time>
      </trkpt>
      <trkpt lat="46.342475" lon="23.909478">
        <ele>307.648</ele>
        <time>2015-03-08T10:08:40Z</time>
      </trkpt>
      <trkpt lat="46.342523" lon="23.909573">
        <ele>307.591</ele>
        <time>2015-03-08T10:08:47Z</time>
      </trkpt>
      <trkpt lat="46.342594" lon="23.909654">
        <ele>307.560</ele>
        <time>2015-03-08T10:08:55Z</time>
      </trkpt>
      <trkpt lat="46.342655" lon="23.909748">
        <ele>307.548</ele>
        <time>2015-03-08T10:09:03Z</time>
      </trkpt>
      <trkpt lat="46.342738" lon="23.909818">
        <ele>307.461</ele>
        <time>2015-03-08T10:09:24Z</time>
      </trkpt>
      <trkpt lat="46.342805" lon="23.909736">
        <ele>307.383</ele>
        <time>2015-03-08T10:09:32Z</time>
      </trkpt>
      <trkpt lat="46.342878" lon="23.909661">
        <ele>307.283</ele>
        <time>2015-03-08T10:09:40Z</time>
      </trkpt>
      <trkpt lat="46.342938" lon="23.909575">
        <ele>307.191</ele>
        <time>2015-03-08T10:09:48Z</time>
      </trkpt>
      <trkpt lat="46.343003" lon="23.909480">
        <ele>307.181</ele>
        <time>2015-03-08T10:09:57Z</time>
      </trkpt>
      <trkpt lat="46.343061" lon="23.909391">
        <ele>307.119</ele>
        <time>2015-03-08T10:10:04Z</time>
      </trkpt>
      <trkpt lat="46.343118" lon="23.909306">
        <ele>307.108</ele>
        <time>2015-03-08T10:10:11Z</time>
      </trkpt>
      <trkpt lat="46.343180" lon="23.909223">
        <ele>307.360</ele>
        <time>2015-03-08T10:10:19Z</time>
      </trkpt>
      <trkpt lat="46.343240" lon="23.909135">
        <ele>307.586</ele>
        <time>2015-03-08T10:10:26Z</time>
      </trkpt>
      <trkpt lat="46.343298" lon="23.909046">
        <ele>307.599</ele>
        <time>2015-03-08T10:10:33Z</time>
      </trkpt>
      <trkpt lat="46.343363" lon="23.908958">
        <ele>307.738</ele>
        <time>2015-03-08T10:10:40Z</time>
      </trkpt>
      <trkpt lat="46.343421" lon="23.908855">
        <ele>307.986</ele>
        <time>2015-03-08T10:10:48Z</time>
      </trkpt>
      <trkpt lat="46.343483" lon="23.908750">
        <ele>308.359</ele>
        <time>2015-03-08T10:10:56Z</time>
      </trkpt>
      <trkpt lat="46.343551" lon="23.908669">
        <ele>308.621</ele>
        <time>2015-03-08T10:11:04Z</time>
      </trkpt>
      <trkpt lat="46.343626" lon="23.908588">
        <ele>309.011</ele>
        <time>2015-03-08T10:11:11Z</time>
      </trkpt>
      <trkpt lat="46.343700" lon="23.908538">
        <ele>309.484</ele>
        <time>2015-03-08T10:11:17Z</time>
      </trkpt>
      <trkpt lat="46.343785" lon="23.908531">
        <ele>309.707</ele>
        <time>2015-03-08T10:11:25Z</time>
      </trkpt>
      <trkpt lat="46.343858" lon="23.908596">
        <ele>310.117</ele>
        <time>2015-03-08T10:11:32Z</time>
      </trkpt>
      <trkpt lat="46.343941" lon="23.908645">
        <ele>310.308</ele>
        <time>2015-03-08T10:11:40Z</time>
      </trkpt>
      <trkpt lat="46.344021" lon="23.908693">
        <ele>310.539</ele>
        <time>2015-03-08T10:11:54Z</time>
      </trkpt>
      <trkpt lat="46.344100" lon="23.908730">
        <ele>310.645</ele>
        <time>2015-03-08T10:12:02Z</time>
      </trkpt>
      <trkpt lat="46.344185" lon="23.908738">
        <ele>310.878</ele>
        <time>2015-03-08T10:12:11Z</time>
      </trkpt>
      <trkpt lat="46.344270" lon="23.908746">
        <ele>311.717</ele>
        <time>2015-03-08T10:12:19Z</time>
      </trkpt>
      <trkpt lat="46.344358" lon="23.908730">
        <ele>312.595</ele>
        <time>2015-03-08T10:12:28Z</time>
      </trkpt>
      <trkpt lat="46.344435" lon="23.908669">
        <ele>313.278</ele>
        <time>2015-03-08T10:12:37Z</time>
      </trkpt>
      <trkpt lat="46.344513" lon="23.908634">
        <ele>313.990</ele>
        <time>2015-03-08T10:12:45Z</time>
      </trkpt>
      <trkpt lat="46.344593" lon="23.908603">
        <ele>314.610</ele>
        <time>2015-03-08T10:12:52Z</time>
      </trkpt>
      <trkpt lat="46.344678" lon="23.908579">
        <ele>315.494</ele>
        <time>2015-03-08T10:12:59Z</time>
      </trkpt>
      <trkpt lat="46.344763" lon="23.908586">
        <ele>316.157</ele>
        <time>2015-03-08T10:13:08Z</time>
      </trkpt>
      <trkpt lat="46.344846" lon="23.908604">
        <ele>316.822</ele>
        <time>2015-03-08T10:13:16Z</time>
      </trkpt>
      <trkpt lat="46.344928" lon="23.908624">
        <ele>317.508</ele>
        <time>2015-03-08T10:13:24Z</time>
      </trkpt>
      <trkpt lat="46.345013" lon="23.908658">
        <ele>318.390</ele>
        <time>2015-03-08T10:13:33Z</time>
      </trkpt>
      <trkpt lat="46.345098" lon="23.908671">
        <ele>319.636</ele>
        <time>2015-03-08T10:13:43Z</time>
      </trkpt>
      <trkpt lat="46.345178" lon="23.908691">
        <ele>320.039</ele>
        <time>2015-03-08T10:13:56Z</time>
      </trkpt>
      <trkpt lat="46.345265" lon="23.908713">
        <ele>320.478</ele>
        <time>2015-03-08T10:14:10Z</time>
      </trkpt>
      <trkpt lat="46.345353" lon="23.908743">
        <ele>320.796</ele>
        <time>2015-03-08T10:14:20Z</time>
      </trkpt>
      <trkpt lat="46.345439" lon="23.908758">
        <ele>321.139</ele>
        <time>2015-03-08T10:14:32Z</time>
      </trkpt>
      <trkpt lat="46.345523" lon="23.908778">
        <ele>321.571</ele>
        <time>2015-03-08T10:14:42Z</time>
      </trkpt>
      <trkpt lat="46.345603" lon="23.908808">
        <ele>322.111</ele>
        <time>2015-03-08T10:14:53Z</time>
      </trkpt>
      <trkpt lat="46.345679" lon="23.908855">
        <ele>322.767</ele>
        <time>2015-03-08T10:15:04Z</time>
      </trkpt>
      <trkpt lat="46.345754" lon="23.908923">
        <ele>323.481</ele>
        <time>2015-03-08T10:15:16Z</time>
      </trkpt>
      <trkpt lat="46.345836" lon="23.908966">
        <ele>324.019</ele>
        <time>2015-03-08T10:15:25Z</time>
      </trkpt>
      <trkpt lat="46.345908" lon="23.908901">
        <ele>324.608</ele>
        <time>2015-03-08T10:15:39Z</time>
      </trkpt>
      <trkpt lat="46.345946" lon="23.908783">
        <ele>324.617</ele>
        <time>2015-03-08T10:15:50Z</time>
      </trkpt>
      <trkpt lat="46.345908" lon="23.908669">
        <ele>324.913</ele>
        <time>2015-03-08T10:16:02Z</time>
      </trkpt>
      <trkpt lat="46.345876" lon="23.908558">
        <ele>325.246</ele>
        <time>2015-03-08T10:16:14Z</time>
      </trkpt>
      <trkpt lat="46.345844" lon="23.908440">
        <ele>325.595</ele>
        <time>2015-03-08T10:16:45Z</time>
      </trkpt>
      <trkpt lat="46.345859" lon="23.908321">
        <ele>325.723</ele>
        <time>2015-03-08T10:16:55Z</time>
      </trkpt>
      <trkpt lat="46.345913" lon="23.908233">
        <ele>326.076</ele>
        <time>2015-03-08T10:17:04Z</time>
      </trkpt>
      <trkpt lat="46.345963" lon="23.908135">
        <ele>326.048</ele>
        <time>2015-03-08T10:17:12Z</time>
      </trkpt>
      <trkpt lat="46.346005" lon="23.908020">
        <ele>326.688</ele>
        <time>2015-03-08T10:17:22Z</time>
      </trkpt>
      <trkpt lat="46.346068" lon="23.907938">
        <ele>327.387</ele>
        <time>2015-03-08T10:17:48Z</time>
      </trkpt>
      <trkpt lat="46.346125" lon="23.907835">
        <ele>327.942</ele>
        <time>2015-03-08T10:18:30Z</time>
      </trkpt>
      <trkpt lat="46.346165" lon="23.907726">
        <ele>328.526</ele>
        <time>2015-03-08T10:18:37Z</time>
      </trkpt>
      <trkpt lat="46.346221" lon="23.907634">
        <ele>329.408</ele>
        <time>2015-03-08T10:18:45Z</time>
      </trkpt>
      <trkpt lat="46.346273" lon="23.907538">
        <ele>330.289</ele>
        <time>2015-03-08T10:18:55Z</time>
      </trkpt>
      <trkpt lat="46.346350" lon="23.907469">
        <ele>331.085</ele>
        <time>2015-03-08T10:19:04Z</time>
      </trkpt>
      <trkpt lat="46.346384" lon="23.907363">
        <ele>331.828</ele>
        <time>2015-03-08T10:19:13Z</time>
      </trkpt>
      <trkpt lat="46.346388" lon="23.907241">
        <ele>332.677</ele>
        <time>2015-03-08T10:19:24Z</time>
      </trkpt>
      <trkpt lat="46.346399" lon="23.907123">
        <ele>333.565</ele>
        <time>2015-03-08T10:19:35Z</time>
      </trkpt>
      <trkpt lat="46.346399" lon="23.907005">
        <ele>334.328</ele>
        <time>2015-03-08T10:19:47Z</time>
      </trkpt>
      <trkpt lat="46.346433" lon="23.906871">
        <ele>334.540</ele>
        <time>2015-03-08T10:20:16Z</time>
      </trkpt>
      <trkpt lat="46.346451" lon="23.906741">
        <ele>334.740</ele>
        <time>2015-03-08T10:20:28Z</time>
      </trkpt>
      <trkpt lat="46.346486" lon="23.906633">
        <ele>335.032</ele>
        <time>2015-03-08T10:20:38Z</time>
      </trkpt>
      <trkpt lat="46.346530" lon="23.906526">
        <ele>335.392</ele>
        <time>2015-03-08T10:20:50Z</time>
      </trkpt>
      <trkpt lat="46.346581" lon="23.906430">
        <ele>335.411</ele>
        <time>2015-03-08T10:21:01Z</time>
      </trkpt>
      <trkpt lat="46.346639" lon="23.906341">
        <ele>335.508</ele>
        <time>2015-03-08T10:21:12Z</time>
      </trkpt>
      <trkpt lat="46.346653" lon="23.906220">
        <ele>335.574</ele>
        <time>2015-03-08T10:21:32Z</time>
      </trkpt>
      <trkpt lat="46.346701" lon="23.906113">
        <ele>335.680</ele>
        <time>2015-03-08T10:21:48Z</time>
      </trkpt>
      <trkpt lat="46.346736" lon="23.906006">
        <ele>335.893</ele>
        <time>2015-03-08T10:22:03Z</time>
      </trkpt>
      <trkpt lat="46.346759" lon="23.905891">
        <ele>336.052</ele>
        <time>2015-03-08T10:22:16Z</time>
      </trkpt>
      <trkpt lat="46.346776" lon="23.905770">
        <ele>336.230</ele>
        <time>2015-03-08T10:22:27Z</time>
      </trkpt>
      <trkpt lat="46.346778" lon="23.905643">
        <ele>336.443</ele>
        <time>2015-03-08T10:22:39Z</time>
      </trkpt>
      <trkpt lat="46.346804" lon="23.905528">
        <ele>336.565</ele>
        <time>2015-03-08T10:22:52Z</time>
      </trkpt>
      <trkpt lat="46.346840" lon="23.905420">
        <ele>336.595</ele>
        <time>2015-03-08T10:23:03Z</time>
      </trkpt>
      <trkpt lat="46.346888" lon="23.905325">
        <ele>337.329</ele>
        <time>2015-03-08T10:23:30Z</time>
      </trkpt>
      <trkpt lat="46.346933" lon="23.905225">
        <ele>338.000</ele>
        <time>2015-03-08T10:23:40Z</time>
      </trkpt>
      <trkpt lat="46.346980" lon="23.905120">
        <ele>338.920</ele>
        <time>2015-03-08T10:23:52Z</time>
      </trkpt>
      <trkpt lat="46.347030" lon="23.905026">
        <ele>339.808</ele>
        <time>2015-03-08T10:25:25Z</time>
      </trkpt>
      <trkpt lat="46.347078" lon="23.904931">
        <ele>340.783</ele>
        <time>2015-03-08T10:28:27Z</time>
      </trkpt>
      <trkpt lat="46.347123" lon="23.904825">
        <ele>341.519</ele>
        <time>2015-03-08T10:28:36Z</time>
      </trkpt>
      <trkpt lat="46.347176" lon="23.904736">
        <ele>342.422</ele>
        <time>2015-03-08T10:28:45Z</time>
      </trkpt>
      <trkpt lat="46.347233" lon="23.904643">
        <ele>343.211</ele>
        <time>2015-03-08T10:29:09Z</time>
      </trkpt>
      <trkpt lat="46.347281" lon="23.904543">
        <ele>344.099</ele>
        <time>2015-03-08T10:29:20Z</time>
      </trkpt>
      <trkpt lat="46.347341" lon="23.904460">
        <ele>344.862</ele>
        <time>2015-03-08T10:29:34Z</time>
      </trkpt>
      <trkpt lat="46.347395" lon="23.904371">
        <ele>345.644</ele>
        <time>2015-03-08T10:30:29Z</time>
      </trkpt>
      <trkpt lat="46.347478" lon="23.904293">
        <ele>345.814</ele>
        <time>2015-03-08T10:31:22Z</time>
      </trkpt>
      <trkpt lat="46.347538" lon="23.904213">
        <ele>346.431</ele>
        <time>2015-03-08T10:31:31Z</time>
      </trkpt>
      <trkpt lat="46.347606" lon="23.904141">
        <ele>346.761</ele>
        <time>2015-03-08T10:31:45Z</time>
      </trkpt>
      <trkpt lat="46.347665" lon="23.904059">
        <ele>347.807</ele>
        <time>2015-03-08T10:32:07Z</time>
      </trkpt>
      <trkpt lat="46.347726" lon="23.903975">
        <ele>348.908</ele>
        <time>2015-03-08T10:32:32Z</time>
      </trkpt>
      <trkpt lat="46.347795" lon="23.903905">
        <ele>350.094</ele>
        <time>2015-03-08T10:32:44Z</time>
      </trkpt>
      <trkpt lat="46.347861" lon="23.903838">
        <ele>351.160</ele>
        <time>2015-03-08T10:32:56Z</time>
      </trkpt>
      <trkpt lat="46.347923" lon="23.903761">
        <ele>352.223</ele>
        <time>2015-03-08T10:33:25Z</time>
      </trkpt>
      <trkpt lat="46.347991" lon="23.903685">
        <ele>353.362</ele>
        <time>2015-03-08T10:33:37Z</time>
      </trkpt>
      <trkpt lat="46.348061" lon="23.903613">
        <ele>354.450</ele>
        <time>2015-03-08T10:33:51Z</time>
      </trkpt>
      <trkpt lat="46.348124" lon="23.903526">
        <ele>355.513</ele>
        <time>2015-03-08T10:34:03Z</time>
      </trkpt>
      <trkpt lat="46.348183" lon="23.903440">
        <ele>357.085</ele>
        <time>2015-03-08T10:34:15Z</time>
      </trkpt>
      <trkpt lat="46.348246" lon="23.903344">
        <ele>358.245</ele>
        <time>2015-03-08T10:34:28Z</time>
      </trkpt>
      <trkpt lat="46.348315" lon="23.903278">
        <ele>359.498</ele>
        <time>2015-03-08T10:34:36Z</time>
      </trkpt>
      <trkpt lat="46.348381" lon="23.903198">
        <ele>359.815</ele>
        <time>2015-03-08T10:34:46Z</time>
      </trkpt>
      <trkpt lat="46.348440" lon="23.903110">
        <ele>360.326</ele>
        <time>2015-03-08T10:35:03Z</time>
      </trkpt>
      <trkpt lat="46.348498" lon="23.903014">
        <ele>360.708</ele>
        <time>2015-03-08T10:35:16Z</time>
      </trkpt>
      <trkpt lat="46.348560" lon="23.902908">
        <ele>361.690</ele>
        <time>2015-03-08T10:35:35Z</time>
      </trkpt>
      <trkpt lat="46.348606" lon="23.902811">
        <ele>362.536</ele>
        <time>2015-03-08T10:35:47Z</time>
      </trkpt>
      <trkpt lat="46.348654" lon="23.902711">
        <ele>363.539</ele>
        <time>2015-03-08T10:35:58Z</time>
      </trkpt>
      <trkpt lat="46.348716" lon="23.902618">
        <ele>364.478</ele>
        <time>2015-03-08T10:36:15Z</time>
      </trkpt>
      <trkpt lat="46.348771" lon="23.902519">
        <ele>365.646</ele>
        <time>2015-03-08T10:36:25Z</time>
      </trkpt>
      <trkpt lat="46.348820" lon="23.902421">
        <ele>366.579</ele>
        <time>2015-03-08T10:36:37Z</time>
      </trkpt>
      <trkpt lat="46.348870" lon="23.902310">
        <ele>367.361</ele>
        <time>2015-03-08T10:36:48Z</time>
      </trkpt>
      <trkpt lat="46.348928" lon="23.902220">
        <ele>368.141</ele>
        <time>2015-03-08T10:36:58Z</time>
      </trkpt>
      <trkpt lat="46.348990" lon="23.902130">
        <ele>368.997</ele>
        <time>2015-03-08T10:37:09Z</time>
      </trkpt>
      <trkpt lat="46.349046" lon="23.902035">
        <ele>369.723</ele>
        <time>2015-03-08T10:37:20Z</time>
      </trkpt>
      <trkpt lat="46.349113" lon="23.901960">
        <ele>370.525</ele>
        <time>2015-03-08T10:37:32Z</time>
      </trkpt>
      <trkpt lat="46.349173" lon="23.901875">
        <ele>370.908</ele>
        <time>2015-03-08T10:37:52Z</time>
      </trkpt>
      <trkpt lat="46.349235" lon="23.901783">
        <ele>371.310</ele>
        <time>2015-03-08T10:38:04Z</time>
      </trkpt>
      <trkpt lat="46.349296" lon="23.901696">
        <ele>371.626</ele>
        <time>2015-03-08T10:38:13Z</time>
      </trkpt>
      <trkpt lat="46.349354" lon="23.901596">
        <ele>373.179</ele>
        <time>2015-03-08T10:38:34Z</time>
      </trkpt>
      <trkpt lat="46.349421" lon="23.901530">
        <ele>374.268</ele>
        <time>2015-03-08T10:38:42Z</time>
      </trkpt>
      <trkpt lat="46.349470" lon="23.901423">
        <ele>375.366</ele>
        <time>2015-03-08T10:38:54Z</time>
      </trkpt>
      <trkpt lat="46.349538" lon="23.901350">
        <ele>376.489</ele>
        <time>2015-03-08T10:39:11Z</time>
      </trkpt>
      <trkpt lat="46.349598" lon="23.901268">
        <ele>377.561</ele>
        <time>2015-03-08T10:39:20Z</time>
      </trkpt>
      <trkpt lat="46.349646" lon="23.901171">
        <ele>378.561</ele>
        <time>2015-03-08T10:39:31Z</time>
      </trkpt>
      <trkpt lat="46.349696" lon="23.901068">
        <ele>379.642</ele>
        <time>2015-03-08T10:39:43Z</time>
      </trkpt>
      <trkpt lat="46.349761" lon="23.900979">
        <ele>380.722</ele>
        <time>2015-03-08T10:39:55Z</time>
      </trkpt>
      <trkpt lat="46.349816" lon="23.900889">
        <ele>381.814</ele>
        <time>2015-03-08T10:40:04Z</time>
      </trkpt>
      <trkpt lat="46.349876" lon="23.900806">
        <ele>382.908</ele>
        <time>2015-03-08T10:40:15Z</time>
      </trkpt>
      <trkpt lat="46.349941" lon="23.900725">
        <ele>384.035</ele>
        <time>2015-03-08T10:40:25Z</time>
      </trkpt>
      <trkpt lat="46.350010" lon="23.900650">
        <ele>384.531</ele>
        <time>2015-03-08T10:40:35Z</time>
      </trkpt>
      <trkpt lat="46.350080" lon="23.900579">
        <ele>385.744</ele>
        <time>2015-03-08T10:40:46Z</time>
      </trkpt>
      <trkpt lat="46.350158" lon="23.900543">
        <ele>387.093</ele>
        <time>2015-03-08T10:40:55Z</time>
      </trkpt>
      <trkpt lat="46.350235" lon="23.900503">
        <ele>388.331</ele>
        <time>2015-03-08T10:41:06Z</time>
      </trkpt>
      <trkpt lat="46.350308" lon="23.900451">
        <ele>389.534</ele>
        <time>2015-03-08T10:41:19Z</time>
      </trkpt>
      <trkpt lat="46.350383" lon="23.900386">
        <ele>390.886</ele>
        <time>2015-03-08T10:41:30Z</time>
      </trkpt>
      <trkpt lat="46.350445" lon="23.900296">
        <ele>392.196</ele>
        <time>2015-03-08T10:41:42Z</time>
      </trkpt>
      <trkpt lat="46.350514" lon="23.900226">
        <ele>393.462</ele>
        <time>2015-03-08T10:41:54Z</time>
      </trkpt>
      <trkpt lat="46.350563" lon="23.900129">
        <ele>394.683</ele>
        <time>2015-03-08T10:42:11Z</time>
      </trkpt>
      <trkpt lat="46.350626" lon="23.900043">
        <ele>396.011</ele>
        <time>2015-03-08T10:42:29Z</time>
      </trkpt>
      <trkpt lat="46.350685" lon="23.899949">
        <ele>397.408</ele>
        <time>2015-03-08T10:42:41Z</time>
      </trkpt>
      <trkpt lat="46.350735" lon="23.899853">
        <ele>398.347</ele>
        <time>2015-03-08T10:42:52Z</time>
      </trkpt>
      <trkpt lat="46.350795" lon="23.899768">
        <ele>398.443</ele>
        <time>2015-03-08T10:43:02Z</time>
      </trkpt>
      <trkpt lat="46.350843" lon="23.899664">
        <ele>398.576</ele>
        <time>2015-03-08T10:43:14Z</time>
      </trkpt>
      <trkpt lat="46.350895" lon="23.899565">
        <ele>398.595</ele>
        <time>2015-03-08T10:43:26Z</time>
      </trkpt>
      <trkpt lat="46.350951" lon="23.899471">
        <ele>398.623</ele>
        <time>2015-03-08T10:43:37Z</time>
      </trkpt>
      <trkpt lat="46.350998" lon="23.899373">
        <ele>398.716</ele>
        <time>2015-03-08T10:43:51Z</time>
      </trkpt>
      <trkpt lat="46.351043" lon="23.899258">
        <ele>398.768</ele>
        <time>2015-03-08T10:44:02Z</time>
      </trkpt>
      <trkpt lat="46.351088" lon="23.899155">
        <ele>398.758</ele>
        <time>2015-03-08T10:44:11Z</time>
      </trkpt>
      <trkpt lat="46.351126" lon="23.899045">
        <ele>398.793</ele>
        <time>2015-03-08T10:44:22Z</time>
      </trkpt>
      <trkpt lat="46.351173" lon="23.898934">
        <ele>398.665</ele>
        <time>2015-03-08T10:44:33Z</time>
      </trkpt>
      <trkpt lat="46.351221" lon="23.898836">
        <ele>398.521</ele>
        <time>2015-03-08T10:44:45Z</time>
      </trkpt>
      <trkpt lat="46.351266" lon="23.898733">
        <ele>398.908</ele>
        <time>2015-03-08T10:44:59Z</time>
      </trkpt>
      <trkpt lat="46.351326" lon="23.898653">
        <ele>399.310</ele>
        <time>2015-03-08T10:45:08Z</time>
      </trkpt>
      <trkpt lat="46.351390" lon="23.898561">
        <ele>399.616</ele>
        <time>2015-03-08T10:45:19Z</time>
      </trkpt>
      <trkpt lat="46.351375" lon="23.898436">
        <ele>400.029</ele>
        <time>2015-03-08T10:46:13Z</time>
      </trkpt>
      <trkpt lat="46.351324" lon="23.898340">
        <ele>400.598</ele>
        <time>2015-03-08T10:46:23Z</time>
      </trkpt>
      <trkpt lat="46.351251" lon="23.898259">
        <ele>401.176</ele>
        <time>2015-03-08T10:46:36Z</time>
      </trkpt>
      <trkpt lat="46.351185" lon="23.898190">
        <ele>401.759</ele>
        <time>2015-03-08T10:46:46Z</time>
      </trkpt>
      <trkpt lat="46.351130" lon="23.898096">
        <ele>402.451</ele>
        <time>2015-03-08T10:46:56Z</time>
      </trkpt>
      <trkpt lat="46.351066" lon="23.898006">
        <ele>403.011</ele>
        <time>2015-03-08T10:47:28Z</time>
      </trkpt>
      <trkpt lat="46.351036" lon="23.897896">
        <ele>403.664</ele>
        <time>2015-03-08T10:49:23Z</time>
      </trkpt>
      <trkpt lat="46.350955" lon="23.897858">
        <ele>404.306</ele>
        <time>2015-03-08T10:49:35Z</time>
      </trkpt>
      <trkpt lat="46.350860" lon="23.897821">
        <ele>404.516</ele>
        <time>2015-03-08T10:49:59Z</time>
      </trkpt>
      <trkpt lat="46.350793" lon="23.897734">
        <ele>404.608</ele>
        <time>2015-03-08T10:50:10Z</time>
      </trkpt>
      <trkpt lat="46.350738" lon="23.897645">
        <ele>404.867</ele>
        <time>2015-03-08T10:50:22Z</time>
      </trkpt>
      <trkpt lat="46.350680" lon="23.897555">
        <ele>405.673</ele>
        <time>2015-03-08T10:50:32Z</time>
      </trkpt>
      <trkpt lat="46.350611" lon="23.897478">
        <ele>406.386</ele>
        <time>2015-03-08T10:50:41Z</time>
      </trkpt>
      <trkpt lat="46.350561" lon="23.897381">
        <ele>406.995</ele>
        <time>2015-03-08T10:50:51Z</time>
      </trkpt>
      <trkpt lat="46.350520" lon="23.897276">
        <ele>407.573</ele>
        <time>2015-03-08T10:51:00Z</time>
      </trkpt>
      <trkpt lat="46.350460" lon="23.897184">
        <ele>408.256</ele>
        <time>2015-03-08T10:51:16Z</time>
      </trkpt>
      <trkpt lat="46.350405" lon="23.897096">
        <ele>408.868</ele>
        <time>2015-03-08T10:51:39Z</time>
      </trkpt>
      <trkpt lat="46.350338" lon="23.897013">
        <ele>409.528</ele>
        <time>2015-03-08T10:51:49Z</time>
      </trkpt>
      <trkpt lat="46.350273" lon="23.896931">
        <ele>410.156</ele>
        <time>2015-03-08T10:51:59Z</time>
      </trkpt>
      <trkpt lat="46.350211" lon="23.896850">
        <ele>410.759</ele>
        <time>2015-03-08T10:52:29Z</time>
      </trkpt>
      <trkpt lat="46.350146" lon="23.896771">
        <ele>411.414</ele>
        <time>2015-03-08T10:52:51Z</time>
      </trkpt>
      <trkpt lat="46.350078" lon="23.896688">
        <ele>412.008</ele>
        <time>2015-03-08T10:53:09Z</time>
      </trkpt>
      <trkpt lat="46.349998" lon="23.896625">
        <ele>411.486</ele>
        <time>2015-03-08T10:54:13Z</time>
      </trkpt>
      <trkpt lat="46.349926" lon="23.896568">
        <ele>410.792</ele>
        <time>2015-03-08T10:54:22Z</time>
      </trkpt>
      <trkpt lat="46.349858" lon="23.896490">
        <ele>410.825</ele>
        <time>2015-03-08T10:54:32Z</time>
      </trkpt>
      <trkpt lat="46.349798" lon="23.896401">
        <ele>410.914</ele>
        <time>2015-03-08T10:54:42Z</time>
      </trkpt>
      <trkpt lat="46.349726" lon="23.896336">
        <ele>411.062</ele>
        <time>2015-03-08T10:55:10Z</time>
      </trkpt>
      <trkpt lat="46.349688" lon="23.896220">
        <ele>411.195</ele>
        <time>2015-03-08T10:55:19Z</time>
      </trkpt>
      <trkpt lat="46.349646" lon="23.896116">
        <ele>411.257</ele>
        <time>2015-03-08T10:55:28Z</time>
      </trkpt>
      <trkpt lat="46.349606" lon="23.896013">
        <ele>411.417</ele>
        <time>2015-03-08T10:55:38Z</time>
      </trkpt>
      <trkpt lat="46.349558" lon="23.895905">
        <ele>411.534</ele>
        <time>2015-03-08T10:55:49Z</time>
      </trkpt>
      <trkpt lat="46.349506" lon="23.895801">
        <ele>411.755</ele>
        <time>2015-03-08T10:55:57Z</time>
      </trkpt>
      <trkpt lat="46.349460" lon="23.895705">
        <ele>411.910</ele>
        <time>2015-03-08T10:56:05Z</time>
      </trkpt>
      <trkpt lat="46.349421" lon="23.895601">
        <ele>412.708</ele>
        <time>2015-03-08T10:56:14Z</time>
      </trkpt>
      <trkpt lat="46.349370" lon="23.895494">
        <ele>413.594</ele>
        <time>2015-03-08T10:56:25Z</time>
      </trkpt>
      <trkpt lat="46.349340" lon="23.895378">
        <ele>413.640</ele>
        <time>2015-03-08T10:56:34Z</time>
      </trkpt>
      <trkpt lat="46.349313" lon="23.895265">
        <ele>413.773</ele>
        <time>2015-03-08T10:56:43Z</time>
      </trkpt>
      <trkpt lat="46.349284" lon="23.895136">
        <ele>413.822</ele>
        <time>2015-03-08T10:56:51Z</time>
      </trkpt>
      <trkpt lat="46.349268" lon="23.895014">
        <ele>413.930</ele>
        <time>2015-03-08T10:57:02Z</time>
      </trkpt>
      <trkpt lat="46.349239" lon="23.894901">
        <ele>414.053</ele>
        <time>2015-03-08T10:57:19Z</time>
      </trkpt>
      <trkpt lat="46.349196" lon="23.894791">
        <ele>414.045</ele>
        <time>2015-03-08T10:57:27Z</time>
      </trkpt>
      <trkpt lat="46.349143" lon="23.894690">
        <ele>414.095</ele>
        <time>2015-03-08T10:57:37Z</time>
      </trkpt>
      <trkpt lat="46.349083" lon="23.894594">
        <ele>414.087</ele>
        <time>2015-03-08T10:57:46Z</time>
      </trkpt>
      <trkpt lat="46.349038" lon="23.894496">
        <ele>414.242</ele>
        <time>2015-03-08T10:57:54Z</time>
      </trkpt>
      <trkpt lat="46.348988" lon="23.894381">
        <ele>414.626</ele>
        <time>2015-03-08T10:58:03Z</time>
      </trkpt>
      <trkpt lat="46.348935" lon="23.894280">
        <ele>415.108</ele>
        <time>2015-03-08T10:58:12Z</time>
      </trkpt>
      <trkpt lat="46.348893" lon="23.894175">
        <ele>415.559</ele>
        <time>2015-03-08T10:58:20Z</time>
      </trkpt>
      <trkpt lat="46.348836" lon="23.894068">
        <ele>416.045</ele>
        <time>2015-03-08T10:58:29Z</time>
      </trkpt>
      <trkpt lat="46.348798" lon="23.893961">
        <ele>416.598</ele>
        <time>2015-03-08T10:58:36Z</time>
      </trkpt>
      <trkpt lat="46.348755" lon="23.893848">
        <ele>416.917</ele>
        <time>2015-03-08T10:58:46Z</time>
      </trkpt>
      <trkpt lat="46.348711" lon="23.893740">
        <ele>417.455</ele>
        <time>2015-03-08T10:58:55Z</time>
      </trkpt>
      <trkpt lat="46.348656" lon="23.893645">
        <ele>417.848</ele>
        <time>2015-03-08T10:59:05Z</time>
      </trkpt>
      <trkpt lat="46.348593" lon="23.893563">
        <ele>418.320</ele>
        <time>2015-03-08T10:59:14Z</time>
      </trkpt>
      <trkpt lat="46.348516" lon="23.893498">
        <ele>418.790</ele>
        <time>2015-03-08T10:59:22Z</time>
      </trkpt>
      <trkpt lat="46.348456" lon="23.893404">
        <ele>419.085</ele>
        <time>2015-03-08T10:59:33Z</time>
      </trkpt>
      <trkpt lat="46.348373" lon="23.893336">
        <ele>419.089</ele>
        <time>2015-03-08T11:00:00Z</time>
      </trkpt>
      <trkpt lat="46.348326" lon="23.893236">
        <ele>419.017</ele>
        <time>2015-03-08T11:00:10Z</time>
      </trkpt>
      <trkpt lat="46.348255" lon="23.893178">
        <ele>419.008</ele>
        <time>2015-03-08T11:00:19Z</time>
      </trkpt>
      <trkpt lat="46.348180" lon="23.893125">
        <ele>419.089</ele>
        <time>2015-03-08T11:00:26Z</time>
      </trkpt>
      <trkpt lat="46.348100" lon="23.893106">
        <ele>419.095</ele>
        <time>2015-03-08T11:00:38Z</time>
      </trkpt>
      <trkpt lat="46.348023" lon="23.893054">
        <ele>419.028</ele>
        <time>2015-03-08T11:00:46Z</time>
      </trkpt>
      <trkpt lat="46.347938" lon="23.893036">
        <ele>419.027</ele>
        <time>2015-03-08T11:00:54Z</time>
      </trkpt>
      <trkpt lat="46.347865" lon="23.892978">
        <ele>419.055</ele>
        <time>2015-03-08T11:01:05Z</time>
      </trkpt>
      <trkpt lat="46.347798" lon="23.892903">
        <ele>419.048</ele>
        <time>2015-03-08T11:01:15Z</time>
      </trkpt>
      <trkpt lat="46.347721" lon="23.892861">
        <ele>419.030</ele>
        <time>2015-03-08T11:01:24Z</time>
      </trkpt>
      <trkpt lat="46.347653" lon="23.892783">
        <ele>419.040</ele>
        <time>2015-03-08T11:01:35Z</time>
      </trkpt>
      <trkpt lat="46.347580" lon="23.892710">
        <ele>419.011</ele>
        <time>2015-03-08T11:01:44Z</time>
      </trkpt>
      <trkpt lat="46.347506" lon="23.892646">
        <ele>419.021</ele>
        <time>2015-03-08T11:01:53Z</time>
      </trkpt>
      <trkpt lat="46.347443" lon="23.892561">
        <ele>419.003</ele>
        <time>2015-03-08T11:02:04Z</time>
      </trkpt>
      <trkpt lat="46.347378" lon="23.892481">
        <ele>419.308</ele>
        <time>2015-03-08T11:02:13Z</time>
      </trkpt>
      <trkpt lat="46.347314" lon="23.892391">
        <ele>419.512</ele>
        <time>2015-03-08T11:02:22Z</time>
      </trkpt>
      <trkpt lat="46.347248" lon="23.892305">
        <ele>419.748</ele>
        <time>2015-03-08T11:02:35Z</time>
      </trkpt>
      <trkpt lat="46.347175" lon="23.892253">
        <ele>419.981</ele>
        <time>2015-03-08T11:02:44Z</time>
      </trkpt>
      <trkpt lat="46.347101" lon="23.892203">
        <ele>420.160</ele>
        <time>2015-03-08T11:02:51Z</time>
      </trkpt>
      <trkpt lat="46.347021" lon="23.892156">
        <ele>420.398</ele>
        <time>2015-03-08T11:03:01Z</time>
      </trkpt>
      <trkpt lat="46.346940" lon="23.892123">
        <ele>420.591</ele>
        <time>2015-03-08T11:03:09Z</time>
      </trkpt>
      <trkpt lat="46.346860" lon="23.892083">
        <ele>420.643</ele>
        <time>2015-03-08T11:03:17Z</time>
      </trkpt>
      <trkpt lat="46.346778" lon="23.892043">
        <ele>420.813</ele>
        <time>2015-03-08T11:03:25Z</time>
      </trkpt>
      <trkpt lat="46.346698" lon="23.892015">
        <ele>421.078</ele>
        <time>2015-03-08T11:03:33Z</time>
      </trkpt>
      <trkpt lat="46.346613" lon="23.891978">
        <ele>421.133</ele>
        <time>2015-03-08T11:03:42Z</time>
      </trkpt>
      <trkpt lat="46.346530" lon="23.891940">
        <ele>420.926</ele>
        <time>2015-03-08T11:03:52Z</time>
      </trkpt>
      <trkpt lat="46.346458" lon="23.891883">
        <ele>420.708</ele>
        <time>2015-03-08T11:04:02Z</time>
      </trkpt>
      <trkpt lat="46.346380" lon="23.891844">
        <ele>420.638</ele>
        <time>2015-03-08T11:04:14Z</time>
      </trkpt>
      <trkpt lat="46.346298" lon="23.891851">
        <ele>420.584</ele>
        <time>2015-03-08T11:06:08Z</time>
      </trkpt>
      <trkpt lat="46.346215" lon="23.891844">
        <ele>420.587</ele>
        <time>2015-03-08T11:06:47Z</time>
      </trkpt>
      <trkpt lat="46.346133" lon="23.891820">
        <ele>420.456</ele>
        <time>2015-03-08T11:06:59Z</time>
      </trkpt>
      <trkpt lat="46.346053" lon="23.891801">
        <ele>420.344</ele>
        <time>2015-03-08T11:07:08Z</time>
      </trkpt>
      <trkpt lat="46.345964" lon="23.891788">
        <ele>420.287</ele>
        <time>2015-03-08T11:07:30Z</time>
      </trkpt>
      <trkpt lat="46.345874" lon="23.891769">
        <ele>420.189</ele>
        <time>2015-03-08T11:07:40Z</time>
      </trkpt>
      <trkpt lat="46.345794" lon="23.891728">
        <ele>420.119</ele>
        <time>2015-03-08T11:07:49Z</time>
      </trkpt>
      <trkpt lat="46.345711" lon="23.891708">
        <ele>420.223</ele>
        <time>2015-03-08T11:08:00Z</time>
      </trkpt>
      <trkpt lat="46.345626" lon="23.891723">
        <ele>420.383</ele>
        <time>2015-03-08T11:08:12Z</time>
      </trkpt>
      <trkpt lat="46.345543" lon="23.891721">
        <ele>420.411</ele>
        <time>2015-03-08T11:08:23Z</time>
      </trkpt>
      <trkpt lat="46.345461" lon="23.891728">
        <ele>420.508</ele>
        <time>2015-03-08T11:08:33Z</time>
      </trkpt>
      <trkpt lat="46.345378" lon="23.891768">
        <ele>420.543</ele>
        <time>2015-03-08T11:08:44Z</time>
      </trkpt>
      <trkpt lat="46.345299" lon="23.891798">
        <ele>420.619</ele>
        <time>2015-03-08T11:08:53Z</time>
      </trkpt>
      <trkpt lat="46.345216" lon="23.891844">
        <ele>420.752</ele>
        <time>2015-03-08T11:09:05Z</time>
      </trkpt>
      <trkpt lat="46.345140" lon="23.891893">
        <ele>420.811</ele>
        <time>2015-03-08T11:10:14Z</time>
      </trkpt>
      <trkpt lat="46.345056" lon="23.891910">
        <ele>420.969</ele>
        <time>2015-03-08T11:10:26Z</time>
      </trkpt>
      <trkpt lat="46.344968" lon="23.891925">
        <ele>421.292</ele>
        <time>2015-03-08T11:10:37Z</time>
      </trkpt>
      <trkpt lat="46.344885" lon="23.891919">
        <ele>421.474</ele>
        <time>2015-03-08T11:10:48Z</time>
      </trkpt>
      <trkpt lat="46.344798" lon="23.891894">
        <ele>421.534</ele>
        <time>2015-03-08T11:12:20Z</time>
      </trkpt>
      <trkpt lat="46.344713" lon="23.891901">
        <ele>421.777</ele>
        <time>2015-03-08T11:12:34Z</time>
      </trkpt>
      <trkpt lat="46.344628" lon="23.891866">
        <ele>421.961</ele>
        <time>2015-03-08T11:12:46Z</time>
      </trkpt>
      <trkpt lat="46.344543" lon="23.891844">
        <ele>422.127</ele>
        <time>2015-03-08T11:12:56Z</time>
      </trkpt>
      <trkpt lat="46.344456" lon="23.891876">
        <ele>422.308</ele>
        <time>2015-03-08T11:13:07Z</time>
      </trkpt>
      <trkpt lat="46.344376" lon="23.891896">
        <ele>422.578</ele>
        <time>2015-03-08T11:14:21Z</time>
      </trkpt>
      <trkpt lat="46.344303" lon="23.891958">
        <ele>422.664</ele>
        <time>2015-03-08T11:14:29Z</time>
      </trkpt>
      <trkpt lat="46.344219" lon="23.891991">
        <ele>422.847</ele>
        <time>2015-03-08T11:14:38Z</time>
      </trkpt>
      <trkpt lat="46.344138" lon="23.891973">
        <ele>423.336</ele>
        <time>2015-03-08T11:14:52Z</time>
      </trkpt>
      <trkpt lat="46.344055" lon="23.891943">
        <ele>423.534</ele>
        <time>2015-03-08T11:15:04Z</time>
      </trkpt>
      <trkpt lat="46.343976" lon="23.891911">
        <ele>423.867</ele>
        <time>2015-03-08T11:15:14Z</time>
      </trkpt>
      <trkpt lat="46.343896" lon="23.891878">
        <ele>424.129</ele>
        <time>2015-03-08T11:15:22Z</time>
      </trkpt>
      <trkpt lat="46.343810" lon="23.891833">
        <ele>424.489</ele>
        <time>2015-03-08T11:15:32Z</time>
      </trkpt>
      <trkpt lat="46.343741" lon="23.891759">
        <ele>424.693</ele>
        <time>2015-03-08T11:16:03Z</time>
      </trkpt>
      <trkpt lat="46.343656" lon="23.891723">
        <ele>424.965</ele>
        <time>2015-03-08T11:16:43Z</time>
      </trkpt>
      <trkpt lat="46.343576" lon="23.891688">
        <ele>425.221</ele>
        <time>2015-03-08T11:16:50Z</time>
      </trkpt>
      <trkpt lat="46.343511" lon="23.891600">
        <ele>425.508</ele>
        <time>2015-03-08T11:16:59Z</time>
      </trkpt>
      <trkpt lat="46.343448" lon="23.891521">
        <ele>424.960</ele>
        <time>2015-03-08T11:17:07Z</time>
      </trkpt>
      <trkpt lat="46.343396" lon="23.891421">
        <ele>424.496</ele>
        <time>2015-03-08T11:17:17Z</time>
      </trkpt>
      <trkpt lat="46.343323" lon="23.891351">
        <ele>424.929</ele>
        <time>2015-03-08T11:17:27Z</time>
      </trkpt>
      <trkpt lat="46.343238" lon="23.891316">
        <ele>425.568</ele>
        <time>2015-03-08T11:17:37Z</time>
      </trkpt>
      <trkpt lat="46.343150" lon="23.891305">
        <ele>426.036</ele>
        <time>2015-03-08T11:17:48Z</time>
      </trkpt>
      <trkpt lat="46.343061" lon="23.891258">
        <ele>426.539</ele>
        <time>2015-03-08T11:18:04Z</time>
      </trkpt>
      <trkpt lat="46.342983" lon="23.891223">
        <ele>427.111</ele>
        <time>2015-03-08T11:18:15Z</time>
      </trkpt>
      <trkpt lat="46.342898" lon="23.891200">
        <ele>427.611</ele>
        <time>2015-03-08T11:18:24Z</time>
      </trkpt>
      <trkpt lat="46.342815" lon="23.891191">
        <ele>428.224</ele>
        <time>2015-03-08T11:18:34Z</time>
      </trkpt>
      <trkpt lat="46.342728" lon="23.891176">
        <ele>428.704</ele>
        <time>2015-03-08T11:18:47Z</time>
      </trkpt>
      <trkpt lat="46.342638" lon="23.891160">
        <ele>429.314</ele>
        <time>2015-03-08T11:18:57Z</time>
      </trkpt>
      <trkpt lat="46.342556" lon="23.891148">
        <ele>430.608</ele>
        <time>2015-03-08T11:19:09Z</time>
      </trkpt>
      <trkpt lat="46.342471" lon="23.891131">
        <ele>432.713</ele>
        <time>2015-03-08T11:19:23Z</time>
      </trkpt>
      <trkpt lat="46.342388" lon="23.891091">
        <ele>433.559</ele>
        <time>2015-03-08T11:19:40Z</time>
      </trkpt>
      <trkpt lat="46.342308" lon="23.891061">
        <ele>434.272</ele>
        <time>2015-03-08T11:19:51Z</time>
      </trkpt>
      <trkpt lat="46.342226" lon="23.891058">
        <ele>434.971</ele>
        <time>2015-03-08T11:20:09Z</time>
      </trkpt>
      <trkpt lat="46.342144" lon="23.891051">
        <ele>435.659</ele>
        <time>2015-03-08T11:20:54Z</time>
      </trkpt>
      <trkpt lat="46.342073" lon="23.890981">
        <ele>436.412</ele>
        <time>2015-03-08T11:21:07Z</time>
      </trkpt>
      <trkpt lat="46.342009" lon="23.890906">
        <ele>437.154</ele>
        <time>2015-03-08T11:24:54Z</time>
      </trkpt>
      <trkpt lat="46.341930" lon="23.890946">
        <ele>437.864</ele>
        <time>2015-03-08T11:27:11Z</time>
      </trkpt>
      <trkpt lat="46.341841" lon="23.890926">
        <ele>438.519</ele>
        <time>2015-03-08T11:27:19Z</time>
      </trkpt>
      <trkpt lat="46.341773" lon="23.890856">
        <ele>439.309</ele>
        <time>2015-03-08T11:27:28Z</time>
      </trkpt>
      <trkpt lat="46.341710" lon="23.890775">
        <ele>440.019</ele>
        <time>2015-03-08T11:28:06Z</time>
      </trkpt>
      <trkpt lat="46.341635" lon="23.890726">
        <ele>440.508</ele>
        <time>2015-03-08T11:28:25Z</time>
      </trkpt>
      <trkpt lat="46.341555" lon="23.890746">
        <ele>441.142</ele>
        <time>2015-03-08T11:28:34Z</time>
      </trkpt>
      <trkpt lat="46.341476" lon="23.890776">
        <ele>441.698</ele>
        <time>2015-03-08T11:28:46Z</time>
      </trkpt>
      <trkpt lat="46.341393" lon="23.890748">
        <ele>442.291</ele>
        <time>2015-03-08T11:31:13Z</time>
      </trkpt>
      <trkpt lat="46.341321" lon="23.890683">
        <ele>442.790</ele>
        <time>2015-03-08T11:31:22Z</time>
      </trkpt>
      <trkpt lat="46.341235" lon="23.890658">
        <ele>443.388</ele>
        <time>2015-03-08T11:31:33Z</time>
      </trkpt>
      <trkpt lat="46.341150" lon="23.890636">
        <ele>443.871</ele>
        <time>2015-03-08T11:31:44Z</time>
      </trkpt>
      <trkpt lat="46.341068" lon="23.890610">
        <ele>444.423</ele>
        <time>2015-03-08T11:31:56Z</time>
      </trkpt>
      <trkpt lat="46.340985" lon="23.890570">
        <ele>444.813</ele>
        <time>2015-03-08T11:32:18Z</time>
      </trkpt>
      <trkpt lat="46.340901" lon="23.890559">
        <ele>445.363</ele>
        <time>2015-03-08T11:32:57Z</time>
      </trkpt>
      <trkpt lat="46.340818" lon="23.890576">
        <ele>446.544</ele>
        <time>2015-03-08T11:33:08Z</time>
      </trkpt>
      <trkpt lat="46.340740" lon="23.890541">
        <ele>447.118</ele>
        <time>2015-03-08T11:33:18Z</time>
      </trkpt>
      <trkpt lat="46.340663" lon="23.890481">
        <ele>447.708</ele>
        <time>2015-03-08T11:33:29Z</time>
      </trkpt>
      <trkpt lat="46.340590" lon="23.890423">
        <ele>448.447</ele>
        <time>2015-03-08T11:33:38Z</time>
      </trkpt>
      <trkpt lat="46.340516" lon="23.890348">
        <ele>449.033</ele>
        <time>2015-03-08T11:33:47Z</time>
      </trkpt>
      <trkpt lat="46.340440" lon="23.890283">
        <ele>449.676</ele>
        <time>2015-03-08T11:33:57Z</time>
      </trkpt>
      <trkpt lat="46.340360" lon="23.890235">
        <ele>450.325</ele>
        <time>2015-03-08T11:34:07Z</time>
      </trkpt>
      <trkpt lat="46.340281" lon="23.890173">
        <ele>450.943</ele>
        <time>2015-03-08T11:34:16Z</time>
      </trkpt>
      <trkpt lat="46.340215" lon="23.890103">
        <ele>451.556</ele>
        <time>2015-03-08T11:34:24Z</time>
      </trkpt>
      <trkpt lat="46.340131" lon="23.890066">
        <ele>452.398</ele>
        <time>2015-03-08T11:34:34Z</time>
      </trkpt>
      <trkpt lat="46.340050" lon="23.890073">
        <ele>453.078</ele>
        <time>2015-03-08T11:34:49Z</time>
      </trkpt>
      <trkpt lat="46.339969" lon="23.890040">
        <ele>453.627</ele>
        <time>2015-03-08T11:35:01Z</time>
      </trkpt>
      <trkpt lat="46.339883" lon="23.890041">
        <ele>454.368</ele>
        <time>2015-03-08T11:35:12Z</time>
      </trkpt>
      <trkpt lat="46.339798" lon="23.890030">
        <ele>454.914</ele>
        <time>2015-03-08T11:35:24Z</time>
      </trkpt>
      <trkpt lat="46.339718" lon="23.889986">
        <ele>455.508</ele>
        <time>2015-03-08T11:35:34Z</time>
      </trkpt>
      <trkpt lat="46.339636" lon="23.889965">
        <ele>456.213</ele>
        <time>2015-03-08T11:35:45Z</time>
      </trkpt>
      <trkpt lat="46.339518" lon="23.889951">
        <ele>456.869</ele>
        <time>2015-03-08T11:36:04Z</time>
      </trkpt>
      <trkpt lat="46.339433" lon="23.889926">
        <ele>457.582</ele>
        <time>2015-03-08T11:36:15Z</time>
      </trkpt>
      <trkpt lat="46.339346" lon="23.889916">
        <ele>458.171</ele>
        <time>2015-03-08T11:36:28Z</time>
      </trkpt>
      <trkpt lat="46.339264" lon="23.889933">
        <ele>458.769</ele>
        <time>2015-03-08T11:36:38Z</time>
      </trkpt>
      <trkpt lat="46.339181" lon="23.889938">
        <ele>459.662</ele>
        <time>2015-03-08T11:36:52Z</time>
      </trkpt>
      <trkpt lat="46.339105" lon="23.889978">
        <ele>460.514</ele>
        <time>2015-03-08T11:41:07Z</time>
      </trkpt>
      <trkpt lat="46.339023" lon="23.889929">
        <ele>460.884</ele>
        <time>2015-03-08T11:41:17Z</time>
      </trkpt>
      <trkpt lat="46.338943" lon="23.889891">
        <ele>461.777</ele>
        <time>2015-03-08T11:41:26Z</time>
      </trkpt>
      <trkpt lat="46.338861" lon="23.889841">
        <ele>462.661</ele>
        <time>2015-03-08T11:41:36Z</time>
      </trkpt>
      <trkpt lat="46.338785" lon="23.889778">
        <ele>463.527</ele>
        <time>2015-03-08T11:41:48Z</time>
      </trkpt>
      <trkpt lat="46.338706" lon="23.889716">
        <ele>464.508</ele>
        <time>2015-03-08T11:42:00Z</time>
      </trkpt>
      <trkpt lat="46.338626" lon="23.889691">
        <ele>465.428</ele>
        <time>2015-03-08T11:42:09Z</time>
      </trkpt>
      <trkpt lat="46.338561" lon="23.889618">
        <ele>466.384</ele>
        <time>2015-03-08T11:42:16Z</time>
      </trkpt>
      <trkpt lat="46.338488" lon="23.889565">
        <ele>467.257</ele>
        <time>2015-03-08T11:42:26Z</time>
      </trkpt>
      <trkpt lat="46.338408" lon="23.889545">
        <ele>468.156</ele>
        <time>2015-03-08T11:42:36Z</time>
      </trkpt>
      <trkpt lat="46.338321" lon="23.889565">
        <ele>470.964</ele>
        <time>2015-03-08T11:43:12Z</time>
      </trkpt>
      <trkpt lat="46.338246" lon="23.889501">
        <ele>473.727</ele>
        <time>2015-03-08T11:43:23Z</time>
      </trkpt>
      <trkpt lat="46.338181" lon="23.889431">
        <ele>476.599</ele>
        <time>2015-03-08T11:43:37Z</time>
      </trkpt>
      <trkpt lat="46.338101" lon="23.889383">
        <ele>478.739</ele>
        <time>2015-03-08T11:43:49Z</time>
      </trkpt>
      <trkpt lat="46.338016" lon="23.889361">
        <ele>480.984</ele>
        <time>2015-03-08T11:44:03Z</time>
      </trkpt>
      <trkpt lat="46.337933" lon="23.889318">
        <ele>483.107</ele>
        <time>2015-03-08T11:44:38Z</time>
      </trkpt>
      <trkpt lat="46.337863" lon="23.889250">
        <ele>485.317</ele>
        <time>2015-03-08T11:44:51Z</time>
      </trkpt>
      <trkpt lat="46.337765" lon="23.889213">
        <ele>487.508</ele>
        <time>2015-03-08T11:45:30Z</time>
      </trkpt>
      <trkpt lat="46.337671" lon="23.889240">
        <ele>489.699</ele>
        <time>2015-03-08T11:45:56Z</time>
      </trkpt>
      <trkpt lat="46.337598" lon="23.889175">
        <ele>491.835</ele>
        <time>2015-03-08T11:46:10Z</time>
      </trkpt>
      <trkpt lat="46.337518" lon="23.889115">
        <ele>494.088</ele>
        <time>2015-03-08T11:46:24Z</time>
      </trkpt>
      <trkpt lat="46.337416" lon="23.889038">
        <ele>495.177</ele>
        <time>2015-03-08T11:46:51Z</time>
      </trkpt>
      <trkpt lat="46.337338" lon="23.888993">
        <ele>496.295</ele>
        <time>2015-03-08T11:47:24Z</time>
      </trkpt>
      <trkpt lat="46.337264" lon="23.888928">
        <ele>497.398</ele>
        <time>2015-03-08T11:47:44Z</time>
      </trkpt>
      <trkpt lat="46.337200" lon="23.888856">
        <ele>498.420</ele>
        <time>2015-03-08T11:48:06Z</time>
      </trkpt>
      <trkpt lat="46.337126" lon="23.888806">
        <ele>499.520</ele>
        <time>2015-03-08T11:48:25Z</time>
      </trkpt>
      <trkpt lat="46.337063" lon="23.888725">
        <ele>500.553</ele>
        <time>2015-03-08T11:48:41Z</time>
      </trkpt>
      <trkpt lat="46.337015" lon="23.888595">
        <ele>501.604</ele>
        <time>2015-03-08T11:49:27Z</time>
      </trkpt>
      <trkpt lat="46.336966" lon="23.888408">
        <ele>502.714</ele>
        <time>2015-03-08T11:49:48Z</time>
      </trkpt>
      <trkpt lat="46.336895" lon="23.888329">
        <ele>503.808</ele>
        <time>2015-03-08T11:50:11Z</time>
      </trkpt>
      <trkpt lat="46.336811" lon="23.888328">
        <ele>504.976</ele>
        <time>2015-03-08T11:50:36Z</time>
      </trkpt>
      <trkpt lat="46.336648" lon="23.888318">
        <ele>506.042</ele>
        <time>2015-03-08T11:51:19Z</time>
      </trkpt>
      <trkpt lat="46.336570" lon="23.888353">
        <ele>504.135</ele>
        <time>2015-03-08T11:52:53Z</time>
      </trkpt>
      <trkpt lat="46.336484" lon="23.888385">
        <ele>502.284</ele>
        <time>2015-03-08T11:53:14Z</time>
      </trkpt>
      <trkpt lat="46.336446" lon="23.888543">
        <ele>500.352</ele>
        <time>2015-03-08T11:54:44Z</time>
      </trkpt>
      <trkpt lat="46.336388" lon="23.888671">
        <ele>498.465</ele>
        <time>2015-03-08T11:55:06Z</time>
      </trkpt>
      <trkpt lat="46.336313" lon="23.888723">
        <ele>496.597</ele>
        <time>2015-03-08T11:55:18Z</time>
      </trkpt>
      <trkpt lat="46.336231" lon="23.888726">
        <ele>494.537</ele>
        <time>2015-03-08T11:55:31Z</time>
      </trkpt>
      <trkpt lat="46.336161" lon="23.888791">
        <ele>492.661</ele>
        <time>2015-03-08T11:55:44Z</time>
      </trkpt>
      <trkpt lat="46.336086" lon="23.888875">
        <ele>490.721</ele>
        <time>2015-03-08T11:56:04Z</time>
      </trkpt>
      <trkpt lat="46.336013" lon="23.888941">
        <ele>488.813</ele>
        <time>2015-03-08T11:56:17Z</time>
      </trkpt>
      <trkpt lat="46.335910" lon="23.889000">
        <ele>486.908</ele>
        <time>2015-03-08T11:56:39Z</time>
      </trkpt>
      <trkpt lat="46.335831" lon="23.889045">
        <ele>485.087</ele>
        <time>2015-03-08T11:56:50Z</time>
      </trkpt>
      <trkpt lat="46.335751" lon="23.889073">
        <ele>485.093</ele>
        <time>2015-03-08T11:57:30Z</time>
      </trkpt>
      <trkpt lat="46.335678" lon="23.889143">
        <ele>485.056</ele>
        <time>2015-03-08T11:57:40Z</time>
      </trkpt>
      <trkpt lat="46.335605" lon="23.889195">
        <ele>485.095</ele>
        <time>2015-03-08T11:57:51Z</time>
      </trkpt>
      <trkpt lat="46.335540" lon="23.889304">
        <ele>483.953</ele>
        <time>2015-03-08T11:58:14Z</time>
      </trkpt>
      <trkpt lat="46.335535" lon="23.889426">
        <ele>482.876</ele>
        <time>2015-03-08T11:58:26Z</time>
      </trkpt>
      <trkpt lat="46.335591" lon="23.889513">
        <ele>481.728</ele>
        <time>2015-03-08T11:58:40Z</time>
      </trkpt>
      <trkpt lat="46.335741" lon="23.889555">
        <ele>480.618</ele>
        <time>2015-03-08T11:59:55Z</time>
      </trkpt>
      <trkpt lat="46.335828" lon="23.889555">
        <ele>479.544</ele>
        <time>2015-03-08T12:00:03Z</time>
      </trkpt>
      <trkpt lat="46.335821" lon="23.889725">
        <ele>478.505</ele>
        <time>2015-03-08T12:00:48Z</time>
      </trkpt>
      <trkpt lat="46.335791" lon="23.889836">
        <ele>477.415</ele>
        <time>2015-03-08T12:01:00Z</time>
      </trkpt>
      <trkpt lat="46.335723" lon="23.889961">
        <ele>473.508</ele>
        <time>2015-03-08T12:01:28Z</time>
      </trkpt>
      <trkpt lat="46.335635" lon="23.890056">
        <ele>469.565</ele>
        <time>2015-03-08T12:01:57Z</time>
      </trkpt>
      <trkpt lat="46.335580" lon="23.890146">
        <ele>465.671</ele>
        <time>2015-03-08T12:02:08Z</time>
      </trkpt>
      <trkpt lat="46.335498" lon="23.890169">
        <ele>461.734</ele>
        <time>2015-03-08T12:02:21Z</time>
      </trkpt>
      <trkpt lat="46.335481" lon="23.890343">
        <ele>458.963</ele>
        <time>2015-03-08T12:03:12Z</time>
      </trkpt>
      <trkpt lat="46.335436" lon="23.890451">
        <ele>456.141</ele>
        <time>2015-03-08T12:03:27Z</time>
      </trkpt>
      <trkpt lat="46.335368" lon="23.890525">
        <ele>453.354</ele>
        <time>2015-03-08T12:03:40Z</time>
      </trkpt>
      <trkpt lat="46.335286" lon="23.890615">
        <ele>450.546</ele>
        <time>2015-03-08T12:04:04Z</time>
      </trkpt>
      <trkpt lat="46.335191" lon="23.890633">
        <ele>447.646</ele>
        <time>2015-03-08T12:04:19Z</time>
      </trkpt>
      <trkpt lat="46.335110" lon="23.890673">
        <ele>444.812</ele>
        <time>2015-03-08T12:04:31Z</time>
      </trkpt>
      <trkpt lat="46.335018" lon="23.890686">
        <ele>442.032</ele>
        <time>2015-03-08T12:04:52Z</time>
      </trkpt>
      <trkpt lat="46.334933" lon="23.890660">
        <ele>442.005</ele>
        <time>2015-03-08T12:05:03Z</time>
      </trkpt>
      <trkpt lat="46.334870" lon="23.890733">
        <ele>440.108</ele>
        <time>2015-03-08T12:05:18Z</time>
      </trkpt>
      <trkpt lat="46.334806" lon="23.890831">
        <ele>438.232</ele>
        <time>2015-03-08T12:06:12Z</time>
      </trkpt>
      <trkpt lat="46.334843" lon="23.890956">
        <ele>436.348</ele>
        <time>2015-03-08T12:06:43Z</time>
      </trkpt>
      <trkpt lat="46.334853" lon="23.891075">
        <ele>433.991</ele>
        <time>2015-03-08T12:07:02Z</time>
      </trkpt>
      <trkpt lat="46.334823" lon="23.891195">
        <ele>431.550</ele>
        <time>2015-03-08T12:07:32Z</time>
      </trkpt>
      <trkpt lat="46.334803" lon="23.891315">
        <ele>429.218</ele>
        <time>2015-03-08T12:07:48Z</time>
      </trkpt>
      <trkpt lat="46.334736" lon="23.891399">
        <ele>426.811</ele>
        <time>2015-03-08T12:08:09Z</time>
      </trkpt>
      <trkpt lat="46.334656" lon="23.891421">
        <ele>424.563</ele>
        <time>2015-03-08T12:08:38Z</time>
      </trkpt>
      <trkpt lat="46.334546" lon="23.891373">
        <ele>422.143</ele>
        <time>2015-03-08T12:08:58Z</time>
      </trkpt>
      <trkpt lat="46.334446" lon="23.891358">
        <ele>419.723</ele>
        <time>2015-03-08T12:09:14Z</time>
      </trkpt>
      <trkpt lat="46.334363" lon="23.891291">
        <ele>417.483</ele>
        <time>2015-03-08T12:09:24Z</time>
      </trkpt>
      <trkpt lat="46.334280" lon="23.891285">
        <ele>416.911</ele>
        <time>2015-03-08T12:09:33Z</time>
      </trkpt>
      <trkpt lat="46.334195" lon="23.891303">
        <ele>416.508</ele>
        <time>2015-03-08T12:10:04Z</time>
      </trkpt>
      <trkpt lat="46.334098" lon="23.891335">
        <ele>416.033</ele>
        <time>2015-03-08T12:10:25Z</time>
      </trkpt>
      <trkpt lat="46.334028" lon="23.891401">
        <ele>416.089</ele>
        <time>2015-03-08T12:10:37Z</time>
      </trkpt>
      <trkpt lat="46.333963" lon="23.891473">
        <ele>416.042</ele>
        <time>2015-03-08T12:12:55Z</time>
      </trkpt>
      <trkpt lat="46.333878" lon="23.891478">
        <ele>415.711</ele>
        <time>2015-03-08T12:14:37Z</time>
      </trkpt>
      <trkpt lat="46.333845" lon="23.891595">
        <ele>415.589</ele>
        <time>2015-03-08T12:14:55Z</time>
      </trkpt>
      <trkpt lat="46.333826" lon="23.891781">
        <ele>415.272</ele>
        <time>2015-03-08T12:15:35Z</time>
      </trkpt>
      <trkpt lat="46.333811" lon="23.891903">
        <ele>414.934</ele>
        <time>2015-03-08T12:15:53Z</time>
      </trkpt>
      <trkpt lat="46.333828" lon="23.892030">
        <ele>414.634</ele>
        <time>2015-03-08T12:16:44Z</time>
      </trkpt>
      <trkpt lat="46.333788" lon="23.892138">
        <ele>414.455</ele>
        <time>2015-03-08T12:17:11Z</time>
      </trkpt>
      <trkpt lat="46.333741" lon="23.892251">
        <ele>414.107</ele>
        <time>2015-03-08T12:18:15Z</time>
      </trkpt>
      <trkpt lat="46.333746" lon="23.892380">
        <ele>413.817</ele>
        <time>2015-03-08T12:18:30Z</time>
      </trkpt>
      <trkpt lat="46.333743" lon="23.892508">
        <ele>412.908</ele>
        <time>2015-03-08T12:18:43Z</time>
      </trkpt>
      <trkpt lat="46.333718" lon="23.892621">
        <ele>412.016</ele>
        <time>2015-03-08T12:18:57Z</time>
      </trkpt>
      <trkpt lat="46.333690" lon="23.892765">
        <ele>411.192</ele>
        <time>2015-03-08T12:19:19Z</time>
      </trkpt>
      <trkpt lat="46.333663" lon="23.892883">
        <ele>410.535</ele>
        <time>2015-03-08T12:19:27Z</time>
      </trkpt>
      <trkpt lat="46.333646" lon="23.893001">
        <ele>409.824</ele>
        <time>2015-03-08T12:19:35Z</time>
      </trkpt>
      <trkpt lat="46.333626" lon="23.893128">
        <ele>409.292</ele>
        <time>2015-03-08T12:19:45Z</time>
      </trkpt>
      <trkpt lat="46.333601" lon="23.893251">
        <ele>408.575</ele>
        <time>2015-03-08T12:22:16Z</time>
      </trkpt>
      <trkpt lat="46.333549" lon="23.893359">
        <ele>407.347</ele>
        <time>2015-03-08T12:22:23Z</time>
      </trkpt>
      <trkpt lat="46.333506" lon="23.893463">
        <ele>406.097</ele>
        <time>2015-03-08T12:22:30Z</time>
      </trkpt>
      <trkpt lat="46.333483" lon="23.893578">
        <ele>404.736</ele>
        <time>2015-03-08T12:22:37Z</time>
      </trkpt>
      <trkpt lat="46.333438" lon="23.893678">
        <ele>403.517</ele>
        <time>2015-03-08T12:22:46Z</time>
      </trkpt>
      <trkpt lat="46.333391" lon="23.893788">
        <ele>402.818</ele>
        <time>2015-03-08T12:22:55Z</time>
      </trkpt>
      <trkpt lat="46.333355" lon="23.893901">
        <ele>402.208</ele>
        <time>2015-03-08T12:23:04Z</time>
      </trkpt>
      <trkpt lat="46.333326" lon="23.894011">
        <ele>401.554</ele>
        <time>2015-03-08T12:23:12Z</time>
      </trkpt>
      <trkpt lat="46.333278" lon="23.894119">
        <ele>400.010</ele>
        <time>2015-03-08T12:23:22Z</time>
      </trkpt>
      <trkpt lat="46.333260" lon="23.894238">
        <ele>398.543</ele>
        <time>2015-03-08T12:23:31Z</time>
      </trkpt>
      <trkpt lat="46.333223" lon="23.894351">
        <ele>396.912</ele>
        <time>2015-03-08T12:23:40Z</time>
      </trkpt>
      <trkpt lat="46.333196" lon="23.894463">
        <ele>395.440</ele>
        <time>2015-03-08T12:24:14Z</time>
      </trkpt>
      <trkpt lat="46.333156" lon="23.894579">
        <ele>394.563</ele>
        <time>2015-03-08T12:24:31Z</time>
      </trkpt>
      <trkpt lat="46.333111" lon="23.894690">
        <ele>395.445</ele>
        <time>2015-03-08T12:24:40Z</time>
      </trkpt>
      <trkpt lat="46.333085" lon="23.894806">
        <ele>396.315</ele>
        <time>2015-03-08T12:24:50Z</time>
      </trkpt>
      <trkpt lat="46.333076" lon="23.894931">
        <ele>397.289</ele>
        <time>2015-03-08T12:24:59Z</time>
      </trkpt>
      <trkpt lat="46.333033" lon="23.895044">
        <ele>396.606</ele>
        <time>2015-03-08T12:25:09Z</time>
      </trkpt>
      <trkpt lat="46.333011" lon="23.895161">
        <ele>396.126</ele>
        <time>2015-03-08T12:25:19Z</time>
      </trkpt>
      <trkpt lat="46.332946" lon="23.895250">
        <ele>395.508</ele>
        <time>2015-03-08T12:25:29Z</time>
      </trkpt>
      <trkpt lat="46.332898" lon="23.895353">
        <ele>395.999</ele>
        <time>2015-03-08T12:25:40Z</time>
      </trkpt>
      <trkpt lat="46.332836" lon="23.895433">
        <ele>396.315</ele>
        <time>2015-03-08T12:25:55Z</time>
      </trkpt>
      <trkpt lat="46.332795" lon="23.895536">
        <ele>396.688</ele>
        <time>2015-03-08T12:26:07Z</time>
      </trkpt>
      <trkpt lat="46.332753" lon="23.895648">
        <ele>397.027</ele>
        <time>2015-03-08T12:26:18Z</time>
      </trkpt>
      <trkpt lat="46.332696" lon="23.895745">
        <ele>397.445</ele>
        <time>2015-03-08T12:26:30Z</time>
      </trkpt>
      <trkpt lat="46.332643" lon="23.895840">
        <ele>395.988</ele>
        <time>2015-03-08T12:26:39Z</time>
      </trkpt>
      <trkpt lat="46.332573" lon="23.895905">
        <ele>392.830</ele>
        <time>2015-03-08T12:26:47Z</time>
      </trkpt>
      <trkpt lat="46.332508" lon="23.895980">
        <ele>389.740</ele>
        <time>2015-03-08T12:26:56Z</time>
      </trkpt>
      <trkpt lat="46.332460" lon="23.896078">
        <ele>388.164</ele>
        <time>2015-03-08T12:27:04Z</time>
      </trkpt>
      <trkpt lat="46.332398" lon="23.896156">
        <ele>386.506</ele>
        <time>2015-03-08T12:27:12Z</time>
      </trkpt>
      <trkpt lat="46.332343" lon="23.896253">
        <ele>386.116</ele>
        <time>2015-03-08T12:27:21Z</time>
      </trkpt>
      <trkpt lat="46.332296" lon="23.896350">
        <ele>385.708</ele>
        <time>2015-03-08T12:27:29Z</time>
      </trkpt>
      <trkpt lat="46.332233" lon="23.896443">
        <ele>385.477</ele>
        <time>2015-03-08T12:27:40Z</time>
      </trkpt>
      <trkpt lat="46.332170" lon="23.896518">
        <ele>385.083</ele>
        <time>2015-03-08T12:27:49Z</time>
      </trkpt>
      <trkpt lat="46.332111" lon="23.896599">
        <ele>384.656</ele>
        <time>2015-03-08T12:27:59Z</time>
      </trkpt>
      <trkpt lat="46.332035" lon="23.896670">
        <ele>384.395</ele>
        <time>2015-03-08T12:28:11Z</time>
      </trkpt>
      <trkpt lat="46.331959" lon="23.896721">
        <ele>383.983</ele>
        <time>2015-03-08T12:28:55Z</time>
      </trkpt>
      <trkpt lat="46.331878" lon="23.896776">
        <ele>384.196</ele>
        <time>2015-03-08T12:29:05Z</time>
      </trkpt>
      <trkpt lat="46.331808" lon="23.896850">
        <ele>384.348</ele>
        <time>2015-03-08T12:29:13Z</time>
      </trkpt>
      <trkpt lat="46.331730" lon="23.896898">
        <ele>384.588</ele>
        <time>2015-03-08T12:29:24Z</time>
      </trkpt>
      <trkpt lat="46.331658" lon="23.896981">
        <ele>384.693</ele>
        <time>2015-03-08T12:29:34Z</time>
      </trkpt>
      <trkpt lat="46.331605" lon="23.897088">
        <ele>383.565</ele>
        <time>2015-03-08T12:29:43Z</time>
      </trkpt>
      <trkpt lat="46.331550" lon="23.897181">
        <ele>383.621</ele>
        <time>2015-03-08T12:29:53Z</time>
      </trkpt>
      <trkpt lat="46.331493" lon="23.897274">
        <ele>383.708</ele>
        <time>2015-03-08T12:30:02Z</time>
      </trkpt>
      <trkpt lat="46.331440" lon="23.897364">
        <ele>383.840</ele>
        <time>2015-03-08T12:30:11Z</time>
      </trkpt>
      <trkpt lat="46.331373" lon="23.897451">
        <ele>383.966</ele>
        <time>2015-03-08T12:30:20Z</time>
      </trkpt>
      <trkpt lat="46.331301" lon="23.897526">
        <ele>384.059</ele>
        <time>2015-03-08T12:30:30Z</time>
      </trkpt>
      <trkpt lat="46.331236" lon="23.897598">
        <ele>383.348</ele>
        <time>2015-03-08T12:30:43Z</time>
      </trkpt>
      <trkpt lat="46.331173" lon="23.897671">
        <ele>383.666</ele>
        <time>2015-03-08T12:30:51Z</time>
      </trkpt>
      <trkpt lat="46.331104" lon="23.897749">
        <ele>384.099</ele>
        <time>2015-03-08T12:31:00Z</time>
      </trkpt>
      <trkpt lat="46.331036" lon="23.897821">
        <ele>384.451</ele>
        <time>2015-03-08T12:31:09Z</time>
      </trkpt>
      <trkpt lat="46.330966" lon="23.897896">
        <ele>384.741</ele>
        <time>2015-03-08T12:31:19Z</time>
      </trkpt>
      <trkpt lat="46.330898" lon="23.897976">
        <ele>385.146</ele>
        <time>2015-03-08T12:31:28Z</time>
      </trkpt>
      <trkpt lat="46.330821" lon="23.898043">
        <ele>384.388</ele>
        <time>2015-03-08T12:31:38Z</time>
      </trkpt>
      <trkpt lat="46.330755" lon="23.898126">
        <ele>385.216</ele>
        <time>2015-03-08T12:31:48Z</time>
      </trkpt>
      <trkpt lat="46.330698" lon="23.898225">
        <ele>386.108</ele>
        <time>2015-03-08T12:31:58Z</time>
      </trkpt>
      <trkpt lat="46.330635" lon="23.898310">
        <ele>387.065</ele>
        <time>2015-03-08T12:32:07Z</time>
      </trkpt>
      <trkpt lat="46.330585" lon="23.898410">
        <ele>387.361</ele>
        <time>2015-03-08T12:36:19Z</time>
      </trkpt>
      <trkpt lat="46.330506" lon="23.898496">
        <ele>388.494</ele>
        <time>2015-03-08T12:36:43Z</time>
      </trkpt>
      <trkpt lat="46.330439" lon="23.898574">
        <ele>389.563</ele>
        <time>2015-03-08T12:36:56Z</time>
      </trkpt>
      <trkpt lat="46.330381" lon="23.898668">
        <ele>390.521</ele>
        <time>2015-03-08T12:37:12Z</time>
      </trkpt>
      <trkpt lat="46.330346" lon="23.898776">
        <ele>391.644</ele>
        <time>2015-03-08T12:37:36Z</time>
      </trkpt>
      <trkpt lat="46.330291" lon="23.898883">
        <ele>392.756</ele>
        <time>2015-03-08T12:37:54Z</time>
      </trkpt>
      <trkpt lat="46.330248" lon="23.898995">
        <ele>393.866</ele>
        <time>2015-03-08T12:38:08Z</time>
      </trkpt>
      <trkpt lat="46.330230" lon="23.899118">
        <ele>394.955</ele>
        <time>2015-03-08T12:38:20Z</time>
      </trkpt>
      <trkpt lat="46.330189" lon="23.899228">
        <ele>394.307</ele>
        <time>2015-03-08T12:38:31Z</time>
      </trkpt>
      <trkpt lat="46.330144" lon="23.899328">
        <ele>393.317</ele>
        <time>2015-03-08T12:38:44Z</time>
      </trkpt>
      <trkpt lat="46.330084" lon="23.899408">
        <ele>392.608</ele>
        <time>2015-03-08T12:39:55Z</time>
      </trkpt>
      <trkpt lat="46.330023" lon="23.899493">
        <ele>392.696</ele>
        <time>2015-03-08T12:40:03Z</time>
      </trkpt>
      <trkpt lat="46.329943" lon="23.899548">
        <ele>392.392</ele>
        <time>2015-03-08T12:40:13Z</time>
      </trkpt>
      <trkpt lat="46.329868" lon="23.899593">
        <ele>392.925</ele>
        <time>2015-03-08T12:40:21Z</time>
      </trkpt>
      <trkpt lat="46.329791" lon="23.899638">
        <ele>393.544</ele>
        <time>2015-03-08T12:40:30Z</time>
      </trkpt>
      <trkpt lat="46.329776" lon="23.899499">
        <ele>394.212</ele>
        <time>2015-03-08T12:41:04Z</time>
      </trkpt>
      <trkpt lat="46.329718" lon="23.899596">
        <ele>394.885</ele>
        <time>2015-03-08T12:45:18Z</time>
      </trkpt>
      <trkpt lat="46.329636" lon="23.899630">
        <ele>395.587</ele>
        <time>2015-03-08T12:45:27Z</time>
      </trkpt>
      <trkpt lat="46.329555" lon="23.899651">
        <ele>396.177</ele>
        <time>2015-03-08T12:45:37Z</time>
      </trkpt>
      <trkpt lat="46.329476" lon="23.899683">
        <ele>396.764</ele>
        <time>2015-03-08T12:45:47Z</time>
      </trkpt>
      <trkpt lat="46.329391" lon="23.899696">
        <ele>397.706</ele>
        <time>2015-03-08T12:45:57Z</time>
      </trkpt>
      <trkpt lat="46.329310" lon="23.899726">
        <ele>398.416</ele>
        <time>2015-03-08T12:46:07Z</time>
      </trkpt>
      <trkpt lat="46.329226" lon="23.899711">
        <ele>399.008</ele>
        <time>2015-03-08T12:46:16Z</time>
      </trkpt>
      <trkpt lat="46.329141" lon="23.899711">
        <ele>400.057</ele>
        <time>2015-03-08T12:46:28Z</time>
      </trkpt>
      <trkpt lat="46.329070" lon="23.899780">
        <ele>400.083</ele>
        <time>2015-03-08T12:46:43Z</time>
      </trkpt>
      <trkpt lat="46.328995" lon="23.899848">
        <ele>401.166</ele>
        <time>2015-03-08T12:46:53Z</time>
      </trkpt>
      <trkpt lat="46.328925" lon="23.899925">
        <ele>402.265</ele>
        <time>2015-03-08T12:47:05Z</time>
      </trkpt>
      <trkpt lat="46.328878" lon="23.900031">
        <ele>403.383</ele>
        <time>2015-03-08T12:47:16Z</time>
      </trkpt>
      <trkpt lat="46.328841" lon="23.900141">
        <ele>404.496</ele>
        <time>2015-03-08T12:47:27Z</time>
      </trkpt>
      <trkpt lat="46.328803" lon="23.900253">
        <ele>405.538</ele>
        <time>2015-03-08T12:47:40Z</time>
      </trkpt>
      <trkpt lat="46.328785" lon="23.900376">
        <ele>406.548</ele>
        <time>2015-03-08T12:47:49Z</time>
      </trkpt>
      <trkpt lat="46.328746" lon="23.900483">
        <ele>407.689</ele>
        <time>2015-03-08T12:48:21Z</time>
      </trkpt>
      <trkpt lat="46.328681" lon="23.900563">
        <ele>408.706</ele>
        <time>2015-03-08T12:48:30Z</time>
      </trkpt>
      <trkpt lat="46.328603" lon="23.900609">
        <ele>409.826</ele>
        <time>2015-03-08T12:48:40Z</time>
      </trkpt>
      <trkpt lat="46.328526" lon="23.900658">
        <ele>410.908</ele>
        <time>2015-03-08T12:48:47Z</time>
      </trkpt>
      <trkpt lat="46.328458" lon="23.900726">
        <ele>412.029</ele>
        <time>2015-03-08T12:48:55Z</time>
      </trkpt>
      <trkpt lat="46.328428" lon="23.900841">
        <ele>412.025</ele>
        <time>2015-03-08T12:49:05Z</time>
      </trkpt>
      <trkpt lat="46.328473" lon="23.900945">
        <ele>411.588</ele>
        <time>2015-03-08T12:49:16Z</time>
      </trkpt>
      <trkpt lat="46.328533" lon="23.901024">
        <ele>410.917</ele>
        <time>2015-03-08T12:49:27Z</time>
      </trkpt>
      <trkpt lat="46.328596" lon="23.901111">
        <ele>410.475</ele>
        <time>2015-03-08T12:49:37Z</time>
      </trkpt>
      <trkpt lat="46.328668" lon="23.901185">
        <ele>409.818</ele>
        <time>2015-03-08T12:49:48Z</time>
      </trkpt>
      <trkpt lat="46.328735" lon="23.901255">
        <ele>409.390</ele>
        <time>2015-03-08T12:49:58Z</time>
      </trkpt>
      <trkpt lat="46.328810" lon="23.901316">
        <ele>408.710</ele>
        <time>2015-03-08T12:50:08Z</time>
      </trkpt>
      <trkpt lat="46.328876" lon="23.901383">
        <ele>408.215</ele>
        <time>2015-03-08T12:50:17Z</time>
      </trkpt>
      <trkpt lat="46.328948" lon="23.901443">
        <ele>407.665</ele>
        <time>2015-03-08T12:50:26Z</time>
      </trkpt>
      <trkpt lat="46.329006" lon="23.901528">
        <ele>407.111</ele>
        <time>2015-03-08T12:50:36Z</time>
      </trkpt>
      <trkpt lat="46.329065" lon="23.901611">
        <ele>406.508</ele>
        <time>2015-03-08T12:50:46Z</time>
      </trkpt>
      <trkpt lat="46.329123" lon="23.901698">
        <ele>406.062</ele>
        <time>2015-03-08T12:50:56Z</time>
      </trkpt>
      <trkpt lat="46.329186" lon="23.901793">
        <ele>406.458</ele>
        <time>2015-03-08T12:51:06Z</time>
      </trkpt>
      <trkpt lat="46.329248" lon="23.901870">
        <ele>406.771</ele>
        <time>2015-03-08T12:51:14Z</time>
      </trkpt>
      <trkpt lat="46.329308" lon="23.901950">
        <ele>405.910</ele>
        <time>2015-03-08T12:51:23Z</time>
      </trkpt>
      <trkpt lat="46.329380" lon="23.902026">
        <ele>405.138</ele>
        <time>2015-03-08T12:51:33Z</time>
      </trkpt>
      <trkpt lat="46.329458" lon="23.902073">
        <ele>404.371</ele>
        <time>2015-03-08T12:51:40Z</time>
      </trkpt>
      <trkpt lat="46.329531" lon="23.902153">
        <ele>403.523</ele>
        <time>2015-03-08T12:51:51Z</time>
      </trkpt>
      <trkpt lat="46.329608" lon="23.902203">
        <ele>402.623</ele>
        <time>2015-03-08T12:51:59Z</time>
      </trkpt>
      <trkpt lat="46.329683" lon="23.902248">
        <ele>401.843</ele>
        <time>2015-03-08T12:52:39Z</time>
      </trkpt>
      <trkpt lat="46.329739" lon="23.902333">
        <ele>401.064</ele>
        <time>2015-03-08T12:52:50Z</time>
      </trkpt>
      <trkpt lat="46.329809" lon="23.902395">
        <ele>400.210</ele>
        <time>2015-03-08T12:53:01Z</time>
      </trkpt>
      <trkpt lat="46.329880" lon="23.902468">
        <ele>399.408</ele>
        <time>2015-03-08T12:53:12Z</time>
      </trkpt>
      <trkpt lat="46.329948" lon="23.902551">
        <ele>398.215</ele>
        <time>2015-03-08T12:53:22Z</time>
      </trkpt>
      <trkpt lat="46.330023" lon="23.902606">
        <ele>397.041</ele>
        <time>2015-03-08T12:53:32Z</time>
      </trkpt>
      <trkpt lat="46.330105" lon="23.902658">
        <ele>396.014</ele>
        <time>2015-03-08T12:53:42Z</time>
      </trkpt>
      <trkpt lat="46.330173" lon="23.902721">
        <ele>395.563</ele>
        <time>2015-03-08T12:53:50Z</time>
      </trkpt>
      <trkpt lat="46.330249" lon="23.902763">
        <ele>395.151</ele>
        <time>2015-03-08T12:53:58Z</time>
      </trkpt>
      <trkpt lat="46.330321" lon="23.902825">
        <ele>394.674</ele>
        <time>2015-03-08T12:54:07Z</time>
      </trkpt>
      <trkpt lat="46.330384" lon="23.902911">
        <ele>394.226</ele>
        <time>2015-03-08T12:54:18Z</time>
      </trkpt>
      <trkpt lat="46.330446" lon="23.903001">
        <ele>393.756</ele>
        <time>2015-03-08T12:54:28Z</time>
      </trkpt>
      <trkpt lat="46.330506" lon="23.903083">
        <ele>393.348</ele>
        <time>2015-03-08T12:54:35Z</time>
      </trkpt>
      <trkpt lat="46.330590" lon="23.903121">
        <ele>392.861</ele>
        <time>2015-03-08T12:54:43Z</time>
      </trkpt>
      <trkpt lat="46.330654" lon="23.903206">
        <ele>392.417</ele>
        <time>2015-03-08T12:54:53Z</time>
      </trkpt>
      <trkpt lat="46.330728" lon="23.903281">
        <ele>391.908</ele>
        <time>2015-03-08T12:55:04Z</time>
      </trkpt>
      <trkpt lat="46.330796" lon="23.903368">
        <ele>391.585</ele>
        <time>2015-03-08T12:55:13Z</time>
      </trkpt>
      <trkpt lat="46.330883" lon="23.903393">
        <ele>391.231</ele>
        <time>2015-03-08T12:55:19Z</time>
      </trkpt>
      <trkpt lat="46.330963" lon="23.903446">
        <ele>390.414</ele>
        <time>2015-03-08T12:55:28Z</time>
      </trkpt>
      <trkpt lat="46.331044" lon="23.903498">
        <ele>389.543</ele>
        <time>2015-03-08T12:55:38Z</time>
      </trkpt>
      <trkpt lat="46.331123" lon="23.903540">
        <ele>388.791</ele>
        <time>2015-03-08T12:55:47Z</time>
      </trkpt>
      <trkpt lat="46.331201" lon="23.903590">
        <ele>387.994</ele>
        <time>2015-03-08T12:55:58Z</time>
      </trkpt>
      <trkpt lat="46.331275" lon="23.903643">
        <ele>387.196</ele>
        <time>2015-03-08T12:56:09Z</time>
      </trkpt>
      <trkpt lat="46.331360" lon="23.903660">
        <ele>386.816</ele>
        <time>2015-03-08T12:56:14Z</time>
      </trkpt>
      <trkpt lat="46.331440" lon="23.903698">
        <ele>386.555</ele>
        <time>2015-03-08T12:56:25Z</time>
      </trkpt>
      <trkpt lat="46.331528" lon="23.903725">
        <ele>386.307</ele>
        <time>2015-03-08T12:56:31Z</time>
      </trkpt>
      <trkpt lat="46.331608" lon="23.903786">
        <ele>386.017</ele>
        <time>2015-03-08T12:56:42Z</time>
      </trkpt>
      <trkpt lat="46.331686" lon="23.903840">
        <ele>385.708</ele>
        <time>2015-03-08T12:56:50Z</time>
      </trkpt>
      <trkpt lat="46.331749" lon="23.903930">
        <ele>386.326</ele>
        <time>2015-03-08T12:57:00Z</time>
      </trkpt>
      <trkpt lat="46.331824" lon="23.903990">
        <ele>385.952</ele>
        <time>2015-03-08T12:57:07Z</time>
      </trkpt>
      <trkpt lat="46.331886" lon="23.904070">
        <ele>385.595</ele>
        <time>2015-03-08T12:57:15Z</time>
      </trkpt>
      <trkpt lat="46.331965" lon="23.904130">
        <ele>385.224</ele>
        <time>2015-03-08T12:57:22Z</time>
      </trkpt>
      <trkpt lat="46.332033" lon="23.904215">
        <ele>384.852</ele>
        <time>2015-03-08T12:57:31Z</time>
      </trkpt>
      <trkpt lat="46.332086" lon="23.904313">
        <ele>384.555</ele>
        <time>2015-03-08T12:57:39Z</time>
      </trkpt>
      <trkpt lat="46.332123" lon="23.904420">
        <ele>383.567</ele>
        <time>2015-03-08T12:57:47Z</time>
      </trkpt>
      <trkpt lat="46.332205" lon="23.904458">
        <ele>382.627</ele>
        <time>2015-03-08T12:57:52Z</time>
      </trkpt>
      <trkpt lat="46.332260" lon="23.904551">
        <ele>381.765</ele>
        <time>2015-03-08T12:58:00Z</time>
      </trkpt>
      <trkpt lat="46.332306" lon="23.904655">
        <ele>380.868</ele>
        <time>2015-03-08T12:58:09Z</time>
      </trkpt>
      <trkpt lat="46.332361" lon="23.904758">
        <ele>379.914</ele>
        <time>2015-03-08T12:58:18Z</time>
      </trkpt>
      <trkpt lat="46.332413" lon="23.904861">
        <ele>379.008</ele>
        <time>2015-03-08T12:58:25Z</time>
      </trkpt>
      <trkpt lat="46.332450" lon="23.904968">
        <ele>379.027</ele>
        <time>2015-03-08T12:58:33Z</time>
      </trkpt>
      <trkpt lat="46.332493" lon="23.905068">
        <ele>379.013</ele>
        <time>2015-03-08T12:58:41Z</time>
      </trkpt>
      <trkpt lat="46.332541" lon="23.905168">
        <ele>379.086</ele>
        <time>2015-03-08T12:58:50Z</time>
      </trkpt>
      <trkpt lat="46.332621" lon="23.905223">
        <ele>378.415</ele>
        <time>2015-03-08T12:59:00Z</time>
      </trkpt>
      <trkpt lat="46.332711" lon="23.905228">
        <ele>377.773</ele>
        <time>2015-03-08T12:59:04Z</time>
      </trkpt>
      <trkpt lat="46.332796" lon="23.905206">
        <ele>377.156</ele>
        <time>2015-03-08T12:59:11Z</time>
      </trkpt>
      <trkpt lat="46.332888" lon="23.905230">
        <ele>376.518</ele>
        <time>2015-03-08T12:59:22Z</time>
      </trkpt>
      <trkpt lat="46.332964" lon="23.905190">
        <ele>375.838</ele>
        <time>2015-03-08T12:59:30Z</time>
      </trkpt>
      <trkpt lat="46.333040" lon="23.905140">
        <ele>375.299</ele>
        <time>2015-03-08T12:59:38Z</time>
      </trkpt>
      <trkpt lat="46.333126" lon="23.905113">
        <ele>374.507</ele>
        <time>2015-03-08T12:59:44Z</time>
      </trkpt>
      <trkpt lat="46.333181" lon="23.905019">
        <ele>373.927</ele>
        <time>2015-03-08T13:00:00Z</time>
      </trkpt>
      <trkpt lat="46.333275" lon="23.905013">
        <ele>373.308</ele>
        <time>2015-03-08T13:00:11Z</time>
      </trkpt>
      <trkpt lat="46.333361" lon="23.905010">
        <ele>372.280</ele>
        <time>2015-03-08T13:00:19Z</time>
      </trkpt>
      <trkpt lat="46.333438" lon="23.904966">
        <ele>371.146</ele>
        <time>2015-03-08T13:00:27Z</time>
      </trkpt>
      <trkpt lat="46.333548" lon="23.904991">
        <ele>370.699</ele>
        <time>2015-03-08T13:00:41Z</time>
      </trkpt>
      <trkpt lat="46.333645" lon="23.905018">
        <ele>370.278</ele>
        <time>2015-03-08T13:00:47Z</time>
      </trkpt>
      <trkpt lat="46.333729" lon="23.905053">
        <ele>369.776</ele>
        <time>2015-03-08T13:00:54Z</time>
      </trkpt>
      <trkpt lat="46.333818" lon="23.905073">
        <ele>369.399</ele>
        <time>2015-03-08T13:01:02Z</time>
      </trkpt>
      <trkpt lat="46.333903" lon="23.905088">
        <ele>368.811</ele>
        <time>2015-03-08T13:01:11Z</time>
      </trkpt>
      <trkpt lat="46.333978" lon="23.905135">
        <ele>368.421</ele>
        <time>2015-03-08T13:01:23Z</time>
      </trkpt>
      <trkpt lat="46.334056" lon="23.905185">
        <ele>367.933</ele>
        <time>2015-03-08T13:01:32Z</time>
      </trkpt>
      <trkpt lat="46.334133" lon="23.905230">
        <ele>368.223</ele>
        <time>2015-03-08T13:01:40Z</time>
      </trkpt>
      <trkpt lat="46.334208" lon="23.905281">
        <ele>368.515</ele>
        <time>2015-03-08T13:01:48Z</time>
      </trkpt>
      <trkpt lat="46.334280" lon="23.905355">
        <ele>368.108</ele>
        <time>2015-03-08T13:01:58Z</time>
      </trkpt>
      <trkpt lat="46.334361" lon="23.905401">
        <ele>367.734</ele>
        <time>2015-03-08T13:02:06Z</time>
      </trkpt>
      <trkpt lat="46.334426" lon="23.905478">
        <ele>367.490</ele>
        <time>2015-03-08T13:02:15Z</time>
      </trkpt>
      <trkpt lat="46.334503" lon="23.905543">
        <ele>367.073</ele>
        <time>2015-03-08T13:02:24Z</time>
      </trkpt>
      <trkpt lat="46.334573" lon="23.905614">
        <ele>366.672</ele>
        <time>2015-03-08T13:02:32Z</time>
      </trkpt>
      <trkpt lat="46.334653" lon="23.905670">
        <ele>366.320</ele>
        <time>2015-03-08T13:02:40Z</time>
      </trkpt>
      <trkpt lat="46.334725" lon="23.905726">
        <ele>365.923</ele>
        <time>2015-03-08T13:02:49Z</time>
      </trkpt>
      <trkpt lat="46.334798" lon="23.905794">
        <ele>365.535</ele>
        <time>2015-03-08T13:02:57Z</time>
      </trkpt>
      <trkpt lat="46.334870" lon="23.905880">
        <ele>365.235</ele>
        <time>2015-03-08T13:03:07Z</time>
      </trkpt>
      <trkpt lat="46.334946" lon="23.905936">
        <ele>364.115</ele>
        <time>2015-03-08T13:03:15Z</time>
      </trkpt>
      <trkpt lat="46.335015" lon="23.906010">
        <ele>363.265</ele>
        <time>2015-03-08T13:03:23Z</time>
      </trkpt>
      <trkpt lat="46.335093" lon="23.906076">
        <ele>363.411</ele>
        <time>2015-03-08T13:03:30Z</time>
      </trkpt>
      <trkpt lat="46.335156" lon="23.906156">
        <ele>363.308</ele>
        <time>2015-03-08T13:03:38Z</time>
      </trkpt>
      <trkpt lat="46.335233" lon="23.906231">
        <ele>363.282</ele>
        <time>2015-03-08T13:03:46Z</time>
      </trkpt>
      <trkpt lat="46.335296" lon="23.906308">
        <ele>363.198</ele>
        <time>2015-03-08T13:03:53Z</time>
      </trkpt>
      <trkpt lat="46.335368" lon="23.906373">
        <ele>363.041</ele>
        <time>2015-03-08T13:04:01Z</time>
      </trkpt>
      <trkpt lat="46.335436" lon="23.906443">
        <ele>362.960</ele>
        <time>2015-03-08T13:04:09Z</time>
      </trkpt>
      <trkpt lat="46.335510" lon="23.906511">
        <ele>362.838</ele>
        <time>2015-03-08T13:04:18Z</time>
      </trkpt>
      <trkpt lat="46.335586" lon="23.906563">
        <ele>362.411</ele>
        <time>2015-03-08T13:04:27Z</time>
      </trkpt>
      <trkpt lat="46.335690" lon="23.906561">
        <ele>361.913</ele>
        <time>2015-03-08T13:04:35Z</time>
      </trkpt>
      <trkpt lat="46.335783" lon="23.906540">
        <ele>361.533</ele>
        <time>2015-03-08T13:04:37Z</time>
      </trkpt>
      <trkpt lat="46.335843" lon="23.906456">
        <ele>360.816</ele>
        <time>2015-03-08T13:04:43Z</time>
      </trkpt>
      <trkpt lat="46.335883" lon="23.906346">
        <ele>360.276</ele>
        <time>2015-03-08T13:04:51Z</time>
      </trkpt>
      <trkpt lat="46.335924" lon="23.906236">
        <ele>359.813</ele>
        <time>2015-03-08T13:05:00Z</time>
      </trkpt>
      <trkpt lat="46.335963" lon="23.906130">
        <ele>359.508</ele>
        <time>2015-03-08T13:05:12Z</time>
      </trkpt>
      <trkpt lat="46.335988" lon="23.906015">
        <ele>358.462</ele>
        <time>2015-03-08T13:05:21Z</time>
      </trkpt>
      <trkpt lat="46.336008" lon="23.905899">
        <ele>357.338</ele>
        <time>2015-03-08T13:05:28Z</time>
      </trkpt>
      <trkpt lat="46.336033" lon="23.905788">
        <ele>355.641</ele>
        <time>2015-03-08T13:05:40Z</time>
      </trkpt>
      <trkpt lat="46.336066" lon="23.905674">
        <ele>354.090</ele>
        <time>2015-03-08T13:05:53Z</time>
      </trkpt>
      <trkpt lat="46.336131" lon="23.905588">
        <ele>352.798</ele>
        <time>2015-03-08T13:06:02Z</time>
      </trkpt>
      <trkpt lat="46.336190" lon="23.905490">
        <ele>351.511</ele>
        <time>2015-03-08T13:06:12Z</time>
      </trkpt>
      <trkpt lat="46.336221" lon="23.905378">
        <ele>350.263</ele>
        <time>2015-03-08T13:06:21Z</time>
      </trkpt>
      <trkpt lat="46.336266" lon="23.905270">
        <ele>348.973</ele>
        <time>2015-03-08T13:06:32Z</time>
      </trkpt>
      <trkpt lat="46.336328" lon="23.905188">
        <ele>347.696</ele>
        <time>2015-03-08T13:06:42Z</time>
      </trkpt>
      <trkpt lat="46.336383" lon="23.905086">
        <ele>345.531</ele>
        <time>2015-03-08T13:06:51Z</time>
      </trkpt>
      <trkpt lat="46.336436" lon="23.904988">
        <ele>343.524</ele>
        <time>2015-03-08T13:07:02Z</time>
      </trkpt>
      <trkpt lat="46.336499" lon="23.904915">
        <ele>342.108</ele>
        <time>2015-03-08T13:07:13Z</time>
      </trkpt>
      <trkpt lat="46.336565" lon="23.904826">
        <ele>340.750</ele>
        <time>2015-03-08T13:07:23Z</time>
      </trkpt>
      <trkpt lat="46.336630" lon="23.904743">
        <ele>339.966</ele>
        <time>2015-03-08T13:07:34Z</time>
      </trkpt>
      <trkpt lat="46.336685" lon="23.904645">
        <ele>339.179</ele>
        <time>2015-03-08T13:07:44Z</time>
      </trkpt>
      <trkpt lat="46.336746" lon="23.904553">
        <ele>337.518</ele>
        <time>2015-03-08T13:07:54Z</time>
      </trkpt>
      <trkpt lat="46.336820" lon="23.904490">
        <ele>336.046</ele>
        <time>2015-03-08T13:08:03Z</time>
      </trkpt>
      <trkpt lat="46.336896" lon="23.904438">
        <ele>334.519</ele>
        <time>2015-03-08T13:08:12Z</time>
      </trkpt>
      <trkpt lat="46.336960" lon="23.904348">
        <ele>332.911</ele>
        <time>2015-03-08T13:08:22Z</time>
      </trkpt>
      <trkpt lat="46.337035" lon="23.904290">
        <ele>331.461</ele>
        <time>2015-03-08T13:08:30Z</time>
      </trkpt>
      <trkpt lat="46.337115" lon="23.904235">
        <ele>330.673</ele>
        <time>2015-03-08T13:08:38Z</time>
      </trkpt>
      <trkpt lat="46.337203" lon="23.904215">
        <ele>329.985</ele>
        <time>2015-03-08T13:08:45Z</time>
      </trkpt>
      <trkpt lat="46.337290" lon="23.904263">
        <ele>329.213</ele>
        <time>2015-03-08T13:08:53Z</time>
      </trkpt>
      <trkpt lat="46.337376" lon="23.904303">
        <ele>328.508</ele>
        <time>2015-03-08T13:09:01Z</time>
      </trkpt>
      <trkpt lat="46.337443" lon="23.904370">
        <ele>328.368</ele>
        <time>2015-03-08T13:09:09Z</time>
      </trkpt>
      <trkpt lat="46.337508" lon="23.904455">
        <ele>328.114</ele>
        <time>2015-03-08T13:09:19Z</time>
      </trkpt>
      <trkpt lat="46.337575" lon="23.904528">
        <ele>328.657</ele>
        <time>2015-03-08T13:09:29Z</time>
      </trkpt>
      <trkpt lat="46.337633" lon="23.904621">
        <ele>328.016</ele>
        <time>2015-03-08T13:09:40Z</time>
      </trkpt>
      <trkpt lat="46.337714" lon="23.904668">
        <ele>327.464</ele>
        <time>2015-03-08T13:09:47Z</time>
      </trkpt>
      <trkpt lat="46.337785" lon="23.904730">
        <ele>326.737</ele>
        <time>2015-03-08T13:09:54Z</time>
      </trkpt>
      <trkpt lat="46.337851" lon="23.904803">
        <ele>326.169</ele>
        <time>2015-03-08T13:10:02Z</time>
      </trkpt>
      <trkpt lat="46.337918" lon="23.904870">
        <ele>325.559</ele>
        <time>2015-03-08T13:10:11Z</time>
      </trkpt>
      <trkpt lat="46.337991" lon="23.904940">
        <ele>324.826</ele>
        <time>2015-03-08T13:10:20Z</time>
      </trkpt>
      <trkpt lat="46.338058" lon="23.905018">
        <ele>324.247</ele>
        <time>2015-03-08T13:10:28Z</time>
      </trkpt>
      <trkpt lat="46.338126" lon="23.905085">
        <ele>323.511</ele>
        <time>2015-03-08T13:10:35Z</time>
      </trkpt>
      <trkpt lat="46.338211" lon="23.905120">
        <ele>322.408</ele>
        <time>2015-03-08T13:10:44Z</time>
      </trkpt>
      <trkpt lat="46.338283" lon="23.905186">
        <ele>321.283</ele>
        <time>2015-03-08T13:10:53Z</time>
      </trkpt>
      <trkpt lat="46.338365" lon="23.905226">
        <ele>320.029</ele>
        <time>2015-03-08T13:11:01Z</time>
      </trkpt>
      <trkpt lat="46.338420" lon="23.905315">
        <ele>319.662</ele>
        <time>2015-03-08T13:11:10Z</time>
      </trkpt>
      <trkpt lat="46.338505" lon="23.905326">
        <ele>319.541</ele>
        <time>2015-03-08T13:11:25Z</time>
      </trkpt>
      <trkpt lat="46.338583" lon="23.905363">
        <ele>319.549</ele>
        <time>2015-03-08T13:11:33Z</time>
      </trkpt>
      <trkpt lat="46.338663" lon="23.905398">
        <ele>319.412</ele>
        <time>2015-03-08T13:11:41Z</time>
      </trkpt>
      <trkpt lat="46.338743" lon="23.905455">
        <ele>319.334</ele>
        <time>2015-03-08T13:11:52Z</time>
      </trkpt>
      <trkpt lat="46.338826" lon="23.905479">
        <ele>319.234</ele>
        <time>2015-03-08T13:12:00Z</time>
      </trkpt>
      <trkpt lat="46.338915" lon="23.905541">
        <ele>319.148</ele>
        <time>2015-03-08T13:12:09Z</time>
      </trkpt>
      <trkpt lat="46.338993" lon="23.905586">
        <ele>319.061</ele>
        <time>2015-03-08T13:12:17Z</time>
      </trkpt>
      <trkpt lat="46.339073" lon="23.905614">
        <ele>318.917</ele>
        <time>2015-03-08T13:12:22Z</time>
      </trkpt>
      <trkpt lat="46.339158" lon="23.905668">
        <ele>318.808</ele>
        <time>2015-03-08T13:12:31Z</time>
      </trkpt>
      <trkpt lat="46.339234" lon="23.905725">
        <ele>318.295</ele>
        <time>2015-03-08T13:12:39Z</time>
      </trkpt>
      <trkpt lat="46.339313" lon="23.905763">
        <ele>317.961</ele>
        <time>2015-03-08T13:12:47Z</time>
      </trkpt>
      <trkpt lat="46.339405" lon="23.905766">
        <ele>317.484</ele>
        <time>2015-03-08T13:12:54Z</time>
      </trkpt>
      <trkpt lat="46.339481" lon="23.905826">
        <ele>316.893</ele>
        <time>2015-03-08T13:13:02Z</time>
      </trkpt>
      <trkpt lat="46.339549" lon="23.905891">
        <ele>316.361</ele>
        <time>2015-03-08T13:13:10Z</time>
      </trkpt>
      <trkpt lat="46.339630" lon="23.905950">
        <ele>315.764</ele>
        <time>2015-03-08T13:13:19Z</time>
      </trkpt>
      <trkpt lat="46.339695" lon="23.906021">
        <ele>315.216</ele>
        <time>2015-03-08T13:13:26Z</time>
      </trkpt>
      <trkpt lat="46.339780" lon="23.906064">
        <ele>314.666</ele>
        <time>2015-03-08T13:13:34Z</time>
      </trkpt>
      <trkpt lat="46.339860" lon="23.906085">
        <ele>314.139</ele>
        <time>2015-03-08T13:13:40Z</time>
      </trkpt>
      <trkpt lat="46.339939" lon="23.906116">
        <ele>313.501</ele>
        <time>2015-03-08T13:13:47Z</time>
      </trkpt>
      <trkpt lat="46.340025" lon="23.906131">
        <ele>313.021</ele>
        <time>2015-03-08T13:13:53Z</time>
      </trkpt>
      <trkpt lat="46.340106" lon="23.906136">
        <ele>312.808</ele>
        <time>2015-03-08T13:13:58Z</time>
      </trkpt>
      <trkpt lat="46.340191" lon="23.906178">
        <ele>312.684</ele>
        <time>2015-03-08T13:14:17Z</time>
      </trkpt>
      <trkpt lat="46.340288" lon="23.906229">
        <ele>312.520</ele>
        <time>2015-03-08T13:14:25Z</time>
      </trkpt>
      <trkpt lat="46.340370" lon="23.906266">
        <ele>312.383</ele>
        <time>2015-03-08T13:14:32Z</time>
      </trkpt>
      <trkpt lat="46.340450" lon="23.906304">
        <ele>312.232</ele>
        <time>2015-03-08T13:14:41Z</time>
      </trkpt>
      <trkpt lat="46.340523" lon="23.906380">
        <ele>312.110</ele>
        <time>2015-03-08T13:14:52Z</time>
      </trkpt>
      <trkpt lat="46.340585" lon="23.906473">
        <ele>312.053</ele>
        <time>2015-03-08T13:15:06Z</time>
      </trkpt>
      <trkpt lat="46.340658" lon="23.906536">
        <ele>311.965</ele>
        <time>2015-03-08T13:15:15Z</time>
      </trkpt>
      <trkpt lat="46.340668" lon="23.906668">
        <ele>311.765</ele>
        <time>2015-03-08T13:15:50Z</time>
      </trkpt>
    </trkseg>
  </trk></gpx>