<?xml version="1.0" encoding="UTF-8"?>
<gpx creator="Wikiloc - https://www.wikiloc.com" version="1.1" xmlns="http://www.topografix.com/GPX/1/1" xmlns:xsi="http://www.w3.org/2001/XMLSchema-instance" xsi:schemaLocation="http://www.topografix.com/GPX/1/1 http://www.topografix.com/GPX/1/1/gpx.xsd">
  <metadata>
    <name>Wikiloc - Varful Oasa Mare - Muntii Cindrel - Hiking 2/8/15 8:19 am -</name>
    <author>
      <name>Toni Grecu</name>
      <link href="https://www.wikiloc.com/wikiloc/user.do?id=2082631">
        <text>Toni Grecu on Wikiloc</text>
      </link>
    </author>
    <link href="https://www.wikiloc.com/hiking-trails/varful-oasa-mare-muntii-cindrel-hiking-2-8-15-8-19-am-17094795">
      <text>Varful Oasa Mare - Muntii Cindrel - Hiking 2/8/15 8:19 am - on Wikiloc</text>
    </link>
    <time>2015-02-08T10:28:08Z</time>
  </metadata>
  <trk>
    <name>Varful Oasa Mare - Muntii Cindrel - Hiking 2/8/15 8:19 am - - Wikiloc</name>
    <cmt>Cabana Oasa - Varful Oasa Mare (BR)</cmt>
    <desc>Cabana Oasa - Varful Oasa Mare (BR)</desc>
    <trkseg>
      <trkpt lat="45.580976" lon="23.616568">
        <ele>1256.735</ele>
        <time>2015-02-08T06:19:39Z</time>
      </trkpt>
      <trkpt lat="45.581023" lon="23.616418">
        <ele>1260.086</ele>
        <time>2015-02-08T06:20:17Z</time>
      </trkpt>
      <trkpt lat="45.581111" lon="23.616323">
        <ele>1260.814</ele>
        <time>2015-02-08T06:20:38Z</time>
      </trkpt>
      <trkpt lat="45.579784" lon="23.622256">
        <ele>1261.308</ele>
        <time>2015-02-08T06:21:06Z</time>
      </trkpt>
      <trkpt lat="45.579775" lon="23.622138">
        <ele>1261.824</ele>
        <time>2015-02-08T06:21:32Z</time>
      </trkpt>
      <trkpt lat="45.579690" lon="23.622176">
        <ele>1262.290</ele>
        <time>2015-02-08T06:22:43Z</time>
      </trkpt>
      <trkpt lat="45.579606" lon="23.622131">
        <ele>1264.423</ele>
        <time>2015-02-08T06:22:52Z</time>
      </trkpt>
      <trkpt lat="45.579539" lon="23.622058">
        <ele>1266.592</ele>
        <time>2015-02-08T06:23:07Z</time>
      </trkpt>
      <trkpt lat="45.579441" lon="23.622053">
        <ele>1268.127</ele>
        <time>2015-02-08T06:23:14Z</time>
      </trkpt>
      <trkpt lat="45.579353" lon="23.622040">
        <ele>1267.860</ele>
        <time>2015-02-08T06:23:20Z</time>
      </trkpt>
      <trkpt lat="45.579266" lon="23.622049">
        <ele>1267.542</ele>
        <time>2015-02-08T06:23:27Z</time>
      </trkpt>
      <trkpt lat="45.579178" lon="23.622051">
        <ele>1267.378</ele>
        <time>2015-02-08T06:23:36Z</time>
      </trkpt>
      <trkpt lat="45.579096" lon="23.622016">
        <ele>1267.382</ele>
        <time>2015-02-08T06:23:44Z</time>
      </trkpt>
      <trkpt lat="45.579008" lon="23.621998">
        <ele>1270.043</ele>
        <time>2015-02-08T06:23:53Z</time>
      </trkpt>
      <trkpt lat="45.578925" lon="23.621963">
        <ele>1272.717</ele>
        <time>2015-02-08T06:24:01Z</time>
      </trkpt>
      <trkpt lat="45.578840" lon="23.621959">
        <ele>1275.508</ele>
        <time>2015-02-08T06:24:08Z</time>
      </trkpt>
      <trkpt lat="45.578815" lon="23.622070">
        <ele>1278.219</ele>
        <time>2015-02-08T06:24:23Z</time>
      </trkpt>
      <trkpt lat="45.578759" lon="23.622169">
        <ele>1280.925</ele>
        <time>2015-02-08T06:24:36Z</time>
      </trkpt>
      <trkpt lat="45.578706" lon="23.622263">
        <ele>1283.668</ele>
        <time>2015-02-08T06:24:48Z</time>
      </trkpt>
      <trkpt lat="45.578678" lon="23.622373">
        <ele>1286.497</ele>
        <time>2015-02-08T06:25:12Z</time>
      </trkpt>
      <trkpt lat="45.578721" lon="23.622475">
        <ele>1289.162</ele>
        <time>2015-02-08T06:25:47Z</time>
      </trkpt>
      <trkpt lat="45.578701" lon="23.622593">
        <ele>1292.855</ele>
        <time>2015-02-08T06:25:54Z</time>
      </trkpt>
      <trkpt lat="45.578676" lon="23.622733">
        <ele>1296.517</ele>
        <time>2015-02-08T06:27:01Z</time>
      </trkpt>
      <trkpt lat="45.578643" lon="23.622841">
        <ele>1299.063</ele>
        <time>2015-02-08T06:29:19Z</time>
      </trkpt>
      <trkpt lat="45.578586" lon="23.622931">
        <ele>1300.022</ele>
        <time>2015-02-08T06:29:33Z</time>
      </trkpt>
      <trkpt lat="45.578611" lon="23.623045">
        <ele>1301.062</ele>
        <time>2015-02-08T06:29:48Z</time>
      </trkpt>
      <trkpt lat="45.578571" lon="23.623151">
        <ele>1302.008</ele>
        <time>2015-02-08T06:29:57Z</time>
      </trkpt>
      <trkpt lat="45.578540" lon="23.623270">
        <ele>1303.008</ele>
        <time>2015-02-08T06:30:15Z</time>
      </trkpt>
      <trkpt lat="45.578556" lon="23.623391">
        <ele>1304.063</ele>
        <time>2015-02-08T06:30:29Z</time>
      </trkpt>
      <trkpt lat="45.578496" lon="23.623480">
        <ele>1305.079</ele>
        <time>2015-02-08T06:30:39Z</time>
      </trkpt>
      <trkpt lat="45.578393" lon="23.623526">
        <ele>1306.012</ele>
        <time>2015-02-08T06:30:45Z</time>
      </trkpt>
      <trkpt lat="45.578311" lon="23.623533">
        <ele>1307.961</ele>
        <time>2015-02-08T06:30:49Z</time>
      </trkpt>
      <trkpt lat="45.578223" lon="23.623576">
        <ele>1308.876</ele>
        <time>2015-02-08T06:31:15Z</time>
      </trkpt>
      <trkpt lat="45.578141" lon="23.623588">
        <ele>1309.799</ele>
        <time>2015-02-08T06:31:24Z</time>
      </trkpt>
      <trkpt lat="45.578051" lon="23.623620">
        <ele>1310.651</ele>
        <time>2015-02-08T06:31:32Z</time>
      </trkpt>
      <trkpt lat="45.577966" lon="23.623681">
        <ele>1311.527</ele>
        <time>2015-02-08T06:31:40Z</time>
      </trkpt>
      <trkpt lat="45.577885" lon="23.623713">
        <ele>1312.576</ele>
        <time>2015-02-08T06:31:45Z</time>
      </trkpt>
      <trkpt lat="45.577800" lon="23.623724">
        <ele>1313.490</ele>
        <time>2015-02-08T06:32:00Z</time>
      </trkpt>
      <trkpt lat="45.577705" lon="23.623715">
        <ele>1314.319</ele>
        <time>2015-02-08T06:32:16Z</time>
      </trkpt>
      <trkpt lat="45.577625" lon="23.623761">
        <ele>1315.208</ele>
        <time>2015-02-08T06:32:49Z</time>
      </trkpt>
      <trkpt lat="45.577543" lon="23.623761">
        <ele>1316.128</ele>
        <time>2015-02-08T06:32:55Z</time>
      </trkpt>
      <trkpt lat="45.577463" lon="23.623730">
        <ele>1317.584</ele>
        <time>2015-02-08T06:33:05Z</time>
      </trkpt>
      <trkpt lat="45.577398" lon="23.623660">
        <ele>1317.977</ele>
        <time>2015-02-08T06:33:17Z</time>
      </trkpt>
      <trkpt lat="45.577315" lon="23.623698">
        <ele>1318.466</ele>
        <time>2015-02-08T06:33:33Z</time>
      </trkpt>
      <trkpt lat="45.577233" lon="23.623700">
        <ele>1318.891</ele>
        <time>2015-02-08T06:33:46Z</time>
      </trkpt>
      <trkpt lat="45.577160" lon="23.623631">
        <ele>1319.364</ele>
        <time>2015-02-08T06:33:57Z</time>
      </trkpt>
      <trkpt lat="45.577079" lon="23.623581">
        <ele>1319.766</ele>
        <time>2015-02-08T06:34:09Z</time>
      </trkpt>
      <trkpt lat="45.577011" lon="23.623516">
        <ele>1320.252</ele>
        <time>2015-02-08T06:34:23Z</time>
      </trkpt>
      <trkpt lat="45.576940" lon="23.623585">
        <ele>1320.612</ele>
        <time>2015-02-08T06:34:30Z</time>
      </trkpt>
      <trkpt lat="45.576873" lon="23.623678">
        <ele>1321.132</ele>
        <time>2015-02-08T06:34:34Z</time>
      </trkpt>
      <trkpt lat="45.576789" lon="23.623708">
        <ele>1321.505</ele>
        <time>2015-02-08T06:34:50Z</time>
      </trkpt>
      <trkpt lat="45.576734" lon="23.623623">
        <ele>1322.008</ele>
        <time>2015-02-08T06:35:19Z</time>
      </trkpt>
      <trkpt lat="45.576665" lon="23.623565">
        <ele>1323.082</ele>
        <time>2015-02-08T06:35:40Z</time>
      </trkpt>
      <trkpt lat="45.576595" lon="23.623506">
        <ele>1324.098</ele>
        <time>2015-02-08T06:35:51Z</time>
      </trkpt>
      <trkpt lat="45.576523" lon="23.623448">
        <ele>1325.081</ele>
        <time>2015-02-08T06:36:17Z</time>
      </trkpt>
      <trkpt lat="45.576446" lon="23.623401">
        <ele>1326.070</ele>
        <time>2015-02-08T06:36:28Z</time>
      </trkpt>
      <trkpt lat="45.576363" lon="23.623366">
        <ele>1327.035</ele>
        <time>2015-02-08T06:36:34Z</time>
      </trkpt>
      <trkpt lat="45.576278" lon="23.623326">
        <ele>1328.018</ele>
        <time>2015-02-08T06:37:07Z</time>
      </trkpt>
      <trkpt lat="45.576185" lon="23.623300">
        <ele>1329.050</ele>
        <time>2015-02-08T06:37:19Z</time>
      </trkpt>
      <trkpt lat="45.576105" lon="23.623280">
        <ele>1330.036</ele>
        <time>2015-02-08T06:37:56Z</time>
      </trkpt>
      <trkpt lat="45.576015" lon="23.623260">
        <ele>1331.055</ele>
        <time>2015-02-08T06:39:01Z</time>
      </trkpt>
      <trkpt lat="45.575925" lon="23.623278">
        <ele>1332.007</ele>
        <time>2015-02-08T06:39:11Z</time>
      </trkpt>
      <trkpt lat="45.575836" lon="23.623271">
        <ele>1333.817</ele>
        <time>2015-02-08T06:39:26Z</time>
      </trkpt>
      <trkpt lat="45.575738" lon="23.623340">
        <ele>1334.608</ele>
        <time>2015-02-08T06:39:48Z</time>
      </trkpt>
      <trkpt lat="45.575690" lon="23.623238">
        <ele>1335.596</ele>
        <time>2015-02-08T06:39:59Z</time>
      </trkpt>
      <trkpt lat="45.575608" lon="23.623235">
        <ele>1336.352</ele>
        <time>2015-02-08T06:40:28Z</time>
      </trkpt>
      <trkpt lat="45.575545" lon="23.623321">
        <ele>1337.135</ele>
        <time>2015-02-08T06:40:57Z</time>
      </trkpt>
      <trkpt lat="45.575453" lon="23.623381">
        <ele>1337.974</ele>
        <time>2015-02-08T06:41:01Z</time>
      </trkpt>
      <trkpt lat="45.575371" lon="23.623401">
        <ele>1338.749</ele>
        <time>2015-02-08T06:41:07Z</time>
      </trkpt>
      <trkpt lat="45.575298" lon="23.623466">
        <ele>1339.582</ele>
        <time>2015-02-08T06:41:17Z</time>
      </trkpt>
      <trkpt lat="45.575281" lon="23.623345">
        <ele>1340.434</ele>
        <time>2015-02-08T06:41:45Z</time>
      </trkpt>
      <trkpt lat="45.575199" lon="23.623338">
        <ele>1341.240</ele>
        <time>2015-02-08T06:42:03Z</time>
      </trkpt>
      <trkpt lat="45.575128" lon="23.623395">
        <ele>1342.064</ele>
        <time>2015-02-08T06:42:17Z</time>
      </trkpt>
      <trkpt lat="45.575036" lon="23.623395">
        <ele>1343.106</ele>
        <time>2015-02-08T06:42:27Z</time>
      </trkpt>
      <trkpt lat="45.574910" lon="23.623383">
        <ele>1344.216</ele>
        <time>2015-02-08T06:42:54Z</time>
      </trkpt>
      <trkpt lat="45.574830" lon="23.623405">
        <ele>1345.308</ele>
        <time>2015-02-08T06:43:18Z</time>
      </trkpt>
      <trkpt lat="45.574743" lon="23.623395">
        <ele>1346.427</ele>
        <time>2015-02-08T06:43:30Z</time>
      </trkpt>
      <trkpt lat="45.574658" lon="23.623456">
        <ele>1347.593</ele>
        <time>2015-02-08T06:43:38Z</time>
      </trkpt>
      <trkpt lat="45.574565" lon="23.623426">
        <ele>1348.556</ele>
        <time>2015-02-08T06:43:56Z</time>
      </trkpt>
      <trkpt lat="45.574493" lon="23.623481">
        <ele>1349.685</ele>
        <time>2015-02-08T06:44:07Z</time>
      </trkpt>
      <trkpt lat="45.574428" lon="23.623556">
        <ele>1350.790</ele>
        <time>2015-02-08T06:44:17Z</time>
      </trkpt>
      <trkpt lat="45.574346" lon="23.623535">
        <ele>1351.843</ele>
        <time>2015-02-08T06:44:40Z</time>
      </trkpt>
      <trkpt lat="45.574269" lon="23.623495">
        <ele>1352.955</ele>
        <time>2015-02-08T06:44:58Z</time>
      </trkpt>
      <trkpt lat="45.574185" lon="23.623496">
        <ele>1354.131</ele>
        <time>2015-02-08T06:45:25Z</time>
      </trkpt>
      <trkpt lat="45.574164" lon="23.623643">
        <ele>1354.266</ele>
        <time>2015-02-08T06:45:34Z</time>
      </trkpt>
      <trkpt lat="45.574074" lon="23.623735">
        <ele>1354.329</ele>
        <time>2015-02-08T06:45:43Z</time>
      </trkpt>
      <trkpt lat="45.573995" lon="23.623843">
        <ele>1354.421</ele>
        <time>2015-02-08T06:45:59Z</time>
      </trkpt>
      <trkpt lat="45.573913" lon="23.623866">
        <ele>1355.908</ele>
        <time>2015-02-08T06:46:12Z</time>
      </trkpt>
      <trkpt lat="45.573833" lon="23.623885">
        <ele>1357.537</ele>
        <time>2015-02-08T06:46:26Z</time>
      </trkpt>
      <trkpt lat="45.573780" lon="23.623978">
        <ele>1359.023</ele>
        <time>2015-02-08T06:46:55Z</time>
      </trkpt>
      <trkpt lat="45.573826" lon="23.623880">
        <ele>1360.596</ele>
        <time>2015-02-08T06:47:48Z</time>
      </trkpt>
      <trkpt lat="45.573774" lon="23.623976">
        <ele>1362.135</ele>
        <time>2015-02-08T06:50:06Z</time>
      </trkpt>
      <trkpt lat="45.573705" lon="23.624045">
        <ele>1363.660</ele>
        <time>2015-02-08T06:50:16Z</time>
      </trkpt>
      <trkpt lat="45.573651" lon="23.624135">
        <ele>1365.233</ele>
        <time>2015-02-08T06:50:28Z</time>
      </trkpt>
      <trkpt lat="45.573608" lon="23.624233">
        <ele>1367.155</ele>
        <time>2015-02-08T06:50:39Z</time>
      </trkpt>
      <trkpt lat="45.573600" lon="23.624351">
        <ele>1369.071</ele>
        <time>2015-02-08T06:50:52Z</time>
      </trkpt>
      <trkpt lat="45.573541" lon="23.624448">
        <ele>1370.944</ele>
        <time>2015-02-08T06:51:03Z</time>
      </trkpt>
      <trkpt lat="45.573471" lon="23.624518">
        <ele>1372.805</ele>
        <time>2015-02-08T06:51:20Z</time>
      </trkpt>
      <trkpt lat="45.573503" lon="23.624634">
        <ele>1373.315</ele>
        <time>2015-02-08T06:51:41Z</time>
      </trkpt>
      <trkpt lat="45.573483" lon="23.624748">
        <ele>1373.708</ele>
        <time>2015-02-08T06:51:55Z</time>
      </trkpt>
      <trkpt lat="45.573436" lon="23.624850">
        <ele>1374.295</ele>
        <time>2015-02-08T06:52:11Z</time>
      </trkpt>
      <trkpt lat="45.573393" lon="23.624966">
        <ele>1374.631</ele>
        <time>2015-02-08T06:52:19Z</time>
      </trkpt>
      <trkpt lat="45.573325" lon="23.625046">
        <ele>1376.644</ele>
        <time>2015-02-08T06:52:30Z</time>
      </trkpt>
      <trkpt lat="45.573251" lon="23.625101">
        <ele>1378.613</ele>
        <time>2015-02-08T06:52:44Z</time>
      </trkpt>
      <trkpt lat="45.573163" lon="23.625095">
        <ele>1380.658</ele>
        <time>2015-02-08T06:53:27Z</time>
      </trkpt>
      <trkpt lat="45.573075" lon="23.625121">
        <ele>1382.281</ele>
        <time>2015-02-08T06:53:36Z</time>
      </trkpt>
      <trkpt lat="45.572990" lon="23.625150">
        <ele>1383.713</ele>
        <time>2015-02-08T06:53:56Z</time>
      </trkpt>
      <trkpt lat="45.572920" lon="23.625211">
        <ele>1385.369</ele>
        <time>2015-02-08T06:54:11Z</time>
      </trkpt>
      <trkpt lat="45.572806" lon="23.625258">
        <ele>1386.819</ele>
        <time>2015-02-08T06:54:48Z</time>
      </trkpt>
      <trkpt lat="45.572711" lon="23.625260">
        <ele>1388.409</ele>
        <time>2015-02-08T06:55:08Z</time>
      </trkpt>
      <trkpt lat="45.572633" lon="23.625213">
        <ele>1389.919</ele>
        <time>2015-02-08T06:55:41Z</time>
      </trkpt>
      <trkpt lat="45.572565" lon="23.625296">
        <ele>1391.508</ele>
        <time>2015-02-08T06:56:36Z</time>
      </trkpt>
      <trkpt lat="45.572485" lon="23.625318">
        <ele>1394.992</ele>
        <time>2015-02-08T06:56:43Z</time>
      </trkpt>
      <trkpt lat="45.572401" lon="23.625335">
        <ele>1396.858</ele>
        <time>2015-02-08T06:56:55Z</time>
      </trkpt>
      <trkpt lat="45.572300" lon="23.625328">
        <ele>1398.721</ele>
        <time>2015-02-08T06:58:23Z</time>
      </trkpt>
      <trkpt lat="45.572223" lon="23.625378">
        <ele>1400.630</ele>
        <time>2015-02-08T06:58:50Z</time>
      </trkpt>
      <trkpt lat="45.572136" lon="23.625448">
        <ele>1402.535</ele>
        <time>2015-02-08T06:59:25Z</time>
      </trkpt>
      <trkpt lat="45.572076" lon="23.625531">
        <ele>1404.558</ele>
        <time>2015-02-08T06:59:42Z</time>
      </trkpt>
      <trkpt lat="45.572023" lon="23.625666">
        <ele>1406.480</ele>
        <time>2015-02-08T07:00:01Z</time>
      </trkpt>
      <trkpt lat="45.571998" lon="23.625783">
        <ele>1408.386</ele>
        <time>2015-02-08T07:00:43Z</time>
      </trkpt>
      <trkpt lat="45.571936" lon="23.625866">
        <ele>1410.286</ele>
        <time>2015-02-08T07:01:00Z</time>
      </trkpt>
      <trkpt lat="45.571851" lon="23.625880">
        <ele>1412.160</ele>
        <time>2015-02-08T07:01:40Z</time>
      </trkpt>
      <trkpt lat="45.571728" lon="23.625943">
        <ele>1414.026</ele>
        <time>2015-02-08T07:02:11Z</time>
      </trkpt>
      <trkpt lat="45.571731" lon="23.626061">
        <ele>1414.108</ele>
        <time>2015-02-08T07:02:33Z</time>
      </trkpt>
      <trkpt lat="45.571648" lon="23.626068">
        <ele>1414.279</ele>
        <time>2015-02-08T07:02:42Z</time>
      </trkpt>
      <trkpt lat="45.571583" lon="23.626148">
        <ele>1414.335</ele>
        <time>2015-02-08T07:02:58Z</time>
      </trkpt>
      <trkpt lat="45.571510" lon="23.626198">
        <ele>1414.728</ele>
        <time>2015-02-08T07:03:15Z</time>
      </trkpt>
      <trkpt lat="45.571463" lon="23.626293">
        <ele>1415.227</ele>
        <time>2015-02-08T07:03:36Z</time>
      </trkpt>
      <trkpt lat="45.571425" lon="23.626401">
        <ele>1415.672</ele>
        <time>2015-02-08T07:03:53Z</time>
      </trkpt>
      <trkpt lat="45.571365" lon="23.626488">
        <ele>1416.185</ele>
        <time>2015-02-08T07:04:06Z</time>
      </trkpt>
      <trkpt lat="45.571298" lon="23.626560">
        <ele>1416.547</ele>
        <time>2015-02-08T07:04:16Z</time>
      </trkpt>
      <trkpt lat="45.571258" lon="23.626665">
        <ele>1417.033</ele>
        <time>2015-02-08T07:04:32Z</time>
      </trkpt>
      <trkpt lat="45.571198" lon="23.626756">
        <ele>1417.722</ele>
        <time>2015-02-08T07:04:42Z</time>
      </trkpt>
      <trkpt lat="45.571128" lon="23.626818">
        <ele>1418.562</ele>
        <time>2015-02-08T07:05:02Z</time>
      </trkpt>
      <trkpt lat="45.571151" lon="23.626930">
        <ele>1419.108</ele>
        <time>2015-02-08T07:06:05Z</time>
      </trkpt>
      <trkpt lat="45.571105" lon="23.627031">
        <ele>1419.708</ele>
        <time>2015-02-08T07:06:13Z</time>
      </trkpt>
      <trkpt lat="45.571054" lon="23.627133">
        <ele>1420.453</ele>
        <time>2015-02-08T07:06:24Z</time>
      </trkpt>
      <trkpt lat="45.570996" lon="23.627216">
        <ele>1420.649</ele>
        <time>2015-02-08T07:06:33Z</time>
      </trkpt>
      <trkpt lat="45.570931" lon="23.627288">
        <ele>1420.972</ele>
        <time>2015-02-08T07:06:43Z</time>
      </trkpt>
      <trkpt lat="45.570863" lon="23.627363">
        <ele>1421.281</ele>
        <time>2015-02-08T07:06:55Z</time>
      </trkpt>
      <trkpt lat="45.570778" lon="23.627408">
        <ele>1421.526</ele>
        <time>2015-02-08T07:08:07Z</time>
      </trkpt>
      <trkpt lat="45.570858" lon="23.627438">
        <ele>1421.719</ele>
        <time>2015-02-08T07:09:57Z</time>
      </trkpt>
      <trkpt lat="45.570814" lon="23.627541">
        <ele>1420.781</ele>
        <time>2015-02-08T07:10:38Z</time>
      </trkpt>
      <trkpt lat="45.570768" lon="23.627650">
        <ele>1420.057</ele>
        <time>2015-02-08T07:10:48Z</time>
      </trkpt>
      <trkpt lat="45.570698" lon="23.627718">
        <ele>1418.772</ele>
        <time>2015-02-08T07:10:57Z</time>
      </trkpt>
      <trkpt lat="45.570615" lon="23.627766">
        <ele>1418.013</ele>
        <time>2015-02-08T07:11:03Z</time>
      </trkpt>
      <trkpt lat="45.570538" lon="23.627806">
        <ele>1417.314</ele>
        <time>2015-02-08T07:11:14Z</time>
      </trkpt>
      <trkpt lat="45.570461" lon="23.627863">
        <ele>1416.508</ele>
        <time>2015-02-08T07:11:24Z</time>
      </trkpt>
      <trkpt lat="45.570460" lon="23.627983">
        <ele>1415.868</ele>
        <time>2015-02-08T07:11:41Z</time>
      </trkpt>
      <trkpt lat="45.570348" lon="23.627973">
        <ele>1415.184</ele>
        <time>2015-02-08T07:12:08Z</time>
      </trkpt>
      <trkpt lat="45.570361" lon="23.628091">
        <ele>1414.477</ele>
        <time>2015-02-08T07:12:23Z</time>
      </trkpt>
      <trkpt lat="45.570303" lon="23.628183">
        <ele>1413.696</ele>
        <time>2015-02-08T07:12:53Z</time>
      </trkpt>
      <trkpt lat="45.570243" lon="23.628263">
        <ele>1412.931</ele>
        <time>2015-02-08T07:13:08Z</time>
      </trkpt>
      <trkpt lat="45.570220" lon="23.628378">
        <ele>1414.494</ele>
        <time>2015-02-08T07:13:21Z</time>
      </trkpt>
      <trkpt lat="45.570190" lon="23.628493">
        <ele>1415.336</ele>
        <time>2015-02-08T07:13:33Z</time>
      </trkpt>
      <trkpt lat="45.570130" lon="23.628573">
        <ele>1416.772</ele>
        <time>2015-02-08T07:13:54Z</time>
      </trkpt>
      <trkpt lat="45.570065" lon="23.628645">
        <ele>1417.693</ele>
        <time>2015-02-08T07:14:10Z</time>
      </trkpt>
      <trkpt lat="45.570046" lon="23.628764">
        <ele>1418.565</ele>
        <time>2015-02-08T07:14:26Z</time>
      </trkpt>
      <trkpt lat="45.570068" lon="23.628890">
        <ele>1419.521</ele>
        <time>2015-02-08T07:14:42Z</time>
      </trkpt>
      <trkpt lat="45.570035" lon="23.629001">
        <ele>1420.408</ele>
        <time>2015-02-08T07:14:59Z</time>
      </trkpt>
      <trkpt lat="45.569973" lon="23.629085">
        <ele>1422.440</ele>
        <time>2015-02-08T07:15:16Z</time>
      </trkpt>
      <trkpt lat="45.569951" lon="23.629198">
        <ele>1424.436</ele>
        <time>2015-02-08T07:15:36Z</time>
      </trkpt>
      <trkpt lat="45.569951" lon="23.629331">
        <ele>1426.439</ele>
        <time>2015-02-08T07:15:43Z</time>
      </trkpt>
      <trkpt lat="45.569993" lon="23.629436">
        <ele>1428.478</ele>
        <time>2015-02-08T07:16:09Z</time>
      </trkpt>
      <trkpt lat="45.570010" lon="23.629554">
        <ele>1429.513</ele>
        <time>2015-02-08T07:16:25Z</time>
      </trkpt>
      <trkpt lat="45.569993" lon="23.629675">
        <ele>1430.576</ele>
        <time>2015-02-08T07:16:36Z</time>
      </trkpt>
      <trkpt lat="45.569975" lon="23.629791">
        <ele>1431.638</ele>
        <time>2015-02-08T07:17:01Z</time>
      </trkpt>
      <trkpt lat="45.569981" lon="23.629913">
        <ele>1432.724</ele>
        <time>2015-02-08T07:17:21Z</time>
      </trkpt>
      <trkpt lat="45.569948" lon="23.630021">
        <ele>1434.439</ele>
        <time>2015-02-08T07:17:35Z</time>
      </trkpt>
      <trkpt lat="45.569991" lon="23.630121">
        <ele>1436.001</ele>
        <time>2015-02-08T07:17:55Z</time>
      </trkpt>
      <trkpt lat="45.570068" lon="23.630171">
        <ele>1437.621</ele>
        <time>2015-02-08T07:18:09Z</time>
      </trkpt>
      <trkpt lat="45.570101" lon="23.630285">
        <ele>1438.208</ele>
        <time>2015-02-08T07:18:34Z</time>
      </trkpt>
      <trkpt lat="45.570085" lon="23.630405">
        <ele>1438.714</ele>
        <time>2015-02-08T07:18:47Z</time>
      </trkpt>
      <trkpt lat="45.570071" lon="23.630528">
        <ele>1439.350</ele>
        <time>2015-02-08T07:19:47Z</time>
      </trkpt>
      <trkpt lat="45.570040" lon="23.630640">
        <ele>1439.873</ele>
        <time>2015-02-08T07:19:58Z</time>
      </trkpt>
      <trkpt lat="45.570048" lon="23.630756">
        <ele>1441.012</ele>
        <time>2015-02-08T07:20:16Z</time>
      </trkpt>
      <trkpt lat="45.570043" lon="23.630883">
        <ele>1442.257</ele>
        <time>2015-02-08T07:20:35Z</time>
      </trkpt>
      <trkpt lat="45.569986" lon="23.630973">
        <ele>1443.430</ele>
        <time>2015-02-08T07:20:44Z</time>
      </trkpt>
      <trkpt lat="45.570035" lon="23.631081">
        <ele>1444.552</ele>
        <time>2015-02-08T07:21:12Z</time>
      </trkpt>
      <trkpt lat="45.569970" lon="23.631154">
        <ele>1445.298</ele>
        <time>2015-02-08T07:21:20Z</time>
      </trkpt>
      <trkpt lat="45.569933" lon="23.631275">
        <ele>1445.814</ele>
        <time>2015-02-08T07:21:31Z</time>
      </trkpt>
      <trkpt lat="45.569933" lon="23.631410">
        <ele>1448.454</ele>
        <time>2015-02-08T07:21:45Z</time>
      </trkpt>
      <trkpt lat="45.569921" lon="23.631525">
        <ele>1449.009</ele>
        <time>2015-02-08T07:21:59Z</time>
      </trkpt>
      <trkpt lat="45.569845" lon="23.631571">
        <ele>1451.508</ele>
        <time>2015-02-08T07:22:15Z</time>
      </trkpt>
      <trkpt lat="45.569763" lon="23.631626">
        <ele>1454.122</ele>
        <time>2015-02-08T07:22:28Z</time>
      </trkpt>
      <trkpt lat="45.569685" lon="23.631661">
        <ele>1456.658</ele>
        <time>2015-02-08T07:22:48Z</time>
      </trkpt>
      <trkpt lat="45.569624" lon="23.631739">
        <ele>1458.561</ele>
        <time>2015-02-08T07:22:57Z</time>
      </trkpt>
      <trkpt lat="45.569696" lon="23.631811">
        <ele>1460.590</ele>
        <time>2015-02-08T07:24:16Z</time>
      </trkpt>
      <trkpt lat="45.569610" lon="23.631811">
        <ele>1462.495</ele>
        <time>2015-02-08T07:24:51Z</time>
      </trkpt>
      <trkpt lat="45.569528" lon="23.631850">
        <ele>1464.378</ele>
        <time>2015-02-08T07:24:58Z</time>
      </trkpt>
      <trkpt lat="45.569440" lon="23.631871">
        <ele>1467.550</ele>
        <time>2015-02-08T07:25:16Z</time>
      </trkpt>
      <trkpt lat="45.569346" lon="23.631945">
        <ele>1470.626</ele>
        <time>2015-02-08T07:25:38Z</time>
      </trkpt>
      <trkpt lat="45.569263" lon="23.631950">
        <ele>1471.993</ele>
        <time>2015-02-08T07:25:49Z</time>
      </trkpt>
      <trkpt lat="45.569178" lon="23.631951">
        <ele>1475.165</ele>
        <time>2015-02-08T07:26:02Z</time>
      </trkpt>
      <trkpt lat="45.569141" lon="23.632066">
        <ele>1476.421</ele>
        <time>2015-02-08T07:28:15Z</time>
      </trkpt>
      <trkpt lat="45.569086" lon="23.632154">
        <ele>1477.608</ele>
        <time>2015-02-08T07:28:36Z</time>
      </trkpt>
      <trkpt lat="45.569045" lon="23.632256">
        <ele>1478.990</ele>
        <time>2015-02-08T07:28:52Z</time>
      </trkpt>
      <trkpt lat="45.568996" lon="23.632358">
        <ele>1480.276</ele>
        <time>2015-02-08T07:29:13Z</time>
      </trkpt>
      <trkpt lat="45.568949" lon="23.632473">
        <ele>1482.649</ele>
        <time>2015-02-08T07:29:39Z</time>
      </trkpt>
      <trkpt lat="45.568906" lon="23.632578">
        <ele>1485.188</ele>
        <time>2015-02-08T07:30:22Z</time>
      </trkpt>
      <trkpt lat="45.568853" lon="23.632675">
        <ele>1487.523</ele>
        <time>2015-02-08T07:31:02Z</time>
      </trkpt>
      <trkpt lat="45.568805" lon="23.632814">
        <ele>1490.586</ele>
        <time>2015-02-08T07:31:48Z</time>
      </trkpt>
      <trkpt lat="45.568775" lon="23.632928">
        <ele>1493.438</ele>
        <time>2015-02-08T07:33:27Z</time>
      </trkpt>
      <trkpt lat="45.568688" lon="23.632893">
        <ele>1496.334</ele>
        <time>2015-02-08T07:33:40Z</time>
      </trkpt>
      <trkpt lat="45.568605" lon="23.632906">
        <ele>1499.235</ele>
        <time>2015-02-08T07:33:48Z</time>
      </trkpt>
      <trkpt lat="45.568556" lon="23.633000">
        <ele>1502.186</ele>
        <time>2015-02-08T07:34:27Z</time>
      </trkpt>
      <trkpt lat="45.568598" lon="23.633101">
        <ele>1505.014</ele>
        <time>2015-02-08T07:34:47Z</time>
      </trkpt>
      <trkpt lat="45.568588" lon="23.633218">
        <ele>1507.908</ele>
        <time>2015-02-08T07:35:07Z</time>
      </trkpt>
      <trkpt lat="45.568543" lon="23.633351">
        <ele>1512.884</ele>
        <time>2015-02-08T07:35:51Z</time>
      </trkpt>
      <trkpt lat="45.568513" lon="23.633490">
        <ele>1516.590</ele>
        <time>2015-02-08T07:36:23Z</time>
      </trkpt>
      <trkpt lat="45.568538" lon="23.633601">
        <ele>1520.373</ele>
        <time>2015-02-08T07:36:39Z</time>
      </trkpt>
      <trkpt lat="45.568563" lon="23.633713">
        <ele>1524.072</ele>
        <time>2015-02-08T07:38:09Z</time>
      </trkpt>
      <trkpt lat="45.568555" lon="23.633831">
        <ele>1526.097</ele>
        <time>2015-02-08T07:38:21Z</time>
      </trkpt>
      <trkpt lat="45.568583" lon="23.633960">
        <ele>1528.080</ele>
        <time>2015-02-08T07:38:38Z</time>
      </trkpt>
      <trkpt lat="45.568628" lon="23.634071">
        <ele>1530.062</ele>
        <time>2015-02-08T07:38:52Z</time>
      </trkpt>
      <trkpt lat="45.568546" lon="23.634106">
        <ele>1532.098</ele>
        <time>2015-02-08T07:39:14Z</time>
      </trkpt>
      <trkpt lat="45.568516" lon="23.634215">
        <ele>1535.987</ele>
        <time>2015-02-08T07:39:45Z</time>
      </trkpt>
      <trkpt lat="45.568516" lon="23.634333">
        <ele>1539.842</ele>
        <time>2015-02-08T07:41:56Z</time>
      </trkpt>
      <trkpt lat="45.568441" lon="23.634414">
        <ele>1543.726</ele>
        <time>2015-02-08T07:42:50Z</time>
      </trkpt>
      <trkpt lat="45.568416" lon="23.634556">
        <ele>1545.608</ele>
        <time>2015-02-08T07:44:13Z</time>
      </trkpt>
      <trkpt lat="45.568418" lon="23.634691">
        <ele>1547.559</ele>
        <time>2015-02-08T07:44:41Z</time>
      </trkpt>
      <trkpt lat="45.568298" lon="23.634796">
        <ele>1549.595</ele>
        <time>2015-02-08T07:45:34Z</time>
      </trkpt>
      <trkpt lat="45.568381" lon="23.634990">
        <ele>1551.458</ele>
        <time>2015-02-08T07:46:21Z</time>
      </trkpt>
      <trkpt lat="45.568310" lon="23.635044">
        <ele>1555.577</ele>
        <time>2015-02-08T07:47:41Z</time>
      </trkpt>
      <trkpt lat="45.568201" lon="23.635095">
        <ele>1559.592</ele>
        <time>2015-02-08T07:48:03Z</time>
      </trkpt>
      <trkpt lat="45.568205" lon="23.635270">
        <ele>1563.625</ele>
        <time>2015-02-08T07:48:43Z</time>
      </trkpt>
      <trkpt lat="45.568239" lon="23.635378">
        <ele>1567.787</ele>
        <time>2015-02-08T07:51:34Z</time>
      </trkpt>
      <trkpt lat="45.568245" lon="23.635500">
        <ele>1569.953</ele>
        <time>2015-02-08T07:51:48Z</time>
      </trkpt>
      <trkpt lat="45.568221" lon="23.635611">
        <ele>1572.115</ele>
        <time>2015-02-08T07:52:08Z</time>
      </trkpt>
      <trkpt lat="45.568161" lon="23.635695">
        <ele>1577.165</ele>
        <time>2015-02-08T07:52:26Z</time>
      </trkpt>
      <trkpt lat="45.568121" lon="23.635796">
        <ele>1582.111</ele>
        <time>2015-02-08T07:53:24Z</time>
      </trkpt>
      <trkpt lat="45.568094" lon="23.635965">
        <ele>1587.108</ele>
        <time>2015-02-08T07:54:31Z</time>
      </trkpt>
      <trkpt lat="45.567995" lon="23.636158">
        <ele>1592.142</ele>
        <time>2015-02-08T08:03:23Z</time>
      </trkpt>
      <trkpt lat="45.567986" lon="23.636275">
        <ele>1597.178</ele>
        <time>2015-02-08T08:03:40Z</time>
      </trkpt>
      <trkpt lat="45.567910" lon="23.636403">
        <ele>1599.991</ele>
        <time>2015-02-08T08:04:48Z</time>
      </trkpt>
      <trkpt lat="45.567840" lon="23.636461">
        <ele>1602.780</ele>
        <time>2015-02-08T08:05:04Z</time>
      </trkpt>
      <trkpt lat="45.567748" lon="23.636553">
        <ele>1605.545</ele>
        <time>2015-02-08T08:05:54Z</time>
      </trkpt>
      <trkpt lat="45.567670" lon="23.636585">
        <ele>1610.738</ele>
        <time>2015-02-08T08:06:06Z</time>
      </trkpt>
      <trkpt lat="45.567615" lon="23.636695">
        <ele>1615.990</ele>
        <time>2015-02-08T08:06:33Z</time>
      </trkpt>
      <trkpt lat="45.567616" lon="23.636819">
        <ele>1621.146</ele>
        <time>2015-02-08T08:09:45Z</time>
      </trkpt>
      <trkpt lat="45.567566" lon="23.636916">
        <ele>1623.572</ele>
        <time>2015-02-08T08:10:06Z</time>
      </trkpt>
      <trkpt lat="45.567518" lon="23.637073">
        <ele>1625.813</ele>
        <time>2015-02-08T08:12:10Z</time>
      </trkpt>
      <trkpt lat="45.567575" lon="23.637206">
        <ele>1628.214</ele>
        <time>2015-02-08T08:12:46Z</time>
      </trkpt>
      <trkpt lat="45.567621" lon="23.637335">
        <ele>1630.508</ele>
        <time>2015-02-08T08:13:40Z</time>
      </trkpt>
      <trkpt lat="45.567726" lon="23.637443">
        <ele>1635.168</ele>
        <time>2015-02-08T08:14:25Z</time>
      </trkpt>
      <trkpt lat="45.567786" lon="23.637551">
        <ele>1639.664</ele>
        <time>2015-02-08T08:14:52Z</time>
      </trkpt>
      <trkpt lat="45.567775" lon="23.637730">
        <ele>1644.287</ele>
        <time>2015-02-08T08:16:50Z</time>
      </trkpt>
      <trkpt lat="45.567809" lon="23.637838">
        <ele>1648.786</ele>
        <time>2015-02-08T08:17:30Z</time>
      </trkpt>
      <trkpt lat="45.567826" lon="23.637963">
        <ele>1650.951</ele>
        <time>2015-02-08T08:17:44Z</time>
      </trkpt>
      <trkpt lat="45.567868" lon="23.638066">
        <ele>1653.134</ele>
        <time>2015-02-08T08:18:06Z</time>
      </trkpt>
      <trkpt lat="45.567800" lon="23.638143">
        <ele>1655.356</ele>
        <time>2015-02-08T08:18:45Z</time>
      </trkpt>
      <trkpt lat="45.567725" lon="23.638293">
        <ele>1657.552</ele>
        <time>2015-02-08T08:19:47Z</time>
      </trkpt>
      <trkpt lat="45.567644" lon="23.638341">
        <ele>1661.556</ele>
        <time>2015-02-08T08:24:10Z</time>
      </trkpt>
      <trkpt lat="45.567581" lon="23.638419">
        <ele>1665.659</ele>
        <time>2015-02-08T08:24:23Z</time>
      </trkpt>
      <trkpt lat="45.567533" lon="23.638523">
        <ele>1669.714</ele>
        <time>2015-02-08T08:24:32Z</time>
      </trkpt>
      <trkpt lat="45.567531" lon="23.638643">
        <ele>1671.608</ele>
        <time>2015-02-08T08:25:12Z</time>
      </trkpt>
      <trkpt lat="45.567546" lon="23.638775">
        <ele>1673.536</ele>
        <time>2015-02-08T08:25:35Z</time>
      </trkpt>
      <trkpt lat="45.567603" lon="23.638943">
        <ele>1675.572</ele>
        <time>2015-02-08T08:26:35Z</time>
      </trkpt>
      <trkpt lat="45.567641" lon="23.639046">
        <ele>1677.485</ele>
        <time>2015-02-08T08:26:52Z</time>
      </trkpt>
      <trkpt lat="45.567711" lon="23.639128">
        <ele>1680.444</ele>
        <time>2015-02-08T08:27:50Z</time>
      </trkpt>
      <trkpt lat="45.567741" lon="23.639256">
        <ele>1683.459</ele>
        <time>2015-02-08T08:28:20Z</time>
      </trkpt>
      <trkpt lat="45.567788" lon="23.639363">
        <ele>1686.432</ele>
        <time>2015-02-08T08:28:35Z</time>
      </trkpt>
      <trkpt lat="45.567851" lon="23.639439">
        <ele>1688.394</ele>
        <time>2015-02-08T08:28:49Z</time>
      </trkpt>
      <trkpt lat="45.567795" lon="23.639570">
        <ele>1688.360</ele>
        <time>2015-02-08T08:30:15Z</time>
      </trkpt>
      <trkpt lat="45.567826" lon="23.639715">
        <ele>1688.383</ele>
        <time>2015-02-08T08:30:39Z</time>
      </trkpt>
      <trkpt lat="45.567753" lon="23.639796">
        <ele>1689.425</ele>
        <time>2015-02-08T08:31:36Z</time>
      </trkpt>
      <trkpt lat="45.567628" lon="23.639698">
        <ele>1690.517</ele>
        <time>2015-02-08T08:33:28Z</time>
      </trkpt>
      <trkpt lat="45.567578" lon="23.639598">
        <ele>1691.508</ele>
        <time>2015-02-08T08:33:47Z</time>
      </trkpt>
      <trkpt lat="45.567511" lon="23.639531">
        <ele>1692.659</ele>
        <time>2015-02-08T08:34:00Z</time>
      </trkpt>
      <trkpt lat="45.567428" lon="23.639545">
        <ele>1693.765</ele>
        <time>2015-02-08T08:34:19Z</time>
      </trkpt>
      <trkpt lat="45.567368" lon="23.639698">
        <ele>1693.768</ele>
        <time>2015-02-08T08:36:02Z</time>
      </trkpt>
      <trkpt lat="45.567281" lon="23.639854">
        <ele>1693.717</ele>
        <time>2015-02-08T08:37:10Z</time>
      </trkpt>
      <trkpt lat="45.567256" lon="23.640001">
        <ele>1694.752</ele>
        <time>2015-02-08T08:37:59Z</time>
      </trkpt>
      <trkpt lat="45.567203" lon="23.640093">
        <ele>1696.825</ele>
        <time>2015-02-08T08:38:21Z</time>
      </trkpt>
      <trkpt lat="45.567145" lon="23.640193">
        <ele>1698.947</ele>
        <time>2015-02-08T08:38:37Z</time>
      </trkpt>
      <trkpt lat="45.567083" lon="23.640288">
        <ele>1701.013</ele>
        <time>2015-02-08T08:39:42Z</time>
      </trkpt>
      <trkpt lat="45.567033" lon="23.640420">
        <ele>1702.081</ele>
        <time>2015-02-08T08:40:09Z</time>
      </trkpt>
      <trkpt lat="45.567003" lon="23.640531">
        <ele>1703.061</ele>
        <time>2015-02-08T08:40:22Z</time>
      </trkpt>
      <trkpt lat="45.566968" lon="23.640645">
        <ele>1704.017</ele>
        <time>2015-02-08T08:41:46Z</time>
      </trkpt>
      <trkpt lat="45.566981" lon="23.640760">
        <ele>1705.308</ele>
        <time>2015-02-08T08:41:59Z</time>
      </trkpt>
      <trkpt lat="45.566978" lon="23.640883">
        <ele>1706.539</ele>
        <time>2015-02-08T08:42:21Z</time>
      </trkpt>
      <trkpt lat="45.566963" lon="23.640998">
        <ele>1707.845</ele>
        <time>2015-02-08T08:42:39Z</time>
      </trkpt>
      <trkpt lat="45.566919" lon="23.641135">
        <ele>1710.078</ele>
        <time>2015-02-08T08:44:41Z</time>
      </trkpt>
      <trkpt lat="45.566876" lon="23.641235">
        <ele>1711.237</ele>
        <time>2015-02-08T08:45:02Z</time>
      </trkpt>
      <trkpt lat="45.566850" lon="23.641346">
        <ele>1712.452</ele>
        <time>2015-02-08T08:45:20Z</time>
      </trkpt>
      <trkpt lat="45.566950" lon="23.641428">
        <ele>1713.535</ele>
        <time>2015-02-08T08:47:09Z</time>
      </trkpt>
      <trkpt lat="45.567040" lon="23.641471">
        <ele>1714.737</ele>
        <time>2015-02-08T08:47:48Z</time>
      </trkpt>
      <trkpt lat="45.567133" lon="23.641544">
        <ele>1715.943</ele>
        <time>2015-02-08T08:50:45Z</time>
      </trkpt>
      <trkpt lat="45.567166" lon="23.641651">
        <ele>1717.129</ele>
        <time>2015-02-08T08:51:35Z</time>
      </trkpt>
      <trkpt lat="45.567165" lon="23.641521">
        <ele>1718.300</ele>
        <time>2015-02-08T08:53:13Z</time>
      </trkpt>
      <trkpt lat="45.567230" lon="23.641444">
        <ele>1719.220</ele>
        <time>2015-02-08T08:53:36Z</time>
      </trkpt>
      <trkpt lat="45.567311" lon="23.641444">
        <ele>1720.108</ele>
        <time>2015-02-08T08:54:11Z</time>
      </trkpt>
      <trkpt lat="45.567221" lon="23.641430">
        <ele>1721.083</ele>
        <time>2015-02-08T08:56:06Z</time>
      </trkpt>
      <trkpt lat="45.567303" lon="23.641454">
        <ele>1721.079</ele>
        <time>2015-02-08T08:56:30Z</time>
      </trkpt>
      <trkpt lat="45.567410" lon="23.641533">
        <ele>1721.542</ele>
        <time>2015-02-08T08:59:23Z</time>
      </trkpt>
      <trkpt lat="45.567461" lon="23.641638">
        <ele>1721.981</ele>
        <time>2015-02-08T08:59:54Z</time>
      </trkpt>
      <trkpt lat="45.567500" lon="23.641746">
        <ele>1722.466</ele>
        <time>2015-02-08T09:00:05Z</time>
      </trkpt>
      <trkpt lat="45.567531" lon="23.641863">
        <ele>1722.819</ele>
        <time>2015-02-08T09:00:21Z</time>
      </trkpt>
      <trkpt lat="45.567525" lon="23.642009">
        <ele>1723.351</ele>
        <time>2015-02-08T09:00:48Z</time>
      </trkpt>
      <trkpt lat="45.567521" lon="23.642128">
        <ele>1723.737</ele>
        <time>2015-02-08T09:01:35Z</time>
      </trkpt>
      <trkpt lat="45.567481" lon="23.642230">
        <ele>1724.212</ele>
        <time>2015-02-08T09:01:54Z</time>
      </trkpt>
      <trkpt lat="45.567448" lon="23.642348">
        <ele>1724.632</ele>
        <time>2015-02-08T09:02:45Z</time>
      </trkpt>
      <trkpt lat="45.567468" lon="23.642466">
        <ele>1725.105</ele>
        <time>2015-02-08T09:02:59Z</time>
      </trkpt>
      <trkpt lat="45.567488" lon="23.642580">
        <ele>1725.508</ele>
        <time>2015-02-08T09:03:14Z</time>
      </trkpt>
      <trkpt lat="45.567503" lon="23.642698">
        <ele>1726.052</ele>
        <time>2015-02-08T09:03:31Z</time>
      </trkpt>
      <trkpt lat="45.567508" lon="23.642819">
        <ele>1726.058</ele>
        <time>2015-02-08T09:03:49Z</time>
      </trkpt>
      <trkpt lat="45.567539" lon="23.642956">
        <ele>1726.061</ele>
        <time>2015-02-08T09:04:13Z</time>
      </trkpt>
      <trkpt lat="45.567620" lon="23.642998">
        <ele>1726.060</ele>
        <time>2015-02-08T09:05:09Z</time>
      </trkpt>
      <trkpt lat="45.567658" lon="23.643114">
        <ele>1726.025</ele>
        <time>2015-02-08T09:05:34Z</time>
      </trkpt>
      <trkpt lat="45.567683" lon="23.643228">
        <ele>1725.758</ele>
        <time>2015-02-08T09:05:54Z</time>
      </trkpt>
      <trkpt lat="45.567716" lon="23.643335">
        <ele>1725.520</ele>
        <time>2015-02-08T09:06:16Z</time>
      </trkpt>
      <trkpt lat="45.567793" lon="23.643486">
        <ele>1725.226</ele>
        <time>2015-02-08T09:06:52Z</time>
      </trkpt>
      <trkpt lat="45.567885" lon="23.643684">
        <ele>1724.957</ele>
        <time>2015-02-08T09:07:43Z</time>
      </trkpt>
      <trkpt lat="45.567905" lon="23.643804">
        <ele>1724.700</ele>
        <time>2015-02-08T09:08:09Z</time>
      </trkpt>
      <trkpt lat="45.567936" lon="23.643918">
        <ele>1724.520</ele>
        <time>2015-02-08T09:08:26Z</time>
      </trkpt>
      <trkpt lat="45.567959" lon="23.644031">
        <ele>1724.408</ele>
        <time>2015-02-08T09:08:46Z</time>
      </trkpt>
      <trkpt lat="45.567980" lon="23.644170">
        <ele>1724.126</ele>
        <time>2015-02-08T09:09:18Z</time>
      </trkpt>
      <trkpt lat="45.567950" lon="23.644281">
        <ele>1723.812</ele>
        <time>2015-02-08T09:09:36Z</time>
      </trkpt>
      <trkpt lat="45.567906" lon="23.644380">
        <ele>1723.525</ele>
        <time>2015-02-08T09:09:48Z</time>
      </trkpt>
      <trkpt lat="45.567843" lon="23.644465">
        <ele>1723.314</ele>
        <time>2015-02-08T09:10:32Z</time>
      </trkpt>
      <trkpt lat="45.567865" lon="23.644624">
        <ele>1723.349</ele>
        <time>2015-02-08T09:11:11Z</time>
      </trkpt>
      <trkpt lat="45.567924" lon="23.644729">
        <ele>1723.312</ele>
        <time>2015-02-08T09:11:35Z</time>
      </trkpt>
      <trkpt lat="45.567975" lon="23.644833">
        <ele>1723.374</ele>
        <time>2015-02-08T09:13:59Z</time>
      </trkpt>
      <trkpt lat="45.568036" lon="23.644916">
        <ele>1723.330</ele>
        <time>2015-02-08T09:14:13Z</time>
      </trkpt>
      <trkpt lat="45.568100" lon="23.644991">
        <ele>1723.294</ele>
        <time>2015-02-08T09:14:28Z</time>
      </trkpt>
      <trkpt lat="45.567991" lon="23.645003">
        <ele>1723.057</ele>
        <time>2015-02-08T09:15:22Z</time>
      </trkpt>
      <trkpt lat="45.567958" lon="23.645115">
        <ele>1723.022</ele>
        <time>2015-02-08T09:15:35Z</time>
      </trkpt>
      <trkpt lat="45.567985" lon="23.645226">
        <ele>1723.108</ele>
        <time>2015-02-08T09:15:50Z</time>
      </trkpt>
      <trkpt lat="45.568001" lon="23.645343">
        <ele>1723.220</ele>
        <time>2015-02-08T09:16:13Z</time>
      </trkpt>
      <trkpt lat="45.567975" lon="23.645456">
        <ele>1723.366</ele>
        <time>2015-02-08T09:16:42Z</time>
      </trkpt>
      <trkpt lat="45.567940" lon="23.645568">
        <ele>1723.449</ele>
        <time>2015-02-08T09:17:40Z</time>
      </trkpt>
      <trkpt lat="45.567824" lon="23.645688">
        <ele>1723.528</ele>
        <time>2015-02-08T09:18:49Z</time>
      </trkpt>
      <trkpt lat="45.567743" lon="23.645671">
        <ele>1723.513</ele>
        <time>2015-02-08T09:19:53Z</time>
      </trkpt>
      <trkpt lat="45.567658" lon="23.645685">
        <ele>1723.636</ele>
        <time>2015-02-08T09:20:09Z</time>
      </trkpt>
      <trkpt lat="45.567629" lon="23.645793">
        <ele>1723.728</ele>
        <time>2015-02-08T09:20:32Z</time>
      </trkpt>
      <trkpt lat="45.567643" lon="23.645908">
        <ele>1724.244</ele>
        <time>2015-02-08T09:20:51Z</time>
      </trkpt>
      <trkpt lat="45.567573" lon="23.645985">
        <ele>1724.747</ele>
        <time>2015-02-08T09:23:34Z</time>
      </trkpt>
      <trkpt lat="45.567528" lon="23.646086">
        <ele>1725.129</ele>
        <time>2015-02-08T09:23:45Z</time>
      </trkpt>
      <trkpt lat="45.567493" lon="23.646193">
        <ele>1725.521</ele>
        <time>2015-02-08T09:24:04Z</time>
      </trkpt>
      <trkpt lat="45.567471" lon="23.646326">
        <ele>1725.808</ele>
        <time>2015-02-08T09:24:23Z</time>
      </trkpt>
      <trkpt lat="45.567468" lon="23.646446">
        <ele>1726.245</ele>
        <time>2015-02-08T09:24:40Z</time>
      </trkpt>
      <trkpt lat="45.567466" lon="23.646566">
        <ele>1726.531</ele>
        <time>2015-02-08T09:25:04Z</time>
      </trkpt>
      <trkpt lat="45.567453" lon="23.646686">
        <ele>1727.384</ele>
        <time>2015-02-08T09:25:22Z</time>
      </trkpt>
      <trkpt lat="45.567453" lon="23.646806">
        <ele>1728.093</ele>
        <time>2015-02-08T09:25:39Z</time>
      </trkpt>
      <trkpt lat="45.567413" lon="23.646913">
        <ele>1728.728</ele>
        <time>2015-02-08T09:25:55Z</time>
      </trkpt>
      <trkpt lat="45.567434" lon="23.647028">
        <ele>1729.511</ele>
        <time>2015-02-08T09:26:20Z</time>
      </trkpt>
      <trkpt lat="45.567410" lon="23.647145">
        <ele>1729.843</ele>
        <time>2015-02-08T09:26:34Z</time>
      </trkpt>
      <trkpt lat="45.567411" lon="23.647266">
        <ele>1730.269</ele>
        <time>2015-02-08T09:26:49Z</time>
      </trkpt>
      <trkpt lat="45.567383" lon="23.647396">
        <ele>1730.559</ele>
        <time>2015-02-08T09:27:08Z</time>
      </trkpt>
      <trkpt lat="45.567368" lon="23.647511">
        <ele>1730.903</ele>
        <time>2015-02-08T09:27:26Z</time>
      </trkpt>
      <trkpt lat="45.567338" lon="23.647626">
        <ele>1731.323</ele>
        <time>2015-02-08T09:27:47Z</time>
      </trkpt>
      <trkpt lat="45.567238" lon="23.647655">
        <ele>1731.608</ele>
        <time>2015-02-08T09:35:43Z</time>
      </trkpt>
      <trkpt lat="45.567243" lon="23.647778">
        <ele>1732.076</ele>
        <time>2015-02-08T09:41:25Z</time>
      </trkpt>
      <trkpt lat="45.567265" lon="23.647901">
        <ele>1732.072</ele>
        <time>2015-02-08T09:41:40Z</time>
      </trkpt>
      <trkpt lat="45.567311" lon="23.648003">
        <ele>1732.075</ele>
        <time>2015-02-08T09:41:50Z</time>
      </trkpt>
      <trkpt lat="45.567346" lon="23.648108">
        <ele>1732.054</ele>
        <time>2015-02-08T09:42:02Z</time>
      </trkpt>
      <trkpt lat="45.567380" lon="23.648220">
        <ele>1732.049</ele>
        <time>2015-02-08T09:42:17Z</time>
      </trkpt>
      <trkpt lat="45.567408" lon="23.648330">
        <ele>1731.962</ele>
        <time>2015-02-08T09:42:32Z</time>
      </trkpt>
      <trkpt lat="45.567448" lon="23.648433">
        <ele>1731.834</ele>
        <time>2015-02-08T09:42:48Z</time>
      </trkpt>
      <trkpt lat="45.567451" lon="23.648550">
        <ele>1731.770</ele>
        <time>2015-02-08T09:43:31Z</time>
      </trkpt>
      <trkpt lat="45.567496" lon="23.648653">
        <ele>1731.694</ele>
        <time>2015-02-08T09:43:54Z</time>
      </trkpt>
      <trkpt lat="45.567531" lon="23.648761">
        <ele>1731.557</ele>
        <time>2015-02-08T09:44:05Z</time>
      </trkpt>
      <trkpt lat="45.567570" lon="23.648868">
        <ele>1731.522</ele>
        <time>2015-02-08T09:44:19Z</time>
      </trkpt>
      <trkpt lat="45.567596" lon="23.648985">
        <ele>1731.408</ele>
        <time>2015-02-08T09:44:41Z</time>
      </trkpt>
      <trkpt lat="45.567578" lon="23.649098">
        <ele>1731.260</ele>
        <time>2015-02-08T09:45:00Z</time>
      </trkpt>
      <trkpt lat="45.567605" lon="23.649213">
        <ele>1731.016</ele>
        <time>2015-02-08T09:45:12Z</time>
      </trkpt>
      <trkpt lat="45.567608" lon="23.649330">
        <ele>1730.849</ele>
        <time>2015-02-08T09:45:24Z</time>
      </trkpt>
      <trkpt lat="45.567633" lon="23.649446">
        <ele>1730.798</ele>
        <time>2015-02-08T09:45:39Z</time>
      </trkpt>
      <trkpt lat="45.567644" lon="23.649570">
        <ele>1730.733</ele>
        <time>2015-02-08T09:45:56Z</time>
      </trkpt>
      <trkpt lat="45.567661" lon="23.649686">
        <ele>1730.766</ele>
        <time>2015-02-08T09:46:06Z</time>
      </trkpt>
      <trkpt lat="45.567660" lon="23.649803">
        <ele>1730.778</ele>
        <time>2015-02-08T09:46:19Z</time>
      </trkpt>
      <trkpt lat="45.567650" lon="23.649683">
        <ele>1730.744</ele>
        <time>2015-02-08T09:57:13Z</time>
      </trkpt>
      <trkpt lat="45.567629" lon="23.649561">
        <ele>1730.778</ele>
        <time>2015-02-08T09:57:23Z</time>
      </trkpt>
      <trkpt lat="45.567608" lon="23.649439">
        <ele>1730.733</ele>
        <time>2015-02-08T09:57:42Z</time>
      </trkpt>
      <trkpt lat="45.567598" lon="23.649321">
        <ele>1730.826</ele>
        <time>2015-02-08T09:57:51Z</time>
      </trkpt>
      <trkpt lat="45.567586" lon="23.649196">
        <ele>1731.008</ele>
        <time>2015-02-08T09:58:01Z</time>
      </trkpt>
      <trkpt lat="45.567576" lon="23.649075">
        <ele>1731.268</ele>
        <time>2015-02-08T09:58:11Z</time>
      </trkpt>
      <trkpt lat="45.567571" lon="23.648955">
        <ele>1731.454</ele>
        <time>2015-02-08T09:58:24Z</time>
      </trkpt>
      <trkpt lat="45.567543" lon="23.648831">
        <ele>1731.547</ele>
        <time>2015-02-08T09:58:43Z</time>
      </trkpt>
      <trkpt lat="45.567508" lon="23.648723">
        <ele>1731.516</ele>
        <time>2015-02-08T09:58:55Z</time>
      </trkpt>
      <trkpt lat="45.567463" lon="23.648618">
        <ele>1731.681</ele>
        <time>2015-02-08T09:59:05Z</time>
      </trkpt>
      <trkpt lat="45.567436" lon="23.648508">
        <ele>1731.774</ele>
        <time>2015-02-08T09:59:17Z</time>
      </trkpt>
      <trkpt lat="45.567413" lon="23.648396">
        <ele>1731.866</ele>
        <time>2015-02-08T09:59:27Z</time>
      </trkpt>
      <trkpt lat="45.567373" lon="23.648293">
        <ele>1731.962</ele>
        <time>2015-02-08T09:59:37Z</time>
      </trkpt>
      <trkpt lat="45.567335" lon="23.648183">
        <ele>1732.068</ele>
        <time>2015-02-08T09:59:49Z</time>
      </trkpt>
      <trkpt lat="45.567296" lon="23.648066">
        <ele>1732.042</ele>
        <time>2015-02-08T10:00:00Z</time>
      </trkpt>
      <trkpt lat="45.567260" lon="23.647949">
        <ele>1732.026</ele>
        <time>2015-02-08T10:00:07Z</time>
      </trkpt>
      <trkpt lat="45.567223" lon="23.647838">
        <ele>1732.008</ele>
        <time>2015-02-08T10:00:18Z</time>
      </trkpt>
      <trkpt lat="45.567246" lon="23.647726">
        <ele>1731.657</ele>
        <time>2015-02-08T10:00:33Z</time>
      </trkpt>
      <trkpt lat="45.567271" lon="23.647613">
        <ele>1731.363</ele>
        <time>2015-02-08T10:00:46Z</time>
      </trkpt>
      <trkpt lat="45.567296" lon="23.647503">
        <ele>1730.956</ele>
        <time>2015-02-08T10:01:01Z</time>
      </trkpt>
      <trkpt lat="45.567314" lon="23.647390">
        <ele>1730.515</ele>
        <time>2015-02-08T10:01:17Z</time>
      </trkpt>
      <trkpt lat="45.567323" lon="23.647268">
        <ele>1730.280</ele>
        <time>2015-02-08T10:01:28Z</time>
      </trkpt>
      <trkpt lat="45.567333" lon="23.647151">
        <ele>1729.873</ele>
        <time>2015-02-08T10:01:39Z</time>
      </trkpt>
      <trkpt lat="45.567351" lon="23.647030">
        <ele>1729.535</ele>
        <time>2015-02-08T10:01:52Z</time>
      </trkpt>
      <trkpt lat="45.567353" lon="23.646906">
        <ele>1728.781</ele>
        <time>2015-02-08T10:02:04Z</time>
      </trkpt>
      <trkpt lat="45.567380" lon="23.646794">
        <ele>1728.085</ele>
        <time>2015-02-08T10:02:18Z</time>
      </trkpt>
      <trkpt lat="45.567389" lon="23.646676">
        <ele>1727.389</ele>
        <time>2015-02-08T10:02:34Z</time>
      </trkpt>
      <trkpt lat="45.567393" lon="23.646548">
        <ele>1726.517</ele>
        <time>2015-02-08T10:02:45Z</time>
      </trkpt>
      <trkpt lat="45.567401" lon="23.646426">
        <ele>1726.208</ele>
        <time>2015-02-08T10:02:57Z</time>
      </trkpt>
      <trkpt lat="45.567419" lon="23.646310">
        <ele>1725.829</ele>
        <time>2015-02-08T10:03:15Z</time>
      </trkpt>
      <trkpt lat="45.567449" lon="23.646200">
        <ele>1725.555</ele>
        <time>2015-02-08T10:03:29Z</time>
      </trkpt>
      <trkpt lat="45.567483" lon="23.646038">
        <ele>1725.128</ele>
        <time>2015-02-08T10:03:54Z</time>
      </trkpt>
      <trkpt lat="45.567526" lon="23.645931">
        <ele>1724.737</ele>
        <time>2015-02-08T10:04:05Z</time>
      </trkpt>
      <trkpt lat="45.567581" lon="23.645835">
        <ele>1724.422</ele>
        <time>2015-02-08T10:04:18Z</time>
      </trkpt>
      <trkpt lat="45.567564" lon="23.645716">
        <ele>1723.945</ele>
        <time>2015-02-08T10:04:28Z</time>
      </trkpt>
      <trkpt lat="45.567629" lon="23.645645">
        <ele>1723.877</ele>
        <time>2015-02-08T10:04:43Z</time>
      </trkpt>
      <trkpt lat="45.567715" lon="23.645680">
        <ele>1723.743</ele>
        <time>2015-02-08T10:04:53Z</time>
      </trkpt>
      <trkpt lat="45.567803" lon="23.645645">
        <ele>1723.652</ele>
        <time>2015-02-08T10:05:07Z</time>
      </trkpt>
      <trkpt lat="45.567881" lon="23.645591">
        <ele>1723.553</ele>
        <time>2015-02-08T10:05:22Z</time>
      </trkpt>
      <trkpt lat="45.567913" lon="23.645483">
        <ele>1723.508</ele>
        <time>2015-02-08T10:05:56Z</time>
      </trkpt>
      <trkpt lat="45.567921" lon="23.645361">
        <ele>1723.408</ele>
        <time>2015-02-08T10:06:06Z</time>
      </trkpt>
      <trkpt lat="45.567933" lon="23.645245">
        <ele>1723.356</ele>
        <time>2015-02-08T10:06:18Z</time>
      </trkpt>
      <trkpt lat="45.567963" lon="23.645128">
        <ele>1723.342</ele>
        <time>2015-02-08T10:07:01Z</time>
      </trkpt>
      <trkpt lat="45.567971" lon="23.645008">
        <ele>1723.325</ele>
        <time>2015-02-08T10:07:14Z</time>
      </trkpt>
      <trkpt lat="45.567976" lon="23.644890">
        <ele>1723.354</ele>
        <time>2015-02-08T10:07:38Z</time>
      </trkpt>
      <trkpt lat="45.567943" lon="23.644774">
        <ele>1723.469</ele>
        <time>2015-02-08T10:07:49Z</time>
      </trkpt>
      <trkpt lat="45.567863" lon="23.644725">
        <ele>1723.572</ele>
        <time>2015-02-08T10:08:01Z</time>
      </trkpt>
      <trkpt lat="45.567833" lon="23.644583">
        <ele>1723.514</ele>
        <time>2015-02-08T10:09:20Z</time>
      </trkpt>
      <trkpt lat="45.567833" lon="23.644463">
        <ele>1723.670</ele>
        <time>2015-02-08T10:09:30Z</time>
      </trkpt>
      <trkpt lat="45.567873" lon="23.644361">
        <ele>1723.955</ele>
        <time>2015-02-08T10:09:42Z</time>
      </trkpt>
      <trkpt lat="45.567901" lon="23.644253">
        <ele>1724.207</ele>
        <time>2015-02-08T10:09:53Z</time>
      </trkpt>
      <trkpt lat="45.567905" lon="23.644130">
        <ele>1724.517</ele>
        <time>2015-02-08T10:10:06Z</time>
      </trkpt>
      <trkpt lat="45.567901" lon="23.644011">
        <ele>1724.708</ele>
        <time>2015-02-08T10:10:20Z</time>
      </trkpt>
      <trkpt lat="45.567906" lon="23.643890">
        <ele>1724.916</ele>
        <time>2015-02-08T10:10:37Z</time>
      </trkpt>
      <trkpt lat="45.567895" lon="23.643771">
        <ele>1725.182</ele>
        <time>2015-02-08T10:10:53Z</time>
      </trkpt>
      <trkpt lat="45.567861" lon="23.643656">
        <ele>1725.315</ele>
        <time>2015-02-08T10:11:12Z</time>
      </trkpt>
      <trkpt lat="45.567813" lon="23.643560">
        <ele>1725.514</ele>
        <time>2015-02-08T10:11:27Z</time>
      </trkpt>
      <trkpt lat="45.567756" lon="23.643456">
        <ele>1725.679</ele>
        <time>2015-02-08T10:12:17Z</time>
      </trkpt>
      <trkpt lat="45.567708" lon="23.643363">
        <ele>1725.872</ele>
        <time>2015-02-08T10:12:29Z</time>
      </trkpt>
      <trkpt lat="45.567653" lon="23.643273">
        <ele>1726.044</ele>
        <time>2015-02-08T10:12:41Z</time>
      </trkpt>
      <trkpt lat="45.567599" lon="23.643183">
        <ele>1726.010</ele>
        <time>2015-02-08T10:13:03Z</time>
      </trkpt>
      <trkpt lat="45.567545" lon="23.643096">
        <ele>1726.052</ele>
        <time>2015-02-08T10:13:20Z</time>
      </trkpt>
      <trkpt lat="45.567509" lon="23.642990">
        <ele>1726.053</ele>
        <time>2015-02-08T10:13:32Z</time>
      </trkpt>
      <trkpt lat="45.567449" lon="23.642905">
        <ele>1726.008</ele>
        <time>2015-02-08T10:13:44Z</time>
      </trkpt>
      <trkpt lat="45.567466" lon="23.642789">
        <ele>1726.008</ele>
        <time>2015-02-08T10:14:12Z</time>
      </trkpt>
      <trkpt lat="45.567481" lon="23.642675">
        <ele>1725.516</ele>
        <time>2015-02-08T10:14:27Z</time>
      </trkpt>
      <trkpt lat="45.567473" lon="23.642555">
        <ele>1725.172</ele>
        <time>2015-02-08T10:14:41Z</time>
      </trkpt>
      <trkpt lat="45.567456" lon="23.642431">
        <ele>1724.625</ele>
        <time>2015-02-08T10:14:54Z</time>
      </trkpt>
      <trkpt lat="45.567463" lon="23.642308">
        <ele>1724.214</ele>
        <time>2015-02-08T10:15:07Z</time>
      </trkpt>
      <trkpt lat="45.567466" lon="23.642188">
        <ele>1723.759</ele>
        <time>2015-02-08T10:15:19Z</time>
      </trkpt>
      <trkpt lat="45.567478" lon="23.642069">
        <ele>1723.322</ele>
        <time>2015-02-08T10:15:30Z</time>
      </trkpt>
      <trkpt lat="45.567471" lon="23.641938">
        <ele>1722.874</ele>
        <time>2015-02-08T10:15:57Z</time>
      </trkpt>
      <trkpt lat="45.567470" lon="23.641813">
        <ele>1722.470</ele>
        <time>2015-02-08T10:16:08Z</time>
      </trkpt>
      <trkpt lat="45.567446" lon="23.641696">
        <ele>1720.789</ele>
        <time>2015-02-08T10:16:19Z</time>
      </trkpt>
      <trkpt lat="45.567410" lon="23.641593">
        <ele>1719.106</ele>
        <time>2015-02-08T10:16:28Z</time>
      </trkpt>
      <trkpt lat="45.567400" lon="23.641468">
        <ele>1717.526</ele>
        <time>2015-02-08T10:16:36Z</time>
      </trkpt>
      <trkpt lat="45.567333" lon="23.641396">
        <ele>1716.308</ele>
        <time>2015-02-08T10:16:46Z</time>
      </trkpt>
      <trkpt lat="45.567263" lon="23.641330">
        <ele>1715.129</ele>
        <time>2015-02-08T10:16:57Z</time>
      </trkpt>
      <trkpt lat="45.567186" lon="23.641256">
        <ele>1713.955</ele>
        <time>2015-02-08T10:17:08Z</time>
      </trkpt>
      <trkpt lat="45.567155" lon="23.641150">
        <ele>1712.748</ele>
        <time>2015-02-08T10:17:19Z</time>
      </trkpt>
      <trkpt lat="45.567108" lon="23.641051">
        <ele>1711.537</ele>
        <time>2015-02-08T10:17:32Z</time>
      </trkpt>
      <trkpt lat="45.567118" lon="23.640931">
        <ele>1710.482</ele>
        <time>2015-02-08T10:18:48Z</time>
      </trkpt>
      <trkpt lat="45.567123" lon="23.640810">
        <ele>1708.295</ele>
        <time>2015-02-08T10:19:17Z</time>
      </trkpt>
      <trkpt lat="45.567058" lon="23.640733">
        <ele>1706.027</ele>
        <time>2015-02-08T10:19:28Z</time>
      </trkpt>
      <trkpt lat="45.566971" lon="23.640673">
        <ele>1705.023</ele>
        <time>2015-02-08T10:19:55Z</time>
      </trkpt>
      <trkpt lat="45.566921" lon="23.640580">
        <ele>1704.093</ele>
        <time>2015-02-08T10:20:14Z</time>
      </trkpt>
      <trkpt lat="45.566938" lon="23.640465">
        <ele>1703.065</ele>
        <time>2015-02-08T10:20:27Z</time>
      </trkpt>
      <trkpt lat="45.566961" lon="23.640346">
        <ele>1702.021</ele>
        <time>2015-02-08T10:20:46Z</time>
      </trkpt>
      <trkpt lat="45.566986" lon="23.640229">
        <ele>1701.008</ele>
        <time>2015-02-08T10:21:06Z</time>
      </trkpt>
      <trkpt lat="45.567048" lon="23.640146">
        <ele>1700.070</ele>
        <time>2015-02-08T10:21:21Z</time>
      </trkpt>
      <trkpt lat="45.567111" lon="23.640066">
        <ele>1697.976</ele>
        <time>2015-02-08T10:21:33Z</time>
      </trkpt>
      <trkpt lat="45.567168" lon="23.639976">
        <ele>1695.879</ele>
        <time>2015-02-08T10:21:46Z</time>
      </trkpt>
      <trkpt lat="45.567188" lon="23.639861">
        <ele>1693.738</ele>
        <time>2015-02-08T10:22:00Z</time>
      </trkpt>
      <trkpt lat="45.567211" lon="23.639746">
        <ele>1692.643</ele>
        <time>2015-02-08T10:22:13Z</time>
      </trkpt>
      <trkpt lat="45.567266" lon="23.639658">
        <ele>1691.586</ele>
        <time>2015-02-08T10:22:24Z</time>
      </trkpt>
      <trkpt lat="45.567296" lon="23.639545">
        <ele>1691.578</ele>
        <time>2015-02-08T10:22:37Z</time>
      </trkpt>
      <trkpt lat="45.567353" lon="23.639460">
        <ele>1691.594</ele>
        <time>2015-02-08T10:22:50Z</time>
      </trkpt>
      <trkpt lat="45.567436" lon="23.639456">
        <ele>1691.543</ele>
        <time>2015-02-08T10:23:01Z</time>
      </trkpt>
      <trkpt lat="45.567513" lon="23.639508">
        <ele>1690.564</ele>
        <time>2015-02-08T10:23:13Z</time>
      </trkpt>
      <trkpt lat="45.567588" lon="23.639566">
        <ele>1689.410</ele>
        <time>2015-02-08T10:23:24Z</time>
      </trkpt>
      <trkpt lat="45.567663" lon="23.639633">
        <ele>1688.308</ele>
        <time>2015-02-08T10:23:33Z</time>
      </trkpt>
      <trkpt lat="45.567741" lon="23.639671">
        <ele>1688.355</ele>
        <time>2015-02-08T10:23:40Z</time>
      </trkpt>
      <trkpt lat="45.567824" lon="23.639691">
        <ele>1688.331</ele>
        <time>2015-02-08T10:26:23Z</time>
      </trkpt>
      <trkpt lat="45.567830" lon="23.639518">
        <ele>1688.314</ele>
        <time>2015-02-08T10:27:22Z</time>
      </trkpt>
      <trkpt lat="45.567836" lon="23.639398">
        <ele>1688.323</ele>
        <time>2015-02-08T10:27:35Z</time>
      </trkpt>
      <trkpt lat="45.567773" lon="23.639300">
        <ele>1686.428</ele>
        <time>2015-02-08T10:27:43Z</time>
      </trkpt>
      <trkpt lat="45.567736" lon="23.639190">
        <ele>1683.441</ele>
        <time>2015-02-08T10:27:58Z</time>
      </trkpt>
      <trkpt lat="45.567680" lon="23.639101">
        <ele>1680.423</ele>
        <time>2015-02-08T10:28:09Z</time>
      </trkpt>
      <trkpt lat="45.567623" lon="23.639015">
        <ele>1677.489</ele>
        <time>2015-02-08T10:28:21Z</time>
      </trkpt>
      <trkpt lat="45.567571" lon="23.638911">
        <ele>1675.538</ele>
        <time>2015-02-08T10:28:33Z</time>
      </trkpt>
      <trkpt lat="45.567535" lon="23.638800">
        <ele>1673.570</ele>
        <time>2015-02-08T10:28:47Z</time>
      </trkpt>
      <trkpt lat="45.567519" lon="23.638685">
        <ele>1671.617</ele>
        <time>2015-02-08T10:29:00Z</time>
      </trkpt>
      <trkpt lat="45.567548" lon="23.638566">
        <ele>1669.708</ele>
        <time>2015-02-08T10:29:09Z</time>
      </trkpt>
      <trkpt lat="45.567568" lon="23.638440">
        <ele>1667.884</ele>
        <time>2015-02-08T10:29:21Z</time>
      </trkpt>
      <trkpt lat="45.567633" lon="23.638356">
        <ele>1663.770</ele>
        <time>2015-02-08T10:29:31Z</time>
      </trkpt>
      <trkpt lat="45.567721" lon="23.638331">
        <ele>1659.623</ele>
        <time>2015-02-08T10:29:38Z</time>
      </trkpt>
      <trkpt lat="45.567764" lon="23.638223">
        <ele>1657.592</ele>
        <time>2015-02-08T10:29:53Z</time>
      </trkpt>
      <trkpt lat="45.567806" lon="23.638120">
        <ele>1655.387</ele>
        <time>2015-02-08T10:30:08Z</time>
      </trkpt>
      <trkpt lat="45.567845" lon="23.637996">
        <ele>1653.180</ele>
        <time>2015-02-08T10:30:54Z</time>
      </trkpt>
      <trkpt lat="45.567809" lon="23.637880">
        <ele>1650.982</ele>
        <time>2015-02-08T10:31:03Z</time>
      </trkpt>
      <trkpt lat="45.567783" lon="23.637695">
        <ele>1648.768</ele>
        <time>2015-02-08T10:32:05Z</time>
      </trkpt>
      <trkpt lat="45.567734" lon="23.637590">
        <ele>1644.213</ele>
        <time>2015-02-08T10:32:13Z</time>
      </trkpt>
      <trkpt lat="45.567725" lon="23.637470">
        <ele>1639.643</ele>
        <time>2015-02-08T10:32:23Z</time>
      </trkpt>
      <trkpt lat="45.567689" lon="23.637343">
        <ele>1635.107</ele>
        <time>2015-02-08T10:32:41Z</time>
      </trkpt>
      <trkpt lat="45.567616" lon="23.637281">
        <ele>1630.508</ele>
        <time>2015-02-08T10:32:52Z</time>
      </trkpt>
      <trkpt lat="45.567536" lon="23.637231">
        <ele>1628.282</ele>
        <time>2015-02-08T10:33:00Z</time>
      </trkpt>
      <trkpt lat="45.567485" lon="23.637131">
        <ele>1625.838</ele>
        <time>2015-02-08T10:33:15Z</time>
      </trkpt>
      <trkpt lat="45.567426" lon="23.637026">
        <ele>1623.521</ele>
        <time>2015-02-08T10:33:35Z</time>
      </trkpt>
      <trkpt lat="45.567441" lon="23.636911">
        <ele>1621.190</ele>
        <time>2015-02-08T10:33:51Z</time>
      </trkpt>
      <trkpt lat="45.567468" lon="23.636798">
        <ele>1618.715</ele>
        <time>2015-02-08T10:34:06Z</time>
      </trkpt>
      <trkpt lat="45.567471" lon="23.636678">
        <ele>1616.468</ele>
        <time>2015-02-08T10:34:20Z</time>
      </trkpt>
      <trkpt lat="45.567551" lon="23.636621">
        <ele>1613.550</ele>
        <time>2015-02-08T10:34:33Z</time>
      </trkpt>
      <trkpt lat="45.567608" lon="23.636523">
        <ele>1613.156</ele>
        <time>2015-02-08T10:34:43Z</time>
      </trkpt>
      <trkpt lat="45.567689" lon="23.636488">
        <ele>1610.393</ele>
        <time>2015-02-08T10:34:52Z</time>
      </trkpt>
      <trkpt lat="45.567771" lon="23.636468">
        <ele>1607.565</ele>
        <time>2015-02-08T10:35:08Z</time>
      </trkpt>
      <trkpt lat="45.567854" lon="23.636464">
        <ele>1604.621</ele>
        <time>2015-02-08T10:35:19Z</time>
      </trkpt>
      <trkpt lat="45.567936" lon="23.636445">
        <ele>1601.808</ele>
        <time>2015-02-08T10:35:26Z</time>
      </trkpt>
      <trkpt lat="45.567985" lon="23.636350">
        <ele>1599.080</ele>
        <time>2015-02-08T10:35:36Z</time>
      </trkpt>
      <trkpt lat="45.568016" lon="23.636238">
        <ele>1596.276</ele>
        <time>2015-02-08T10:35:47Z</time>
      </trkpt>
      <trkpt lat="45.568033" lon="23.636108">
        <ele>1593.469</ele>
        <time>2015-02-08T10:36:07Z</time>
      </trkpt>
      <trkpt lat="45.568075" lon="23.635988">
        <ele>1588.448</ele>
        <time>2015-02-08T10:36:35Z</time>
      </trkpt>
      <trkpt lat="45.568098" lon="23.635870">
        <ele>1583.483</ele>
        <time>2015-02-08T10:36:49Z</time>
      </trkpt>
      <trkpt lat="45.568149" lon="23.635770">
        <ele>1578.856</ele>
        <time>2015-02-08T10:37:02Z</time>
      </trkpt>
      <trkpt lat="45.568160" lon="23.635648">
        <ele>1574.388</ele>
        <time>2015-02-08T10:37:12Z</time>
      </trkpt>
      <trkpt lat="45.568181" lon="23.635531">
        <ele>1572.164</ele>
        <time>2015-02-08T10:37:25Z</time>
      </trkpt>
      <trkpt lat="45.568228" lon="23.635434">
        <ele>1569.995</ele>
        <time>2015-02-08T10:37:37Z</time>
      </trkpt>
      <trkpt lat="45.568203" lon="23.635325">
        <ele>1567.749</ele>
        <time>2015-02-08T10:37:50Z</time>
      </trkpt>
      <trkpt lat="45.568180" lon="23.635158">
        <ele>1565.523</ele>
        <time>2015-02-08T10:39:41Z</time>
      </trkpt>
      <trkpt lat="45.568226" lon="23.635063">
        <ele>1561.508</ele>
        <time>2015-02-08T10:40:01Z</time>
      </trkpt>
      <trkpt lat="45.568258" lon="23.634953">
        <ele>1557.480</ele>
        <time>2015-02-08T10:40:13Z</time>
      </trkpt>
      <trkpt lat="45.568290" lon="23.634845">
        <ele>1553.396</ele>
        <time>2015-02-08T10:40:25Z</time>
      </trkpt>
      <trkpt lat="45.568386" lon="23.634790">
        <ele>1551.419</ele>
        <time>2015-02-08T10:41:21Z</time>
      </trkpt>
      <trkpt lat="45.568456" lon="23.634728">
        <ele>1549.558</ele>
        <time>2015-02-08T10:41:40Z</time>
      </trkpt>
      <trkpt lat="45.568505" lon="23.634620">
        <ele>1547.583</ele>
        <time>2015-02-08T10:41:51Z</time>
      </trkpt>
      <trkpt lat="45.568505" lon="23.634488">
        <ele>1545.696</ele>
        <time>2015-02-08T10:41:57Z</time>
      </trkpt>
      <trkpt lat="45.568515" lon="23.634343">
        <ele>1543.798</ele>
        <time>2015-02-08T10:42:30Z</time>
      </trkpt>
      <trkpt lat="45.568470" lon="23.634243">
        <ele>1539.814</ele>
        <time>2015-02-08T10:42:39Z</time>
      </trkpt>
      <trkpt lat="45.568505" lon="23.634138">
        <ele>1535.991</ele>
        <time>2015-02-08T10:42:49Z</time>
      </trkpt>
      <trkpt lat="45.568583" lon="23.634103">
        <ele>1532.081</ele>
        <time>2015-02-08T10:42:57Z</time>
      </trkpt>
      <trkpt lat="45.568623" lon="23.633996">
        <ele>1530.019</ele>
        <time>2015-02-08T10:43:11Z</time>
      </trkpt>
      <trkpt lat="45.568708" lon="23.633928">
        <ele>1528.008</ele>
        <time>2015-02-08T10:43:26Z</time>
      </trkpt>
      <trkpt lat="45.568641" lon="23.633851">
        <ele>1526.090</ele>
        <time>2015-02-08T10:43:32Z</time>
      </trkpt>
      <trkpt lat="45.568610" lon="23.633739">
        <ele>1524.016</ele>
        <time>2015-02-08T10:43:46Z</time>
      </trkpt>
      <trkpt lat="45.568580" lon="23.633630">
        <ele>1522.029</ele>
        <time>2015-02-08T10:43:56Z</time>
      </trkpt>
      <trkpt lat="45.568531" lon="23.633515">
        <ele>1520.018</ele>
        <time>2015-02-08T10:44:06Z</time>
      </trkpt>
      <trkpt lat="45.568508" lon="23.633386">
        <ele>1516.373</ele>
        <time>2015-02-08T10:44:23Z</time>
      </trkpt>
      <trkpt lat="45.568556" lon="23.633270">
        <ele>1512.566</ele>
        <time>2015-02-08T10:44:35Z</time>
      </trkpt>
      <trkpt lat="45.568641" lon="23.633230">
        <ele>1509.668</ele>
        <time>2015-02-08T10:44:43Z</time>
      </trkpt>
      <trkpt lat="45.568721" lon="23.633196">
        <ele>1506.784</ele>
        <time>2015-02-08T10:45:03Z</time>
      </trkpt>
      <trkpt lat="45.568709" lon="23.633080">
        <ele>1503.823</ele>
        <time>2015-02-08T10:45:14Z</time>
      </trkpt>
      <trkpt lat="45.568663" lon="23.632985">
        <ele>1500.983</ele>
        <time>2015-02-08T10:45:20Z</time>
      </trkpt>
      <trkpt lat="45.568668" lon="23.632861">
        <ele>1498.011</ele>
        <time>2015-02-08T10:45:36Z</time>
      </trkpt>
      <trkpt lat="45.568760" lon="23.632855">
        <ele>1495.108</ele>
        <time>2015-02-08T10:45:43Z</time>
      </trkpt>
      <trkpt lat="45.568831" lon="23.632910">
        <ele>1492.293</ele>
        <time>2015-02-08T10:45:55Z</time>
      </trkpt>
      <trkpt lat="45.568863" lon="23.632785">
        <ele>1489.339</ele>
        <time>2015-02-08T10:46:19Z</time>
      </trkpt>
      <trkpt lat="45.568913" lon="23.632693">
        <ele>1486.452</ele>
        <time>2015-02-08T10:46:30Z</time>
      </trkpt>
      <trkpt lat="45.568948" lon="23.632583">
        <ele>1483.921</ele>
        <time>2015-02-08T10:46:43Z</time>
      </trkpt>
      <trkpt lat="45.569016" lon="23.632511">
        <ele>1481.556</ele>
        <time>2015-02-08T10:47:02Z</time>
      </trkpt>
      <trkpt lat="45.569043" lon="23.632400">
        <ele>1480.259</ele>
        <time>2015-02-08T10:49:16Z</time>
      </trkpt>
      <trkpt lat="45.569080" lon="23.632288">
        <ele>1478.991</ele>
        <time>2015-02-08T10:49:28Z</time>
      </trkpt>
      <trkpt lat="45.569138" lon="23.632181">
        <ele>1477.677</ele>
        <time>2015-02-08T10:49:36Z</time>
      </trkpt>
      <trkpt lat="45.569176" lon="23.632076">
        <ele>1476.463</ele>
        <time>2015-02-08T10:49:44Z</time>
      </trkpt>
      <trkpt lat="45.569218" lon="23.631975">
        <ele>1475.144</ele>
        <time>2015-02-08T10:49:53Z</time>
      </trkpt>
      <trkpt lat="45.569300" lon="23.631945">
        <ele>1471.918</ele>
        <time>2015-02-08T10:50:00Z</time>
      </trkpt>
      <trkpt lat="45.569388" lon="23.631943">
        <ele>1468.708</ele>
        <time>2015-02-08T10:50:10Z</time>
      </trkpt>
      <trkpt lat="45.569455" lon="23.631870">
        <ele>1465.597</ele>
        <time>2015-02-08T10:50:20Z</time>
      </trkpt>
      <trkpt lat="45.569523" lon="23.631784">
        <ele>1462.473</ele>
        <time>2015-02-08T10:50:28Z</time>
      </trkpt>
      <trkpt lat="45.569608" lon="23.631816">
        <ele>1460.556</ele>
        <time>2015-02-08T10:50:35Z</time>
      </trkpt>
      <trkpt lat="45.569673" lon="23.631733">
        <ele>1458.555</ele>
        <time>2015-02-08T10:50:46Z</time>
      </trkpt>
      <trkpt lat="45.569750" lon="23.631673">
        <ele>1456.050</ele>
        <time>2015-02-08T10:50:57Z</time>
      </trkpt>
      <trkpt lat="45.569821" lon="23.631608">
        <ele>1453.553</ele>
        <time>2015-02-08T10:51:07Z</time>
      </trkpt>
      <trkpt lat="45.569910" lon="23.631590">
        <ele>1450.915</ele>
        <time>2015-02-08T10:51:23Z</time>
      </trkpt>
      <trkpt lat="45.569941" lon="23.631473">
        <ele>1448.441</ele>
        <time>2015-02-08T10:51:39Z</time>
      </trkpt>
      <trkpt lat="45.569946" lon="23.631341">
        <ele>1445.859</ele>
        <time>2015-02-08T10:51:49Z</time>
      </trkpt>
      <trkpt lat="45.569955" lon="23.631218">
        <ele>1445.203</ele>
        <time>2015-02-08T10:51:58Z</time>
      </trkpt>
      <trkpt lat="45.570021" lon="23.631133">
        <ele>1444.523</ele>
        <time>2015-02-08T10:52:07Z</time>
      </trkpt>
      <trkpt lat="45.570041" lon="23.631019">
        <ele>1443.908</ele>
        <time>2015-02-08T10:52:16Z</time>
      </trkpt>
      <trkpt lat="45.570106" lon="23.630948">
        <ele>1442.726</ele>
        <time>2015-02-08T10:52:28Z</time>
      </trkpt>
      <trkpt lat="45.570080" lon="23.630833">
        <ele>1441.592</ele>
        <time>2015-02-08T10:52:39Z</time>
      </trkpt>
      <trkpt lat="45.570061" lon="23.630708">
        <ele>1440.445</ele>
        <time>2015-02-08T10:52:50Z</time>
      </trkpt>
      <trkpt lat="45.570071" lon="23.630586">
        <ele>1439.864</ele>
        <time>2015-02-08T10:53:00Z</time>
      </trkpt>
      <trkpt lat="45.570090" lon="23.630466">
        <ele>1439.399</ele>
        <time>2015-02-08T10:53:11Z</time>
      </trkpt>
      <trkpt lat="45.570126" lon="23.630351">
        <ele>1438.742</ele>
        <time>2015-02-08T10:53:22Z</time>
      </trkpt>
      <trkpt lat="45.570090" lon="23.630241">
        <ele>1438.274</ele>
        <time>2015-02-08T10:53:34Z</time>
      </trkpt>
      <trkpt lat="45.570021" lon="23.630176">
        <ele>1437.630</ele>
        <time>2015-02-08T10:53:42Z</time>
      </trkpt>
      <trkpt lat="45.569958" lon="23.630100">
        <ele>1436.083</ele>
        <time>2015-02-08T10:53:51Z</time>
      </trkpt>
      <trkpt lat="45.570000" lon="23.630000">
        <ele>1434.425</ele>
        <time>2015-02-08T10:54:07Z</time>
      </trkpt>
      <trkpt lat="45.570035" lon="23.629888">
        <ele>1432.717</ele>
        <time>2015-02-08T10:54:23Z</time>
      </trkpt>
      <trkpt lat="45.570020" lon="23.629766">
        <ele>1431.608</ele>
        <time>2015-02-08T10:54:30Z</time>
      </trkpt>
      <trkpt lat="45.569993" lon="23.629648">
        <ele>1430.599</ele>
        <time>2015-02-08T10:54:39Z</time>
      </trkpt>
      <trkpt lat="45.569993" lon="23.629518">
        <ele>1429.555</ele>
        <time>2015-02-08T10:54:49Z</time>
      </trkpt>
      <trkpt lat="45.569986" lon="23.629389">
        <ele>1428.438</ele>
        <time>2015-02-08T10:54:59Z</time>
      </trkpt>
      <trkpt lat="45.570013" lon="23.629276">
        <ele>1426.437</ele>
        <time>2015-02-08T10:55:09Z</time>
      </trkpt>
      <trkpt lat="45.570038" lon="23.629153">
        <ele>1424.462</ele>
        <time>2015-02-08T10:55:17Z</time>
      </trkpt>
      <trkpt lat="45.570100" lon="23.629068">
        <ele>1422.425</ele>
        <time>2015-02-08T10:55:24Z</time>
      </trkpt>
      <trkpt lat="45.570123" lon="23.628954">
        <ele>1420.447</ele>
        <time>2015-02-08T10:55:34Z</time>
      </trkpt>
      <trkpt lat="45.570123" lon="23.628836">
        <ele>1419.583</ele>
        <time>2015-02-08T10:55:41Z</time>
      </trkpt>
      <trkpt lat="45.570090" lon="23.628721">
        <ele>1418.563</ele>
        <time>2015-02-08T10:55:49Z</time>
      </trkpt>
      <trkpt lat="45.570145" lon="23.628636">
        <ele>1417.644</ele>
        <time>2015-02-08T10:55:59Z</time>
      </trkpt>
      <trkpt lat="45.570201" lon="23.628550">
        <ele>1416.718</ele>
        <time>2015-02-08T10:56:12Z</time>
      </trkpt>
      <trkpt lat="45.570243" lon="23.628435">
        <ele>1416.508</ele>
        <time>2015-02-08T10:56:52Z</time>
      </trkpt>
      <trkpt lat="45.570290" lon="23.628321">
        <ele>1416.477</ele>
        <time>2015-02-08T10:57:02Z</time>
      </trkpt>
      <trkpt lat="45.570364" lon="23.628256">
        <ele>1416.213</ele>
        <time>2015-02-08T10:57:12Z</time>
      </trkpt>
      <trkpt lat="45.570400" lon="23.628148">
        <ele>1416.926</ele>
        <time>2015-02-08T10:57:20Z</time>
      </trkpt>
      <trkpt lat="45.570438" lon="23.628038">
        <ele>1417.655</ele>
        <time>2015-02-08T10:57:31Z</time>
      </trkpt>
      <trkpt lat="45.570488" lon="23.627938">
        <ele>1418.460</ele>
        <time>2015-02-08T10:57:46Z</time>
      </trkpt>
      <trkpt lat="45.570573" lon="23.627900">
        <ele>1419.163</ele>
        <time>2015-02-08T10:57:56Z</time>
      </trkpt>
      <trkpt lat="45.570655" lon="23.627873">
        <ele>1419.825</ele>
        <time>2015-02-08T10:58:03Z</time>
      </trkpt>
      <trkpt lat="45.570708" lon="23.627778">
        <ele>1420.571</ele>
        <time>2015-02-08T10:58:10Z</time>
      </trkpt>
      <trkpt lat="45.570758" lon="23.627684">
        <ele>1421.353</ele>
        <time>2015-02-08T10:58:18Z</time>
      </trkpt>
      <trkpt lat="45.570796" lon="23.627566">
        <ele>1422.004</ele>
        <time>2015-02-08T10:58:27Z</time>
      </trkpt>
      <trkpt lat="45.570825" lon="23.627453">
        <ele>1421.714</ele>
        <time>2015-02-08T10:58:45Z</time>
      </trkpt>
      <trkpt lat="45.570881" lon="23.627369">
        <ele>1421.508</ele>
        <time>2015-02-08T10:58:54Z</time>
      </trkpt>
      <trkpt lat="45.570960" lon="23.627318">
        <ele>1421.246</ele>
        <time>2015-02-08T10:59:02Z</time>
      </trkpt>
      <trkpt lat="45.571035" lon="23.627273">
        <ele>1420.982</ele>
        <time>2015-02-08T10:59:09Z</time>
      </trkpt>
      <trkpt lat="45.571081" lon="23.627171">
        <ele>1420.665</ele>
        <time>2015-02-08T10:59:19Z</time>
      </trkpt>
      <trkpt lat="45.571135" lon="23.627074">
        <ele>1420.094</ele>
        <time>2015-02-08T10:59:28Z</time>
      </trkpt>
      <trkpt lat="45.571165" lon="23.626958">
        <ele>1419.459</ele>
        <time>2015-02-08T10:59:38Z</time>
      </trkpt>
      <trkpt lat="45.571150" lon="23.626831">
        <ele>1418.772</ele>
        <time>2015-02-08T10:59:46Z</time>
      </trkpt>
      <trkpt lat="45.571193" lon="23.626731">
        <ele>1418.054</ele>
        <time>2015-02-08T11:04:03Z</time>
      </trkpt>
      <trkpt lat="45.571245" lon="23.626633">
        <ele>1417.350</ele>
        <time>2015-02-08T11:04:12Z</time>
      </trkpt>
      <trkpt lat="45.571306" lon="23.626550">
        <ele>1416.572</ele>
        <time>2015-02-08T11:04:22Z</time>
      </trkpt>
      <trkpt lat="45.571371" lon="23.626456">
        <ele>1416.113</ele>
        <time>2015-02-08T11:04:29Z</time>
      </trkpt>
      <trkpt lat="45.571438" lon="23.626384">
        <ele>1415.614</ele>
        <time>2015-02-08T11:04:36Z</time>
      </trkpt>
      <trkpt lat="45.571465" lon="23.626273">
        <ele>1415.208</ele>
        <time>2015-02-08T11:04:44Z</time>
      </trkpt>
      <trkpt lat="45.571523" lon="23.626185">
        <ele>1414.768</ele>
        <time>2015-02-08T11:04:54Z</time>
      </trkpt>
      <trkpt lat="45.571603" lon="23.626125">
        <ele>1414.324</ele>
        <time>2015-02-08T11:05:00Z</time>
      </trkpt>
      <trkpt lat="45.571684" lon="23.626099">
        <ele>1414.227</ele>
        <time>2015-02-08T11:05:06Z</time>
      </trkpt>
      <trkpt lat="45.571763" lon="23.626044">
        <ele>1414.146</ele>
        <time>2015-02-08T11:05:13Z</time>
      </trkpt>
      <trkpt lat="45.571816" lon="23.625956">
        <ele>1414.061</ele>
        <time>2015-02-08T11:05:23Z</time>
      </trkpt>
      <trkpt lat="45.571903" lon="23.625936">
        <ele>1412.194</ele>
        <time>2015-02-08T11:05:35Z</time>
      </trkpt>
      <trkpt lat="45.571968" lon="23.625853">
        <ele>1410.276</ele>
        <time>2015-02-08T11:05:48Z</time>
      </trkpt>
      <trkpt lat="45.572030" lon="23.625761">
        <ele>1408.322</ele>
        <time>2015-02-08T11:05:56Z</time>
      </trkpt>
      <trkpt lat="45.572053" lon="23.625639">
        <ele>1406.464</ele>
        <time>2015-02-08T11:06:09Z</time>
      </trkpt>
      <trkpt lat="45.572093" lon="23.625526">
        <ele>1404.506</ele>
        <time>2015-02-08T11:06:29Z</time>
      </trkpt>
      <trkpt lat="45.572148" lon="23.625431">
        <ele>1402.516</ele>
        <time>2015-02-08T11:06:47Z</time>
      </trkpt>
      <trkpt lat="45.572231" lon="23.625420">
        <ele>1400.608</ele>
        <time>2015-02-08T11:06:58Z</time>
      </trkpt>
      <trkpt lat="45.572316" lon="23.625381">
        <ele>1398.757</ele>
        <time>2015-02-08T11:07:07Z</time>
      </trkpt>
      <trkpt lat="45.572400" lon="23.625356">
        <ele>1396.883</ele>
        <time>2015-02-08T11:07:17Z</time>
      </trkpt>
      <trkpt lat="45.572481" lon="23.625336">
        <ele>1394.986</ele>
        <time>2015-02-08T11:07:36Z</time>
      </trkpt>
      <trkpt lat="45.572566" lon="23.625301">
        <ele>1391.595</ele>
        <time>2015-02-08T11:07:47Z</time>
      </trkpt>
      <trkpt lat="45.572646" lon="23.625275">
        <ele>1389.970</ele>
        <time>2015-02-08T11:07:58Z</time>
      </trkpt>
      <trkpt lat="45.572730" lon="23.625273">
        <ele>1388.433</ele>
        <time>2015-02-08T11:08:11Z</time>
      </trkpt>
      <trkpt lat="45.572808" lon="23.625243">
        <ele>1386.875</ele>
        <time>2015-02-08T11:08:20Z</time>
      </trkpt>
      <trkpt lat="45.572890" lon="23.625216">
        <ele>1385.321</ele>
        <time>2015-02-08T11:08:36Z</time>
      </trkpt>
      <trkpt lat="45.572976" lon="23.625220">
        <ele>1383.716</ele>
        <time>2015-02-08T11:08:46Z</time>
      </trkpt>
      <trkpt lat="45.573058" lon="23.625171">
        <ele>1382.276</ele>
        <time>2015-02-08T11:08:57Z</time>
      </trkpt>
      <trkpt lat="45.573133" lon="23.625116">
        <ele>1380.613</ele>
        <time>2015-02-08T11:09:09Z</time>
      </trkpt>
      <trkpt lat="45.573215" lon="23.625118">
        <ele>1379.108</ele>
        <time>2015-02-08T11:09:24Z</time>
      </trkpt>
      <trkpt lat="45.573296" lon="23.625058">
        <ele>1377.162</ele>
        <time>2015-02-08T11:09:45Z</time>
      </trkpt>
      <trkpt lat="45.573388" lon="23.625026">
        <ele>1375.118</ele>
        <time>2015-02-08T11:09:56Z</time>
      </trkpt>
      <trkpt lat="45.573396" lon="23.624908">
        <ele>1374.661</ele>
        <time>2015-02-08T11:10:13Z</time>
      </trkpt>
      <trkpt lat="45.573383" lon="23.624793">
        <ele>1374.250</ele>
        <time>2015-02-08T11:10:27Z</time>
      </trkpt>
      <trkpt lat="45.573444" lon="23.624711">
        <ele>1373.775</ele>
        <time>2015-02-08T11:10:56Z</time>
      </trkpt>
      <trkpt lat="45.573476" lon="23.624603">
        <ele>1373.398</ele>
        <time>2015-02-08T11:11:05Z</time>
      </trkpt>
      <trkpt lat="45.573525" lon="23.624505">
        <ele>1372.870</ele>
        <time>2015-02-08T11:11:17Z</time>
      </trkpt>
      <trkpt lat="45.573560" lon="23.624385">
        <ele>1370.966</ele>
        <time>2015-02-08T11:11:30Z</time>
      </trkpt>
      <trkpt lat="45.573561" lon="23.624266">
        <ele>1368.954</ele>
        <time>2015-02-08T11:11:47Z</time>
      </trkpt>
      <trkpt lat="45.573605" lon="23.624148">
        <ele>1366.956</ele>
        <time>2015-02-08T11:11:55Z</time>
      </trkpt>
      <trkpt lat="45.573673" lon="23.624031">
        <ele>1364.911</ele>
        <time>2015-02-08T11:12:02Z</time>
      </trkpt>
      <trkpt lat="45.573741" lon="23.623968">
        <ele>1363.408</ele>
        <time>2015-02-08T11:12:13Z</time>
      </trkpt>
      <trkpt lat="45.573814" lon="23.623911">
        <ele>1361.816</ele>
        <time>2015-02-08T11:12:22Z</time>
      </trkpt>
      <trkpt lat="45.573888" lon="23.623861">
        <ele>1360.322</ele>
        <time>2015-02-08T11:12:31Z</time>
      </trkpt>
      <trkpt lat="45.573966" lon="23.623805">
        <ele>1358.775</ele>
        <time>2015-02-08T11:12:49Z</time>
      </trkpt>
      <trkpt lat="45.574051" lon="23.623753">
        <ele>1357.234</ele>
        <time>2015-02-08T11:12:56Z</time>
      </trkpt>
      <trkpt lat="45.574113" lon="23.623668">
        <ele>1355.659</ele>
        <time>2015-02-08T11:13:04Z</time>
      </trkpt>
      <trkpt lat="45.574168" lon="23.623581">
        <ele>1354.162</ele>
        <time>2015-02-08T11:13:15Z</time>
      </trkpt>
      <trkpt lat="45.574246" lon="23.623540">
        <ele>1352.934</ele>
        <time>2015-02-08T11:13:25Z</time>
      </trkpt>
      <trkpt lat="45.574328" lon="23.623558">
        <ele>1351.830</ele>
        <time>2015-02-08T11:13:37Z</time>
      </trkpt>
      <trkpt lat="45.574404" lon="23.623505">
        <ele>1350.711</ele>
        <time>2015-02-08T11:13:51Z</time>
      </trkpt>
      <trkpt lat="45.574505" lon="23.623490">
        <ele>1349.621</ele>
        <time>2015-02-08T11:14:13Z</time>
      </trkpt>
      <trkpt lat="45.574595" lon="23.623466">
        <ele>1348.503</ele>
        <time>2015-02-08T11:14:21Z</time>
      </trkpt>
      <trkpt lat="45.574676" lon="23.623471">
        <ele>1347.508</ele>
        <time>2015-02-08T11:14:29Z</time>
      </trkpt>
      <trkpt lat="45.574763" lon="23.623445">
        <ele>1346.492</ele>
        <time>2015-02-08T11:14:39Z</time>
      </trkpt>
      <trkpt lat="45.574854" lon="23.623454">
        <ele>1345.388</ele>
        <time>2015-02-08T11:15:02Z</time>
      </trkpt>
      <trkpt lat="45.574923" lon="23.623385">
        <ele>1344.261</ele>
        <time>2015-02-08T11:15:20Z</time>
      </trkpt>
      <trkpt lat="45.575015" lon="23.623356">
        <ele>1343.110</ele>
        <time>2015-02-08T11:15:29Z</time>
      </trkpt>
      <trkpt lat="45.575098" lon="23.623378">
        <ele>1341.285</ele>
        <time>2015-02-08T11:15:36Z</time>
      </trkpt>
      <trkpt lat="45.575213" lon="23.623378">
        <ele>1340.488</ele>
        <time>2015-02-08T11:16:17Z</time>
      </trkpt>
      <trkpt lat="45.575289" lon="23.623318">
        <ele>1339.540</ele>
        <time>2015-02-08T11:16:27Z</time>
      </trkpt>
      <trkpt lat="45.575370" lon="23.623336">
        <ele>1338.776</ele>
        <time>2015-02-08T11:16:37Z</time>
      </trkpt>
      <trkpt lat="45.575455" lon="23.623310">
        <ele>1337.923</ele>
        <time>2015-02-08T11:17:05Z</time>
      </trkpt>
      <trkpt lat="45.575531" lon="23.623240">
        <ele>1337.183</ele>
        <time>2015-02-08T11:17:21Z</time>
      </trkpt>
      <trkpt lat="45.575603" lon="23.623313">
        <ele>1336.311</ele>
        <time>2015-02-08T11:17:34Z</time>
      </trkpt>
      <trkpt lat="45.575676" lon="23.623368">
        <ele>1335.508</ele>
        <time>2015-02-08T11:17:42Z</time>
      </trkpt>
      <trkpt lat="45.575761" lon="23.623396">
        <ele>1334.653</ele>
        <time>2015-02-08T11:17:52Z</time>
      </trkpt>
      <trkpt lat="45.575838" lon="23.623446">
        <ele>1333.829</ele>
        <time>2015-02-08T11:18:02Z</time>
      </trkpt>
      <trkpt lat="45.575916" lon="23.623415">
        <ele>1332.022</ele>
        <time>2015-02-08T11:18:19Z</time>
      </trkpt>
      <trkpt lat="45.576001" lon="23.623386">
        <ele>1331.061</ele>
        <time>2015-02-08T11:18:29Z</time>
      </trkpt>
      <trkpt lat="45.576078" lon="23.623341">
        <ele>1330.066</ele>
        <time>2015-02-08T11:18:39Z</time>
      </trkpt>
      <trkpt lat="45.576158" lon="23.623318">
        <ele>1329.069</ele>
        <time>2015-02-08T11:18:50Z</time>
      </trkpt>
      <trkpt lat="45.576235" lon="23.623280">
        <ele>1328.041</ele>
        <time>2015-02-08T11:19:03Z</time>
      </trkpt>
      <trkpt lat="45.576303" lon="23.623363">
        <ele>1327.027</ele>
        <time>2015-02-08T11:19:12Z</time>
      </trkpt>
      <trkpt lat="45.576390" lon="23.623345">
        <ele>1326.029</ele>
        <time>2015-02-08T11:19:20Z</time>
      </trkpt>
      <trkpt lat="45.576480" lon="23.623341">
        <ele>1325.000</ele>
        <time>2015-02-08T11:19:27Z</time>
      </trkpt>
      <trkpt lat="45.576563" lon="23.623388">
        <ele>1324.020</ele>
        <time>2015-02-08T11:19:34Z</time>
      </trkpt>
      <trkpt lat="45.576643" lon="23.623431">
        <ele>1323.008</ele>
        <time>2015-02-08T11:19:42Z</time>
      </trkpt>
      <trkpt lat="45.576716" lon="23.623495">
        <ele>1322.093</ele>
        <time>2015-02-08T11:19:53Z</time>
      </trkpt>
      <trkpt lat="45.576785" lon="23.623558">
        <ele>1321.529</ele>
        <time>2015-02-08T11:20:04Z</time>
      </trkpt>
      <trkpt lat="45.576861" lon="23.623608">
        <ele>1321.122</ele>
        <time>2015-02-08T11:20:29Z</time>
      </trkpt>
      <trkpt lat="45.576924" lon="23.623706">
        <ele>1320.661</ele>
        <time>2015-02-08T11:20:39Z</time>
      </trkpt>
      <trkpt lat="45.577010" lon="23.623696">
        <ele>1320.296</ele>
        <time>2015-02-08T11:20:54Z</time>
      </trkpt>
      <trkpt lat="45.577093" lon="23.623675">
        <ele>1319.789</ele>
        <time>2015-02-08T11:21:03Z</time>
      </trkpt>
      <trkpt lat="45.577184" lon="23.623693">
        <ele>1319.351</ele>
        <time>2015-02-08T11:21:14Z</time>
      </trkpt>
      <trkpt lat="45.577278" lon="23.623696">
        <ele>1318.817</ele>
        <time>2015-02-08T11:21:24Z</time>
      </trkpt>
      <trkpt lat="45.577363" lon="23.623675">
        <ele>1318.425</ele>
        <time>2015-02-08T11:21:31Z</time>
      </trkpt>
      <trkpt lat="45.577446" lon="23.623673">
        <ele>1317.926</ele>
        <time>2015-02-08T11:21:42Z</time>
      </trkpt>
      <trkpt lat="45.577529" lon="23.623700">
        <ele>1316.508</ele>
        <time>2015-02-08T11:21:56Z</time>
      </trkpt>
      <trkpt lat="45.577615" lon="23.623738">
        <ele>1315.208</ele>
        <time>2015-02-08T11:22:03Z</time>
      </trkpt>
      <trkpt lat="45.577696" lon="23.623781">
        <ele>1314.353</ele>
        <time>2015-02-08T11:22:10Z</time>
      </trkpt>
      <trkpt lat="45.577781" lon="23.623715">
        <ele>1313.479</ele>
        <time>2015-02-08T11:22:19Z</time>
      </trkpt>
      <trkpt lat="45.577865" lon="23.623675">
        <ele>1312.572</ele>
        <time>2015-02-08T11:22:28Z</time>
      </trkpt>
      <trkpt lat="45.577953" lon="23.623646">
        <ele>1311.551</ele>
        <time>2015-02-08T11:22:38Z</time>
      </trkpt>
      <trkpt lat="45.578035" lon="23.623671">
        <ele>1310.686</ele>
        <time>2015-02-08T11:22:43Z</time>
      </trkpt>
      <trkpt lat="45.578116" lon="23.623678">
        <ele>1309.739</ele>
        <time>2015-02-08T11:22:51Z</time>
      </trkpt>
      <trkpt lat="45.578200" lon="23.623648">
        <ele>1308.891</ele>
        <time>2015-02-08T11:23:01Z</time>
      </trkpt>
      <trkpt lat="45.578283" lon="23.623600">
        <ele>1307.977</ele>
        <time>2015-02-08T11:23:11Z</time>
      </trkpt>
      <trkpt lat="45.578361" lon="23.623563">
        <ele>1307.026</ele>
        <time>2015-02-08T11:23:19Z</time>
      </trkpt>
      <trkpt lat="45.578435" lon="23.623498">
        <ele>1306.047</ele>
        <time>2015-02-08T11:23:29Z</time>
      </trkpt>
      <trkpt lat="45.578498" lon="23.623415">
        <ele>1305.011</ele>
        <time>2015-02-08T11:23:38Z</time>
      </trkpt>
      <trkpt lat="45.578516" lon="23.623291">
        <ele>1304.008</ele>
        <time>2015-02-08T11:23:46Z</time>
      </trkpt>
      <trkpt lat="45.578578" lon="23.623170">
        <ele>1303.013</ele>
        <time>2015-02-08T11:25:02Z</time>
      </trkpt>
      <trkpt lat="45.578613" lon="23.623056">
        <ele>1302.059</ele>
        <time>2015-02-08T11:25:11Z</time>
      </trkpt>
      <trkpt lat="45.578635" lon="23.622920">
        <ele>1301.082</ele>
        <time>2015-02-08T11:25:18Z</time>
      </trkpt>
      <trkpt lat="45.578653" lon="23.622805">
        <ele>1300.071</ele>
        <time>2015-02-08T11:25:26Z</time>
      </trkpt>
      <trkpt lat="45.578676" lon="23.622685">
        <ele>1296.356</ele>
        <time>2015-02-08T11:25:33Z</time>
      </trkpt>
      <trkpt lat="45.578700" lon="23.622561">
        <ele>1292.519</ele>
        <time>2015-02-08T11:25:40Z</time>
      </trkpt>
      <trkpt lat="45.578718" lon="23.622428">
        <ele>1288.841</ele>
        <time>2015-02-08T11:25:50Z</time>
      </trkpt>
      <trkpt lat="45.578733" lon="23.622313">
        <ele>1285.157</ele>
        <time>2015-02-08T11:25:56Z</time>
      </trkpt>
      <trkpt lat="45.578745" lon="23.622183">
        <ele>1282.458</ele>
        <time>2015-02-08T11:26:08Z</time>
      </trkpt>
      <trkpt lat="45.578788" lon="23.622079">
        <ele>1279.652</ele>
        <time>2015-02-08T11:26:18Z</time>
      </trkpt>
      <trkpt lat="45.578838" lon="23.621985">
        <ele>1276.917</ele>
        <time>2015-02-08T11:26:40Z</time>
      </trkpt>
      <trkpt lat="45.578908" lon="23.621926">
        <ele>1274.208</ele>
        <time>2015-02-08T11:26:54Z</time>
      </trkpt>
      <trkpt lat="45.578995" lon="23.621935">
        <ele>1271.576</ele>
        <time>2015-02-08T11:27:03Z</time>
      </trkpt>
      <trkpt lat="45.579078" lon="23.621943">
        <ele>1268.732</ele>
        <time>2015-02-08T11:27:12Z</time>
      </trkpt>
      <trkpt lat="45.579166" lon="23.621918">
        <ele>1266.055</ele>
        <time>2015-02-08T11:27:18Z</time>
      </trkpt>
      <trkpt lat="45.579248" lon="23.621923">
        <ele>1265.714</ele>
        <time>2015-02-08T11:27:26Z</time>
      </trkpt>
      <trkpt lat="45.579336" lon="23.621955">
        <ele>1265.789</ele>
        <time>2015-02-08T11:27:34Z</time>
      </trkpt>
      <trkpt lat="45.579421" lon="23.621988">
        <ele>1265.752</ele>
        <time>2015-02-08T11:27:42Z</time>
      </trkpt>
      <trkpt lat="45.579503" lon="23.621956">
        <ele>1265.654</ele>
        <time>2015-02-08T11:27:51Z</time>
      </trkpt>
      <trkpt lat="45.579588" lon="23.621953">
        <ele>1265.680</ele>
        <time>2015-02-08T11:27:59Z</time>
      </trkpt>
      <trkpt lat="45.579658" lon="23.622013">
        <ele>1265.521</ele>
        <time>2015-02-08T11:28:08Z</time>
      </trkpt>
    </trkseg>
  </trk></gpx>