<?xml version="1.0" encoding="UTF-8"?>
<gpx creator="Wikiloc - https://www.wikiloc.com" version="1.1" xmlns="http://www.topografix.com/GPX/1/1" xmlns:xsi="http://www.w3.org/2001/XMLSchema-instance" xsi:schemaLocation="http://www.topografix.com/GPX/1/1 http://www.topografix.com/GPX/1/1/gpx.xsd">
  <metadata>
    <name>Wikiloc - Vartop - Varful Cucurbata Mare - Arieseni</name>
    <author>
      <name>Toni Grecu</name>
      <link href="https://www.wikiloc.com/wikiloc/user.do?id=2082631">
        <text>Toni Grecu on Wikiloc</text>
      </link>
    </author>
    <link href="https://www.wikiloc.com/hiking-trails/vartop-varful-cucurbata-mare-arieseni-17645270">
      <text>Vartop - Varful Cucurbata Mare - Arieseni on Wikiloc</text>
    </link>
    <time>2017-04-30T16:15:02Z</time>
  </metadata>
  <trk>
    <name>Vartop - Varful Cucurbata Mare - Arieseni - Wikiloc</name>
    <cmt>duminică, 30 aprilie 2017</cmt>
    <desc>duminică, 30 aprilie 2017</desc>
    <trkseg>
      <trkpt lat="46.516391" lon="22.679301">
        <ele>1185.069</ele>
        <time>2017-04-30T06:31:29Z</time>
      </trkpt>
      <trkpt lat="46.516411" lon="22.678454">
        <ele>1175.004</ele>
        <time>2017-04-30T06:35:04Z</time>
      </trkpt>
      <trkpt lat="46.516256" lon="22.678880">
        <ele>1195.024</ele>
        <time>2017-04-30T06:35:11Z</time>
      </trkpt>
      <trkpt lat="46.516420" lon="22.679242">
        <ele>1194.008</ele>
        <time>2017-04-30T06:35:15Z</time>
      </trkpt>
      <trkpt lat="46.516427" lon="22.678824">
        <ele>1177.097</ele>
        <time>2017-04-30T06:35:35Z</time>
      </trkpt>
      <trkpt lat="46.516195" lon="22.678649">
        <ele>1173.073</ele>
        <time>2017-04-30T06:37:02Z</time>
      </trkpt>
      <trkpt lat="46.516133" lon="22.677931">
        <ele>1175.062</ele>
        <time>2017-04-30T06:37:48Z</time>
      </trkpt>
      <trkpt lat="46.515446" lon="22.676574">
        <ele>1181.050</ele>
        <time>2017-04-30T06:39:20Z</time>
      </trkpt>
      <trkpt lat="46.514901" lon="22.676435">
        <ele>1185.071</ele>
        <time>2017-04-30T06:40:06Z</time>
      </trkpt>
      <trkpt lat="46.514257" lon="22.676652">
        <ele>1193.038</ele>
        <time>2017-04-30T06:41:05Z</time>
      </trkpt>
      <trkpt lat="46.513841" lon="22.676302">
        <ele>1196.033</ele>
        <time>2017-04-30T06:42:08Z</time>
      </trkpt>
      <trkpt lat="46.513112" lon="22.676110">
        <ele>1208.036</ele>
        <time>2017-04-30T06:44:04Z</time>
      </trkpt>
      <trkpt lat="46.511996" lon="22.676087">
        <ele>1233.012</ele>
        <time>2017-04-30T06:47:03Z</time>
      </trkpt>
      <trkpt lat="46.511128" lon="22.675620">
        <ele>1253.032</ele>
        <time>2017-04-30T06:49:37Z</time>
      </trkpt>
      <trkpt lat="46.510598" lon="22.675818">
        <ele>1282.005</ele>
        <time>2017-04-30T06:53:01Z</time>
      </trkpt>
      <trkpt lat="46.509944" lon="22.675741">
        <ele>1311.008</ele>
        <time>2017-04-30T06:56:32Z</time>
      </trkpt>
      <trkpt lat="46.509399" lon="22.675879">
        <ele>1328.022</ele>
        <time>2017-04-30T07:01:22Z</time>
      </trkpt>
      <trkpt lat="46.509065" lon="22.676061">
        <ele>1344.078</ele>
        <time>2017-04-30T07:06:01Z</time>
      </trkpt>
      <trkpt lat="46.508825" lon="22.676571">
        <ele>1356.067</ele>
        <time>2017-04-30T07:07:23Z</time>
      </trkpt>
      <trkpt lat="46.508509" lon="22.676346">
        <ele>1371.085</ele>
        <time>2017-04-30T07:08:49Z</time>
      </trkpt>
      <trkpt lat="46.507976" lon="22.676494">
        <ele>1398.096</ele>
        <time>2017-04-30T07:13:16Z</time>
      </trkpt>
      <trkpt lat="46.507762" lon="22.676246">
        <ele>1402.013</ele>
        <time>2017-04-30T07:14:07Z</time>
      </trkpt>
      <trkpt lat="46.507494" lon="22.676337">
        <ele>1413.078</ele>
        <time>2017-04-30T07:15:36Z</time>
      </trkpt>
      <trkpt lat="46.507750" lon="22.676533">
        <ele>1413.091</ele>
        <time>2017-04-30T07:21:12Z</time>
      </trkpt>
      <trkpt lat="46.507422" lon="22.676300">
        <ele>1408.031</ele>
        <time>2017-04-30T07:23:39Z</time>
      </trkpt>
      <trkpt lat="46.507032" lon="22.676392">
        <ele>1432.061</ele>
        <time>2017-04-30T07:28:37Z</time>
      </trkpt>
      <trkpt lat="46.506799" lon="22.675999">
        <ele>1429.007</ele>
        <time>2017-04-30T07:29:34Z</time>
      </trkpt>
      <trkpt lat="46.506994" lon="22.674969">
        <ele>1435.008</ele>
        <time>2017-04-30T07:31:11Z</time>
      </trkpt>
      <trkpt lat="46.506955" lon="22.674431">
        <ele>1424.094</ele>
        <time>2017-04-30T07:31:58Z</time>
      </trkpt>
      <trkpt lat="46.506761" lon="22.674137">
        <ele>1423.080</ele>
        <time>2017-04-30T07:32:23Z</time>
      </trkpt>
      <trkpt lat="46.506308" lon="22.674357">
        <ele>1426.079</ele>
        <time>2017-04-30T07:33:25Z</time>
      </trkpt>
      <trkpt lat="46.505938" lon="22.674814">
        <ele>1431.017</ele>
        <time>2017-04-30T07:34:20Z</time>
      </trkpt>
      <trkpt lat="46.505378" lon="22.674899">
        <ele>1440.068</ele>
        <time>2017-04-30T07:35:24Z</time>
      </trkpt>
      <trkpt lat="46.505148" lon="22.675138">
        <ele>1443.035</ele>
        <time>2017-04-30T07:36:00Z</time>
      </trkpt>
      <trkpt lat="46.504731" lon="22.674854">
        <ele>1442.080</ele>
        <time>2017-04-30T07:36:40Z</time>
      </trkpt>
      <trkpt lat="46.504169" lon="22.674824">
        <ele>1450.033</ele>
        <time>2017-04-30T07:37:34Z</time>
      </trkpt>
      <trkpt lat="46.502272" lon="22.675550">
        <ele>1485.049</ele>
        <time>2017-04-30T07:41:59Z</time>
      </trkpt>
      <trkpt lat="46.501718" lon="22.675456">
        <ele>1484.002</ele>
        <time>2017-04-30T07:44:12Z</time>
      </trkpt>
      <trkpt lat="46.501347" lon="22.675020">
        <ele>1491.022</ele>
        <time>2017-04-30T07:45:07Z</time>
      </trkpt>
      <trkpt lat="46.499939" lon="22.675064">
        <ele>1492.008</ele>
        <time>2017-04-30T07:49:54Z</time>
      </trkpt>
      <trkpt lat="46.499131" lon="22.675536">
        <ele>1504.055</ele>
        <time>2017-04-30T07:53:58Z</time>
      </trkpt>
      <trkpt lat="46.498534" lon="22.676188">
        <ele>1525.061</ele>
        <time>2017-04-30T07:56:24Z</time>
      </trkpt>
      <trkpt lat="46.497969" lon="22.676274">
        <ele>1538.080</ele>
        <time>2017-04-30T07:59:24Z</time>
      </trkpt>
      <trkpt lat="46.497961" lon="22.677068">
        <ele>1554.098</ele>
        <time>2017-04-30T08:01:28Z</time>
      </trkpt>
      <trkpt lat="46.497790" lon="22.677167">
        <ele>1558.059</ele>
        <time>2017-04-30T08:02:16Z</time>
      </trkpt>
      <trkpt lat="46.497596" lon="22.677187">
        <ele>1564.046</ele>
        <time>2017-04-30T08:02:41Z</time>
      </trkpt>
      <trkpt lat="46.497227" lon="22.676803">
        <ele>1569.051</ele>
        <time>2017-04-30T08:06:14Z</time>
      </trkpt>
      <trkpt lat="46.496957" lon="22.676779">
        <ele>1575.034</ele>
        <time>2017-04-30T08:06:53Z</time>
      </trkpt>
      <trkpt lat="46.496694" lon="22.676897">
        <ele>1581.074</ele>
        <time>2017-04-30T08:07:47Z</time>
      </trkpt>
      <trkpt lat="46.496279" lon="22.677445">
        <ele>1589.056</ele>
        <time>2017-04-30T08:10:04Z</time>
      </trkpt>
      <trkpt lat="46.495817" lon="22.677351">
        <ele>1600.021</ele>
        <time>2017-04-30T08:11:24Z</time>
      </trkpt>
      <trkpt lat="46.495083" lon="22.677454">
        <ele>1612.008</ele>
        <time>2017-04-30T08:13:38Z</time>
      </trkpt>
      <trkpt lat="46.494895" lon="22.678173">
        <ele>1613.058</ele>
        <time>2017-04-30T08:15:30Z</time>
      </trkpt>
      <trkpt lat="46.494449" lon="22.678408">
        <ele>1617.054</ele>
        <time>2017-04-30T08:17:11Z</time>
      </trkpt>
      <trkpt lat="46.493992" lon="22.678406">
        <ele>1629.063</ele>
        <time>2017-04-30T08:19:51Z</time>
      </trkpt>
      <trkpt lat="46.493487" lon="22.678969">
        <ele>1648.011</ele>
        <time>2017-04-30T08:28:33Z</time>
      </trkpt>
      <trkpt lat="46.493119" lon="22.678853">
        <ele>1661.012</ele>
        <time>2017-04-30T08:29:59Z</time>
      </trkpt>
      <trkpt lat="46.492785" lon="22.679060">
        <ele>1668.039</ele>
        <time>2017-04-30T08:31:34Z</time>
      </trkpt>
      <trkpt lat="46.492405" lon="22.678704">
        <ele>1678.044</ele>
        <time>2017-04-30T08:33:08Z</time>
      </trkpt>
      <trkpt lat="46.492168" lon="22.677841">
        <ele>1682.057</ele>
        <time>2017-04-30T08:35:57Z</time>
      </trkpt>
      <trkpt lat="46.490257" lon="22.673336">
        <ele>1699.061</ele>
        <time>2017-04-30T08:47:23Z</time>
      </trkpt>
      <trkpt lat="46.490292" lon="22.672955">
        <ele>1701.021</ele>
        <time>2017-04-30T09:09:31Z</time>
      </trkpt>
      <trkpt lat="46.490138" lon="22.672914">
        <ele>1700.013</ele>
        <time>2017-04-30T09:10:49Z</time>
      </trkpt>
      <trkpt lat="46.489330" lon="22.670898">
        <ele>1682.008</ele>
        <time>2017-04-30T09:13:15Z</time>
      </trkpt>
      <trkpt lat="46.488812" lon="22.669296">
        <ele>1646.027</ele>
        <time>2017-04-30T09:15:38Z</time>
      </trkpt>
      <trkpt lat="46.488799" lon="22.668122">
        <ele>1620.063</ele>
        <time>2017-04-30T09:17:56Z</time>
      </trkpt>
      <trkpt lat="46.487318" lon="22.670616">
        <ele>1642.052</ele>
        <time>2017-04-30T09:25:56Z</time>
      </trkpt>
      <trkpt lat="46.486635" lon="22.671137">
        <ele>1634.060</ele>
        <time>2017-04-30T09:27:02Z</time>
      </trkpt>
      <trkpt lat="46.485609" lon="22.671506">
        <ele>1625.041</ele>
        <time>2017-04-30T09:29:46Z</time>
      </trkpt>
      <trkpt lat="46.485448" lon="22.671850">
        <ele>1624.058</ele>
        <time>2017-04-30T09:30:27Z</time>
      </trkpt>
      <trkpt lat="46.485574" lon="22.672488">
        <ele>1629.023</ele>
        <time>2017-04-30T09:31:38Z</time>
      </trkpt>
      <trkpt lat="46.485409" lon="22.672805">
        <ele>1631.016</ele>
        <time>2017-04-30T09:32:41Z</time>
      </trkpt>
      <trkpt lat="46.483486" lon="22.674218">
        <ele>1606.086</ele>
        <time>2017-04-30T09:43:14Z</time>
      </trkpt>
      <trkpt lat="46.482916" lon="22.674288">
        <ele>1595.060</ele>
        <time>2017-04-30T09:44:09Z</time>
      </trkpt>
      <trkpt lat="46.481054" lon="22.675128">
        <ele>1580.026</ele>
        <time>2017-04-30T09:46:51Z</time>
      </trkpt>
      <trkpt lat="46.480096" lon="22.676066">
        <ele>1585.008</ele>
        <time>2017-04-30T09:49:01Z</time>
      </trkpt>
      <trkpt lat="46.479687" lon="22.676663">
        <ele>1586.019</ele>
        <time>2017-04-30T09:49:56Z</time>
      </trkpt>
      <trkpt lat="46.479079" lon="22.677073">
        <ele>1575.075</ele>
        <time>2017-04-30T09:51:04Z</time>
      </trkpt>
      <trkpt lat="46.477846" lon="22.678354">
        <ele>1554.074</ele>
        <time>2017-04-30T09:53:13Z</time>
      </trkpt>
      <trkpt lat="46.477849" lon="22.678563">
        <ele>1554.012</ele>
        <time>2017-04-30T09:54:36Z</time>
      </trkpt>
      <trkpt lat="46.477664" lon="22.678563">
        <ele>1551.043</ele>
        <time>2017-04-30T09:59:05Z</time>
      </trkpt>
      <trkpt lat="46.476471" lon="22.679726">
        <ele>1556.060</ele>
        <time>2017-04-30T10:02:32Z</time>
      </trkpt>
      <trkpt lat="46.475537" lon="22.679881">
        <ele>1561.045</ele>
        <time>2017-04-30T10:04:14Z</time>
      </trkpt>
      <trkpt lat="46.474769" lon="22.679377">
        <ele>1565.038</ele>
        <time>2017-04-30T10:06:37Z</time>
      </trkpt>
      <trkpt lat="46.473551" lon="22.678992">
        <ele>1572.045</ele>
        <time>2017-04-30T10:08:30Z</time>
      </trkpt>
      <trkpt lat="46.471367" lon="22.678666">
        <ele>1574.047</ele>
        <time>2017-04-30T10:11:53Z</time>
      </trkpt>
      <trkpt lat="46.470524" lon="22.678621">
        <ele>1562.011</ele>
        <time>2017-04-30T10:13:17Z</time>
      </trkpt>
      <trkpt lat="46.470207" lon="22.679297">
        <ele>1554.008</ele>
        <time>2017-04-30T10:14:26Z</time>
      </trkpt>
      <trkpt lat="46.468722" lon="22.678937">
        <ele>1555.045</ele>
        <time>2017-04-30T10:54:55Z</time>
      </trkpt>
      <trkpt lat="46.468344" lon="22.679059">
        <ele>1558.061</ele>
        <time>2017-04-30T10:55:43Z</time>
      </trkpt>
      <trkpt lat="46.466946" lon="22.680409">
        <ele>1570.060</ele>
        <time>2017-04-30T10:58:54Z</time>
      </trkpt>
      <trkpt lat="46.465777" lon="22.682868">
        <ele>1603.058</ele>
        <time>2017-04-30T11:03:12Z</time>
      </trkpt>
      <trkpt lat="46.465064" lon="22.683615">
        <ele>1607.029</ele>
        <time>2017-04-30T11:04:45Z</time>
      </trkpt>
      <trkpt lat="46.463522" lon="22.684663">
        <ele>1621.076</ele>
        <time>2017-04-30T11:07:41Z</time>
      </trkpt>
      <trkpt lat="46.461329" lon="22.685051">
        <ele>1626.091</ele>
        <time>2017-04-30T11:10:58Z</time>
      </trkpt>
      <trkpt lat="46.460528" lon="22.685441">
        <ele>1643.034</ele>
        <time>2017-04-30T11:12:37Z</time>
      </trkpt>
      <trkpt lat="46.459443" lon="22.686257">
        <ele>1659.046</ele>
        <time>2017-04-30T11:19:48Z</time>
      </trkpt>
      <trkpt lat="46.458185" lon="22.686836">
        <ele>1675.088</ele>
        <time>2017-04-30T11:22:55Z</time>
      </trkpt>
      <trkpt lat="46.457107" lon="22.687895">
        <ele>1678.016</ele>
        <time>2017-04-30T11:28:29Z</time>
      </trkpt>
      <trkpt lat="46.455482" lon="22.690646">
        <ele>1724.008</ele>
        <time>2017-04-30T11:36:50Z</time>
      </trkpt>
      <trkpt lat="46.454356" lon="22.691822">
        <ele>1758.025</ele>
        <time>2017-04-30T11:40:49Z</time>
      </trkpt>
      <trkpt lat="46.453319" lon="22.692531">
        <ele>1762.011</ele>
        <time>2017-04-30T11:54:43Z</time>
      </trkpt>
      <trkpt lat="46.451796" lon="22.692780">
        <ele>1772.080</ele>
        <time>2017-04-30T11:57:31Z</time>
      </trkpt>
      <trkpt lat="46.450511" lon="22.691697">
        <ele>1799.028</ele>
        <time>2017-04-30T12:01:27Z</time>
      </trkpt>
      <trkpt lat="46.449215" lon="22.691410">
        <ele>1813.049</ele>
        <time>2017-04-30T12:04:31Z</time>
      </trkpt>
      <trkpt lat="46.448690" lon="22.691156">
        <ele>1815.066</ele>
        <time>2017-04-30T12:05:39Z</time>
      </trkpt>
      <trkpt lat="46.447999" lon="22.690448">
        <ele>1816.031</ele>
        <time>2017-04-30T12:10:16Z</time>
      </trkpt>
      <trkpt lat="46.447389" lon="22.690101">
        <ele>1808.064</ele>
        <time>2017-04-30T12:12:54Z</time>
      </trkpt>
      <trkpt lat="46.446649" lon="22.689919">
        <ele>1791.052</ele>
        <time>2017-04-30T12:15:03Z</time>
      </trkpt>
      <trkpt lat="46.444047" lon="22.688738">
        <ele>1803.053</ele>
        <time>2017-04-30T12:21:18Z</time>
      </trkpt>
      <trkpt lat="46.443589" lon="22.688701">
        <ele>1816.008</ele>
        <time>2017-04-30T12:22:46Z</time>
      </trkpt>
      <trkpt lat="46.442919" lon="22.688019">
        <ele>1838.008</ele>
        <time>2017-04-30T12:25:29Z</time>
      </trkpt>
      <trkpt lat="46.442212" lon="22.688311">
        <ele>1855.046</ele>
        <time>2017-04-30T12:28:40Z</time>
      </trkpt>
      <trkpt lat="46.441490" lon="22.688384">
        <ele>1881.082</ele>
        <time>2017-04-30T12:31:28Z</time>
      </trkpt>
      <trkpt lat="46.440851" lon="22.688862">
        <ele>1892.061</ele>
        <time>2017-04-30T12:33:17Z</time>
      </trkpt>
      <trkpt lat="46.440856" lon="22.688726">
        <ele>1889.089</ele>
        <time>2017-04-30T12:36:58Z</time>
      </trkpt>
      <trkpt lat="46.440770" lon="22.688958">
        <ele>1893.070</ele>
        <time>2017-04-30T12:38:16Z</time>
      </trkpt>
      <trkpt lat="46.440855" lon="22.688910">
        <ele>1891.057</ele>
        <time>2017-04-30T12:39:23Z</time>
      </trkpt>
      <trkpt lat="46.440793" lon="22.688815">
        <ele>1892.022</ele>
        <time>2017-04-30T12:57:32Z</time>
      </trkpt>
      <trkpt lat="46.440700" lon="22.689045">
        <ele>1894.045</ele>
        <time>2017-04-30T12:57:52Z</time>
      </trkpt>
      <trkpt lat="46.440654" lon="22.688930">
        <ele>1890.094</ele>
        <time>2017-04-30T12:58:31Z</time>
      </trkpt>
      <trkpt lat="46.440708" lon="22.689183">
        <ele>1890.057</ele>
        <time>2017-04-30T13:35:22Z</time>
      </trkpt>
      <trkpt lat="46.440527" lon="22.689487">
        <ele>1883.022</ele>
        <time>2017-04-30T13:35:57Z</time>
      </trkpt>
      <trkpt lat="46.439857" lon="22.689964">
        <ele>1878.008</ele>
        <time>2017-04-30T13:37:07Z</time>
      </trkpt>
      <trkpt lat="46.439341" lon="22.690936">
        <ele>1864.080</ele>
        <time>2017-04-30T13:38:48Z</time>
      </trkpt>
      <trkpt lat="46.437616" lon="22.693345">
        <ele>1837.046</ele>
        <time>2017-04-30T13:42:04Z</time>
      </trkpt>
      <trkpt lat="46.437272" lon="22.694784">
        <ele>1834.085</ele>
        <time>2017-04-30T13:43:29Z</time>
      </trkpt>
      <trkpt lat="46.437388" lon="22.695121">
        <ele>1829.063</ele>
        <time>2017-04-30T13:43:56Z</time>
      </trkpt>
      <trkpt lat="46.437070" lon="22.695809">
        <ele>1832.014</ele>
        <time>2017-04-30T13:44:58Z</time>
      </trkpt>
      <trkpt lat="46.436937" lon="22.696777">
        <ele>1825.091</ele>
        <time>2017-04-30T13:45:44Z</time>
      </trkpt>
      <trkpt lat="46.437013" lon="22.697469">
        <ele>1825.016</ele>
        <time>2017-04-30T13:46:19Z</time>
      </trkpt>
      <trkpt lat="46.437265" lon="22.697584">
        <ele>1823.059</ele>
        <time>2017-04-30T13:46:45Z</time>
      </trkpt>
      <trkpt lat="46.437554" lon="22.698606">
        <ele>1809.086</ele>
        <time>2017-04-30T13:47:51Z</time>
      </trkpt>
      <trkpt lat="46.438507" lon="22.699500">
        <ele>1763.060</ele>
        <time>2017-04-30T13:54:30Z</time>
      </trkpt>
      <trkpt lat="46.439897" lon="22.701486">
        <ele>1713.026</ele>
        <time>2017-04-30T13:58:13Z</time>
      </trkpt>
      <trkpt lat="46.440743" lon="22.701440">
        <ele>1686.008</ele>
        <time>2017-04-30T14:00:24Z</time>
      </trkpt>
      <trkpt lat="46.441437" lon="22.701005">
        <ele>1670.039</ele>
        <time>2017-04-30T14:01:55Z</time>
      </trkpt>
      <trkpt lat="46.441808" lon="22.701125">
        <ele>1662.025</ele>
        <time>2017-04-30T14:03:29Z</time>
      </trkpt>
      <trkpt lat="46.442399" lon="22.701680">
        <ele>1631.074</ele>
        <time>2017-04-30T14:04:33Z</time>
      </trkpt>
      <trkpt lat="46.442577" lon="22.701623">
        <ele>1628.022</ele>
        <time>2017-04-30T14:04:51Z</time>
      </trkpt>
      <trkpt lat="46.443202" lon="22.701873">
        <ele>1609.083</ele>
        <time>2017-04-30T14:06:38Z</time>
      </trkpt>
      <trkpt lat="46.443679" lon="22.701835">
        <ele>1601.020</ele>
        <time>2017-04-30T14:07:36Z</time>
      </trkpt>
      <trkpt lat="46.443606" lon="22.701754">
        <ele>1594.055</ele>
        <time>2017-04-30T14:38:45Z</time>
      </trkpt>
      <trkpt lat="46.449223" lon="22.710539">
        <ele>1345.098</ele>
        <time>2017-04-30T15:27:26Z</time>
      </trkpt>
      <trkpt lat="46.449202" lon="22.710676">
        <ele>1342.051</ele>
        <time>2017-04-30T15:28:40Z</time>
      </trkpt>
      <trkpt lat="46.449273" lon="22.710777">
        <ele>1338.001</ele>
        <time>2017-04-30T15:28:51Z</time>
      </trkpt>
      <trkpt lat="46.449361" lon="22.710746">
        <ele>1334.011</ele>
        <time>2017-04-30T15:28:58Z</time>
      </trkpt>
      <trkpt lat="46.449453" lon="22.710692">
        <ele>1333.008</ele>
        <time>2017-04-30T15:29:07Z</time>
      </trkpt>
      <trkpt lat="46.449540" lon="22.710626">
        <ele>1331.066</ele>
        <time>2017-04-30T15:29:17Z</time>
      </trkpt>
      <trkpt lat="46.449616" lon="22.710542">
        <ele>1330.042</ele>
        <time>2017-04-30T15:29:26Z</time>
      </trkpt>
      <trkpt lat="46.449702" lon="22.710458">
        <ele>1329.041</ele>
        <time>2017-04-30T15:29:53Z</time>
      </trkpt>
      <trkpt lat="46.449764" lon="22.710344">
        <ele>1328.069</ele>
        <time>2017-04-30T15:30:00Z</time>
      </trkpt>
      <trkpt lat="46.449772" lon="22.710212">
        <ele>1328.040</ele>
        <time>2017-04-30T15:30:09Z</time>
      </trkpt>
      <trkpt lat="46.449778" lon="22.710081">
        <ele>1327.047</ele>
        <time>2017-04-30T15:30:19Z</time>
      </trkpt>
      <trkpt lat="46.449766" lon="22.709944">
        <ele>1327.092</ele>
        <time>2017-04-30T15:30:30Z</time>
      </trkpt>
      <trkpt lat="46.449794" lon="22.709815">
        <ele>1326.015</ele>
        <time>2017-04-30T15:30:39Z</time>
      </trkpt>
      <trkpt lat="46.449868" lon="22.709733">
        <ele>1325.059</ele>
        <time>2017-04-30T15:30:50Z</time>
      </trkpt>
      <trkpt lat="46.449960" lon="22.709722">
        <ele>1324.003</ele>
        <time>2017-04-30T15:31:33Z</time>
      </trkpt>
      <trkpt lat="46.450049" lon="22.709817">
        <ele>1322.023</ele>
        <time>2017-04-30T15:31:40Z</time>
      </trkpt>
      <trkpt lat="46.450111" lon="22.709929">
        <ele>1326.008</ele>
        <time>2017-04-30T15:31:47Z</time>
      </trkpt>
      <trkpt lat="46.450169" lon="22.710051">
        <ele>1327.056</ele>
        <time>2017-04-30T15:31:54Z</time>
      </trkpt>
      <trkpt lat="46.450240" lon="22.710147">
        <ele>1327.012</ele>
        <time>2017-04-30T15:31:59Z</time>
      </trkpt>
      <trkpt lat="46.450311" lon="22.710259">
        <ele>1329.081</ele>
        <time>2017-04-30T15:32:04Z</time>
      </trkpt>
      <trkpt lat="46.450394" lon="22.710311">
        <ele>1325.049</ele>
        <time>2017-04-30T15:32:09Z</time>
      </trkpt>
      <trkpt lat="46.450450" lon="22.710421">
        <ele>1325.060</ele>
        <time>2017-04-30T15:32:18Z</time>
      </trkpt>
      <trkpt lat="46.450501" lon="22.710545">
        <ele>1324.067</ele>
        <time>2017-04-30T15:32:26Z</time>
      </trkpt>
      <trkpt lat="46.450560" lon="22.710665">
        <ele>1325.032</ele>
        <time>2017-04-30T15:32:35Z</time>
      </trkpt>
      <trkpt lat="46.450643" lon="22.710728">
        <ele>1320.055</ele>
        <time>2017-04-30T15:32:40Z</time>
      </trkpt>
      <trkpt lat="46.450722" lon="22.710819">
        <ele>1316.032</ele>
        <time>2017-04-30T15:32:53Z</time>
      </trkpt>
      <trkpt lat="46.450781" lon="22.710922">
        <ele>1313.092</ele>
        <time>2017-04-30T15:33:03Z</time>
      </trkpt>
      <trkpt lat="46.450821" lon="22.711042">
        <ele>1317.011</ele>
        <time>2017-04-30T15:33:13Z</time>
      </trkpt>
      <trkpt lat="46.450909" lon="22.711128">
        <ele>1316.008</ele>
        <time>2017-04-30T15:33:21Z</time>
      </trkpt>
      <trkpt lat="46.451002" lon="22.711190">
        <ele>1312.064</ele>
        <time>2017-04-30T15:33:28Z</time>
      </trkpt>
      <trkpt lat="46.451075" lon="22.711273">
        <ele>1312.050</ele>
        <time>2017-04-30T15:33:37Z</time>
      </trkpt>
      <trkpt lat="46.451167" lon="22.711275">
        <ele>1308.059</ele>
        <time>2017-04-30T15:33:51Z</time>
      </trkpt>
      <trkpt lat="46.451233" lon="22.711364">
        <ele>1311.077</ele>
        <time>2017-04-30T15:34:02Z</time>
      </trkpt>
      <trkpt lat="46.451310" lon="22.711436">
        <ele>1313.028</ele>
        <time>2017-04-30T15:34:10Z</time>
      </trkpt>
      <trkpt lat="46.451393" lon="22.711503">
        <ele>1313.075</ele>
        <time>2017-04-30T15:34:19Z</time>
      </trkpt>
      <trkpt lat="46.451478" lon="22.711552">
        <ele>1312.010</ele>
        <time>2017-04-30T15:34:26Z</time>
      </trkpt>
      <trkpt lat="46.451559" lon="22.711625">
        <ele>1310.063</ele>
        <time>2017-04-30T15:34:33Z</time>
      </trkpt>
      <trkpt lat="46.451652" lon="22.711694">
        <ele>1313.029</ele>
        <time>2017-04-30T15:34:43Z</time>
      </trkpt>
      <trkpt lat="46.451739" lon="22.711739">
        <ele>1309.000</ele>
        <time>2017-04-30T15:34:49Z</time>
      </trkpt>
      <trkpt lat="46.451819" lon="22.711804">
        <ele>1306.020</ele>
        <time>2017-04-30T15:34:56Z</time>
      </trkpt>
      <trkpt lat="46.451909" lon="22.711849">
        <ele>1305.008</ele>
        <time>2017-04-30T15:35:04Z</time>
      </trkpt>
      <trkpt lat="46.451988" lon="22.711933">
        <ele>1306.043</ele>
        <time>2017-04-30T15:35:12Z</time>
      </trkpt>
      <trkpt lat="46.452078" lon="22.711984">
        <ele>1306.059</ele>
        <time>2017-04-30T15:35:22Z</time>
      </trkpt>
      <trkpt lat="46.452161" lon="22.712061">
        <ele>1308.088</ele>
        <time>2017-04-30T15:35:31Z</time>
      </trkpt>
      <trkpt lat="46.452253" lon="22.712109">
        <ele>1307.046</ele>
        <time>2017-04-30T15:35:38Z</time>
      </trkpt>
      <trkpt lat="46.452338" lon="22.712163">
        <ele>1305.057</ele>
        <time>2017-04-30T15:35:44Z</time>
      </trkpt>
      <trkpt lat="46.452422" lon="22.712217">
        <ele>1303.024</ele>
        <time>2017-04-30T15:35:52Z</time>
      </trkpt>
      <trkpt lat="46.452514" lon="22.712243">
        <ele>1299.069</ele>
        <time>2017-04-30T15:35:59Z</time>
      </trkpt>
      <trkpt lat="46.452604" lon="22.712272">
        <ele>1296.072</ele>
        <time>2017-04-30T15:36:06Z</time>
      </trkpt>
      <trkpt lat="46.452700" lon="22.712282">
        <ele>1292.084</ele>
        <time>2017-04-30T15:36:14Z</time>
      </trkpt>
      <trkpt lat="46.452789" lon="22.712352">
        <ele>1290.007</ele>
        <time>2017-04-30T15:36:22Z</time>
      </trkpt>
      <trkpt lat="46.452868" lon="22.712425">
        <ele>1288.017</ele>
        <time>2017-04-30T15:36:31Z</time>
      </trkpt>
      <trkpt lat="46.452929" lon="22.712530">
        <ele>1289.008</ele>
        <time>2017-04-30T15:36:39Z</time>
      </trkpt>
      <trkpt lat="46.452993" lon="22.712629">
        <ele>1290.079</ele>
        <time>2017-04-30T15:36:47Z</time>
      </trkpt>
      <trkpt lat="46.453069" lon="22.712723">
        <ele>1290.015</ele>
        <time>2017-04-30T15:36:56Z</time>
      </trkpt>
      <trkpt lat="46.453146" lon="22.712799">
        <ele>1288.044</ele>
        <time>2017-04-30T15:37:04Z</time>
      </trkpt>
      <trkpt lat="46.453228" lon="22.712877">
        <ele>1286.022</ele>
        <time>2017-04-30T15:37:12Z</time>
      </trkpt>
      <trkpt lat="46.453310" lon="22.712941">
        <ele>1286.043</ele>
        <time>2017-04-30T15:37:19Z</time>
      </trkpt>
      <trkpt lat="46.453388" lon="22.713025">
        <ele>1287.080</ele>
        <time>2017-04-30T15:37:29Z</time>
      </trkpt>
      <trkpt lat="46.453463" lon="22.713108">
        <ele>1284.075</ele>
        <time>2017-04-30T15:37:37Z</time>
      </trkpt>
      <trkpt lat="46.453537" lon="22.713188">
        <ele>1285.088</ele>
        <time>2017-04-30T15:37:46Z</time>
      </trkpt>
      <trkpt lat="46.453629" lon="22.713263">
        <ele>1285.095</ele>
        <time>2017-04-30T15:37:55Z</time>
      </trkpt>
      <trkpt lat="46.453714" lon="22.713342">
        <ele>1283.049</ele>
        <time>2017-04-30T15:38:03Z</time>
      </trkpt>
      <trkpt lat="46.453785" lon="22.713423">
        <ele>1281.023</ele>
        <time>2017-04-30T15:38:10Z</time>
      </trkpt>
      <trkpt lat="46.453865" lon="22.713507">
        <ele>1281.008</ele>
        <time>2017-04-30T15:38:19Z</time>
      </trkpt>
      <trkpt lat="46.453941" lon="22.713589">
        <ele>1281.020</ele>
        <time>2017-04-30T15:38:26Z</time>
      </trkpt>
      <trkpt lat="46.454025" lon="22.713664">
        <ele>1279.096</ele>
        <time>2017-04-30T15:38:35Z</time>
      </trkpt>
      <trkpt lat="46.454102" lon="22.713737">
        <ele>1277.095</ele>
        <time>2017-04-30T15:38:43Z</time>
      </trkpt>
      <trkpt lat="46.454179" lon="22.713832">
        <ele>1275.083</ele>
        <time>2017-04-30T15:38:52Z</time>
      </trkpt>
      <trkpt lat="46.454239" lon="22.713946">
        <ele>1275.024</ele>
        <time>2017-04-30T15:38:59Z</time>
      </trkpt>
      <trkpt lat="46.454307" lon="22.714046">
        <ele>1274.051</ele>
        <time>2017-04-30T15:39:06Z</time>
      </trkpt>
      <trkpt lat="46.454368" lon="22.714143">
        <ele>1274.086</ele>
        <time>2017-04-30T15:39:14Z</time>
      </trkpt>
      <trkpt lat="46.454423" lon="22.714250">
        <ele>1274.089</ele>
        <time>2017-04-30T15:39:24Z</time>
      </trkpt>
      <trkpt lat="46.454479" lon="22.714360">
        <ele>1275.032</ele>
        <time>2017-04-30T15:39:35Z</time>
      </trkpt>
      <trkpt lat="46.454558" lon="22.714453">
        <ele>1272.092</ele>
        <time>2017-04-30T15:39:43Z</time>
      </trkpt>
      <trkpt lat="46.454593" lon="22.714578">
        <ele>1274.011</ele>
        <time>2017-04-30T15:39:53Z</time>
      </trkpt>
      <trkpt lat="46.454670" lon="22.714660">
        <ele>1274.008</ele>
        <time>2017-04-30T15:40:01Z</time>
      </trkpt>
      <trkpt lat="46.454740" lon="22.714755">
        <ele>1271.074</ele>
        <time>2017-04-30T15:40:08Z</time>
      </trkpt>
      <trkpt lat="46.454784" lon="22.714874">
        <ele>1271.070</ele>
        <time>2017-04-30T15:40:18Z</time>
      </trkpt>
      <trkpt lat="46.454852" lon="22.714975">
        <ele>1267.089</ele>
        <time>2017-04-30T15:40:25Z</time>
      </trkpt>
      <trkpt lat="46.454918" lon="22.715075">
        <ele>1267.077</ele>
        <time>2017-04-30T15:40:35Z</time>
      </trkpt>
      <trkpt lat="46.454981" lon="22.715169">
        <ele>1266.078</ele>
        <time>2017-04-30T15:40:44Z</time>
      </trkpt>
      <trkpt lat="46.455063" lon="22.715283">
        <ele>1267.045</ele>
        <time>2017-04-30T15:40:53Z</time>
      </trkpt>
      <trkpt lat="46.455132" lon="22.715378">
        <ele>1265.090</ele>
        <time>2017-04-30T15:41:02Z</time>
      </trkpt>
      <trkpt lat="46.455212" lon="22.715490">
        <ele>1262.053</ele>
        <time>2017-04-30T15:41:11Z</time>
      </trkpt>
      <trkpt lat="46.455274" lon="22.715587">
        <ele>1263.047</ele>
        <time>2017-04-30T15:41:18Z</time>
      </trkpt>
      <trkpt lat="46.455341" lon="22.715675">
        <ele>1260.029</ele>
        <time>2017-04-30T15:41:23Z</time>
      </trkpt>
      <trkpt lat="46.455386" lon="22.715793">
        <ele>1259.021</ele>
        <time>2017-04-30T15:41:31Z</time>
      </trkpt>
      <trkpt lat="46.455442" lon="22.715895">
        <ele>1259.008</ele>
        <time>2017-04-30T15:41:37Z</time>
      </trkpt>
      <trkpt lat="46.455497" lon="22.716014">
        <ele>1262.095</ele>
        <time>2017-04-30T15:41:46Z</time>
      </trkpt>
      <trkpt lat="46.455564" lon="22.716106">
        <ele>1260.061</ele>
        <time>2017-04-30T15:41:55Z</time>
      </trkpt>
      <trkpt lat="46.455637" lon="22.716189">
        <ele>1256.090</ele>
        <time>2017-04-30T15:42:03Z</time>
      </trkpt>
      <trkpt lat="46.455717" lon="22.716259">
        <ele>1256.048</ele>
        <time>2017-04-30T15:42:11Z</time>
      </trkpt>
      <trkpt lat="46.455790" lon="22.716357">
        <ele>1255.029</ele>
        <time>2017-04-30T15:42:19Z</time>
      </trkpt>
      <trkpt lat="46.455871" lon="22.716440">
        <ele>1251.046</ele>
        <time>2017-04-30T15:42:27Z</time>
      </trkpt>
      <trkpt lat="46.455943" lon="22.716527">
        <ele>1249.031</ele>
        <time>2017-04-30T15:42:35Z</time>
      </trkpt>
      <trkpt lat="46.456019" lon="22.716612">
        <ele>1248.094</ele>
        <time>2017-04-30T15:42:43Z</time>
      </trkpt>
      <trkpt lat="46.456103" lon="22.716698">
        <ele>1249.069</ele>
        <time>2017-04-30T15:42:51Z</time>
      </trkpt>
      <trkpt lat="46.456186" lon="22.716766">
        <ele>1248.004</ele>
        <time>2017-04-30T15:42:57Z</time>
      </trkpt>
      <trkpt lat="46.456264" lon="22.716840">
        <ele>1246.024</ele>
        <time>2017-04-30T15:43:03Z</time>
      </trkpt>
      <trkpt lat="46.456333" lon="22.716925">
        <ele>1246.008</ele>
        <time>2017-04-30T15:43:09Z</time>
      </trkpt>
      <trkpt lat="46.456423" lon="22.716998">
        <ele>1245.017</ele>
        <time>2017-04-30T15:43:17Z</time>
      </trkpt>
      <trkpt lat="46.456519" lon="22.717042">
        <ele>1244.043</ele>
        <time>2017-04-30T15:43:25Z</time>
      </trkpt>
      <trkpt lat="46.456605" lon="22.717093">
        <ele>1245.012</ele>
        <time>2017-04-30T15:43:31Z</time>
      </trkpt>
      <trkpt lat="46.456700" lon="22.717130">
        <ele>1244.030</ele>
        <time>2017-04-30T15:43:39Z</time>
      </trkpt>
      <trkpt lat="46.456785" lon="22.717205">
        <ele>1243.021</ele>
        <time>2017-04-30T15:43:47Z</time>
      </trkpt>
      <trkpt lat="46.456831" lon="22.717324">
        <ele>1243.018</ele>
        <time>2017-04-30T15:43:56Z</time>
      </trkpt>
      <trkpt lat="46.456892" lon="22.717445">
        <ele>1245.033</ele>
        <time>2017-04-30T15:44:04Z</time>
      </trkpt>
      <trkpt lat="46.456957" lon="22.717535">
        <ele>1248.066</ele>
        <time>2017-04-30T15:44:13Z</time>
      </trkpt>
      <trkpt lat="46.457019" lon="22.717650">
        <ele>1252.084</ele>
        <time>2017-04-30T15:44:21Z</time>
      </trkpt>
      <trkpt lat="46.457082" lon="22.717744">
        <ele>1247.007</ele>
        <time>2017-04-30T15:44:28Z</time>
      </trkpt>
      <trkpt lat="46.457162" lon="22.717809">
        <ele>1242.017</ele>
        <time>2017-04-30T15:44:32Z</time>
      </trkpt>
      <trkpt lat="46.457225" lon="22.717904">
        <ele>1245.008</ele>
        <time>2017-04-30T15:44:41Z</time>
      </trkpt>
      <trkpt lat="46.457305" lon="22.717974">
        <ele>1246.059</ele>
        <time>2017-04-30T15:44:51Z</time>
      </trkpt>
      <trkpt lat="46.457375" lon="22.718065">
        <ele>1249.045</ele>
        <time>2017-04-30T15:44:59Z</time>
      </trkpt>
      <trkpt lat="46.457444" lon="22.718157">
        <ele>1246.034</ele>
        <time>2017-04-30T15:45:06Z</time>
      </trkpt>
      <trkpt lat="46.457512" lon="22.718266">
        <ele>1240.042</ele>
        <time>2017-04-30T15:45:13Z</time>
      </trkpt>
      <trkpt lat="46.457577" lon="22.718384">
        <ele>1243.093</ele>
        <time>2017-04-30T15:45:21Z</time>
      </trkpt>
      <trkpt lat="46.457647" lon="22.718482">
        <ele>1237.080</ele>
        <time>2017-04-30T15:45:29Z</time>
      </trkpt>
      <trkpt lat="46.457731" lon="22.718557">
        <ele>1230.035</ele>
        <time>2017-04-30T15:45:37Z</time>
      </trkpt>
      <trkpt lat="46.457786" lon="22.718674">
        <ele>1232.088</ele>
        <time>2017-04-30T15:45:45Z</time>
      </trkpt>
      <trkpt lat="46.457848" lon="22.718776">
        <ele>1228.069</ele>
        <time>2017-04-30T15:45:52Z</time>
      </trkpt>
      <trkpt lat="46.457918" lon="22.718859">
        <ele>1226.004</ele>
        <time>2017-04-30T15:46:01Z</time>
      </trkpt>
      <trkpt lat="46.457992" lon="22.718946">
        <ele>1222.024</ele>
        <time>2017-04-30T15:46:09Z</time>
      </trkpt>
      <trkpt lat="46.458039" lon="22.719059">
        <ele>1226.008</ele>
        <time>2017-04-30T15:46:18Z</time>
      </trkpt>
      <trkpt lat="46.458119" lon="22.719139">
        <ele>1225.057</ele>
        <time>2017-04-30T15:46:25Z</time>
      </trkpt>
      <trkpt lat="46.458202" lon="22.719229">
        <ele>1225.053</ele>
        <time>2017-04-30T15:46:33Z</time>
      </trkpt>
      <trkpt lat="46.458286" lon="22.719317">
        <ele>1222.022</ele>
        <time>2017-04-30T15:46:41Z</time>
      </trkpt>
      <trkpt lat="46.458341" lon="22.719421">
        <ele>1218.020</ele>
        <time>2017-04-30T15:46:49Z</time>
      </trkpt>
      <trkpt lat="46.458419" lon="22.719512">
        <ele>1217.011</ele>
        <time>2017-04-30T15:46:56Z</time>
      </trkpt>
      <trkpt lat="46.458501" lon="22.719591">
        <ele>1218.098</ele>
        <time>2017-04-30T15:47:03Z</time>
      </trkpt>
      <trkpt lat="46.458582" lon="22.719651">
        <ele>1217.063</ele>
        <time>2017-04-30T15:47:08Z</time>
      </trkpt>
      <trkpt lat="46.458670" lon="22.719713">
        <ele>1215.036</ele>
        <time>2017-04-30T15:47:16Z</time>
      </trkpt>
      <trkpt lat="46.458762" lon="22.719764">
        <ele>1213.063</ele>
        <time>2017-04-30T15:47:23Z</time>
      </trkpt>
      <trkpt lat="46.458824" lon="22.719866">
        <ele>1210.044</ele>
        <time>2017-04-30T15:47:37Z</time>
      </trkpt>
      <trkpt lat="46.458742" lon="22.719805">
        <ele>1197.018</ele>
        <time>2017-04-30T15:48:04Z</time>
      </trkpt>
      <trkpt lat="46.458654" lon="22.719765">
        <ele>1197.008</ele>
        <time>2017-04-30T15:48:19Z</time>
      </trkpt>
      <trkpt lat="46.458558" lon="22.719719">
        <ele>1193.077</ele>
        <time>2017-04-30T15:48:25Z</time>
      </trkpt>
      <trkpt lat="46.458460" lon="22.719667">
        <ele>1192.043</ele>
        <time>2017-04-30T15:48:34Z</time>
      </trkpt>
      <trkpt lat="46.458360" lon="22.719618">
        <ele>1190.082</ele>
        <time>2017-04-30T15:48:44Z</time>
      </trkpt>
      <trkpt lat="46.458278" lon="22.719559">
        <ele>1193.030</ele>
        <time>2017-04-30T15:48:51Z</time>
      </trkpt>
      <trkpt lat="46.458194" lon="22.719511">
        <ele>1193.041</ele>
        <time>2017-04-30T15:48:59Z</time>
      </trkpt>
      <trkpt lat="46.458101" lon="22.719440">
        <ele>1191.088</ele>
        <time>2017-04-30T15:49:10Z</time>
      </trkpt>
      <trkpt lat="46.457998" lon="22.719373">
        <ele>1191.073</ele>
        <time>2017-04-30T15:49:17Z</time>
      </trkpt>
      <trkpt lat="46.457904" lon="22.719326">
        <ele>1190.096</ele>
        <time>2017-04-30T15:49:25Z</time>
      </trkpt>
      <trkpt lat="46.457814" lon="22.719279">
        <ele>1191.028</ele>
        <time>2017-04-30T15:49:31Z</time>
      </trkpt>
      <trkpt lat="46.457717" lon="22.719228">
        <ele>1188.089</ele>
        <time>2017-04-30T15:49:39Z</time>
      </trkpt>
      <trkpt lat="46.457590" lon="22.719276">
        <ele>1186.017</ele>
        <time>2017-04-30T15:49:49Z</time>
      </trkpt>
      <trkpt lat="46.457506" lon="22.719368">
        <ele>1188.008</ele>
        <time>2017-04-30T15:49:57Z</time>
      </trkpt>
      <trkpt lat="46.457456" lon="22.719477">
        <ele>1190.073</ele>
        <time>2017-04-30T15:50:04Z</time>
      </trkpt>
      <trkpt lat="46.457462" lon="22.719621">
        <ele>1195.029</ele>
        <time>2017-04-30T15:50:13Z</time>
      </trkpt>
      <trkpt lat="46.457527" lon="22.719751">
        <ele>1192.038</ele>
        <time>2017-04-30T15:50:21Z</time>
      </trkpt>
      <trkpt lat="46.457588" lon="22.719872">
        <ele>1188.016</ele>
        <time>2017-04-30T15:50:29Z</time>
      </trkpt>
      <trkpt lat="46.457661" lon="22.719962">
        <ele>1190.017</ele>
        <time>2017-04-30T15:50:37Z</time>
      </trkpt>
      <trkpt lat="46.457750" lon="22.720041">
        <ele>1187.074</ele>
        <time>2017-04-30T15:50:43Z</time>
      </trkpt>
      <trkpt lat="46.457832" lon="22.720128">
        <ele>1189.069</ele>
        <time>2017-04-30T15:50:51Z</time>
      </trkpt>
      <trkpt lat="46.457872" lon="22.720251">
        <ele>1187.032</ele>
        <time>2017-04-30T15:51:00Z</time>
      </trkpt>
      <trkpt lat="46.457933" lon="22.720370">
        <ele>1188.013</ele>
        <time>2017-04-30T15:51:08Z</time>
      </trkpt>
      <trkpt lat="46.458015" lon="22.720442">
        <ele>1189.043</ele>
        <time>2017-04-30T15:51:15Z</time>
      </trkpt>
      <trkpt lat="46.458098" lon="22.720519">
        <ele>1185.007</ele>
        <time>2017-04-30T15:51:23Z</time>
      </trkpt>
      <trkpt lat="46.458147" lon="22.720637">
        <ele>1189.008</ele>
        <time>2017-04-30T15:51:32Z</time>
      </trkpt>
      <trkpt lat="46.458193" lon="22.720775">
        <ele>1187.072</ele>
        <time>2017-04-30T15:51:41Z</time>
      </trkpt>
      <trkpt lat="46.458258" lon="22.720870">
        <ele>1190.058</ele>
        <time>2017-04-30T15:51:48Z</time>
      </trkpt>
      <trkpt lat="46.458322" lon="22.720971">
        <ele>1183.047</ele>
        <time>2017-04-30T15:51:52Z</time>
      </trkpt>
      <trkpt lat="46.458400" lon="22.721065">
        <ele>1184.015</ele>
        <time>2017-04-30T15:52:00Z</time>
      </trkpt>
      <trkpt lat="46.458460" lon="22.721166">
        <ele>1188.036</ele>
        <time>2017-04-30T15:52:08Z</time>
      </trkpt>
      <trkpt lat="46.458519" lon="22.721290">
        <ele>1188.063</ele>
        <time>2017-04-30T15:52:17Z</time>
      </trkpt>
      <trkpt lat="46.458600" lon="22.721374">
        <ele>1190.068</ele>
        <time>2017-04-30T15:52:25Z</time>
      </trkpt>
      <trkpt lat="46.458676" lon="22.721484">
        <ele>1188.061</ele>
        <time>2017-04-30T15:52:33Z</time>
      </trkpt>
      <trkpt lat="46.458738" lon="22.721592">
        <ele>1193.054</ele>
        <time>2017-04-30T15:52:41Z</time>
      </trkpt>
      <trkpt lat="46.458777" lon="22.721711">
        <ele>1196.056</ele>
        <time>2017-04-30T15:52:49Z</time>
      </trkpt>
      <trkpt lat="46.458857" lon="22.721796">
        <ele>1198.011</ele>
        <time>2017-04-30T15:52:56Z</time>
      </trkpt>
      <trkpt lat="46.458907" lon="22.721925">
        <ele>1195.008</ele>
        <time>2017-04-30T15:53:04Z</time>
      </trkpt>
      <trkpt lat="46.458951" lon="22.722048">
        <ele>1196.096</ele>
        <time>2017-04-30T15:53:13Z</time>
      </trkpt>
      <trkpt lat="46.458962" lon="22.722186">
        <ele>1201.042</ele>
        <time>2017-04-30T15:53:23Z</time>
      </trkpt>
      <trkpt lat="46.458982" lon="22.722316">
        <ele>1208.081</ele>
        <time>2017-04-30T15:53:33Z</time>
      </trkpt>
      <trkpt lat="46.458995" lon="22.722461">
        <ele>1213.049</ele>
        <time>2017-04-30T15:53:42Z</time>
      </trkpt>
      <trkpt lat="46.459066" lon="22.722569">
        <ele>1210.070</ele>
        <time>2017-04-30T15:53:49Z</time>
      </trkpt>
      <trkpt lat="46.459128" lon="22.722667">
        <ele>1208.057</ele>
        <time>2017-04-30T15:53:53Z</time>
      </trkpt>
      <trkpt lat="46.459208" lon="22.722763">
        <ele>1203.072</ele>
        <time>2017-04-30T15:53:57Z</time>
      </trkpt>
      <trkpt lat="46.459274" lon="22.722862">
        <ele>1202.085</ele>
        <time>2017-04-30T15:54:04Z</time>
      </trkpt>
      <trkpt lat="46.459316" lon="22.723003">
        <ele>1201.025</ele>
        <time>2017-04-30T15:54:12Z</time>
      </trkpt>
      <trkpt lat="46.459355" lon="22.723123">
        <ele>1206.026</ele>
        <time>2017-04-30T15:54:23Z</time>
      </trkpt>
      <trkpt lat="46.459429" lon="22.723217">
        <ele>1202.008</ele>
        <time>2017-04-30T15:54:30Z</time>
      </trkpt>
      <trkpt lat="46.459473" lon="22.723360">
        <ele>1189.008</ele>
        <time>2017-04-30T15:54:38Z</time>
      </trkpt>
      <trkpt lat="46.459510" lon="22.723480">
        <ele>1197.093</ele>
        <time>2017-04-30T15:54:48Z</time>
      </trkpt>
      <trkpt lat="46.459511" lon="22.723632">
        <ele>1196.079</ele>
        <time>2017-04-30T15:54:57Z</time>
      </trkpt>
      <trkpt lat="46.459559" lon="22.723766">
        <ele>1195.028</ele>
        <time>2017-04-30T15:55:05Z</time>
      </trkpt>
      <trkpt lat="46.459594" lon="22.723898">
        <ele>1190.036</ele>
        <time>2017-04-30T15:55:13Z</time>
      </trkpt>
      <trkpt lat="46.459647" lon="22.724010">
        <ele>1194.037</ele>
        <time>2017-04-30T15:55:20Z</time>
      </trkpt>
      <trkpt lat="46.459717" lon="22.724126">
        <ele>1185.074</ele>
        <time>2017-04-30T15:55:27Z</time>
      </trkpt>
      <trkpt lat="46.459752" lon="22.724248">
        <ele>1184.089</ele>
        <time>2017-04-30T15:55:37Z</time>
      </trkpt>
      <trkpt lat="46.459795" lon="22.724378">
        <ele>1182.092</ele>
        <time>2017-04-30T15:55:44Z</time>
      </trkpt>
      <trkpt lat="46.459841" lon="22.724519">
        <ele>1176.021</ele>
        <time>2017-04-30T15:55:50Z</time>
      </trkpt>
      <trkpt lat="46.459889" lon="22.724652">
        <ele>1171.041</ele>
        <time>2017-04-30T15:55:58Z</time>
      </trkpt>
      <trkpt lat="46.459899" lon="22.724785">
        <ele>1168.005</ele>
        <time>2017-04-30T15:56:05Z</time>
      </trkpt>
      <trkpt lat="46.459926" lon="22.724913">
        <ele>1163.008</ele>
        <time>2017-04-30T15:56:14Z</time>
      </trkpt>
      <trkpt lat="46.459993" lon="22.725004">
        <ele>1157.033</ele>
        <time>2017-04-30T15:56:44Z</time>
      </trkpt>
      <trkpt lat="46.459982" lon="22.725138">
        <ele>1156.099</ele>
        <time>2017-04-30T16:02:40Z</time>
      </trkpt>
      <trkpt lat="46.460021" lon="22.725270">
        <ele>1155.058</ele>
        <time>2017-04-30T16:02:53Z</time>
      </trkpt>
      <trkpt lat="46.460054" lon="22.725400">
        <ele>1155.016</ele>
        <time>2017-04-30T16:03:03Z</time>
      </trkpt>
      <trkpt lat="46.460077" lon="22.725537">
        <ele>1158.047</ele>
        <time>2017-04-30T16:03:12Z</time>
      </trkpt>
      <trkpt lat="46.460092" lon="22.725679">
        <ele>1158.064</ele>
        <time>2017-04-30T16:03:21Z</time>
      </trkpt>
      <trkpt lat="46.460111" lon="22.725818">
        <ele>1162.029</ele>
        <time>2017-04-30T16:03:30Z</time>
      </trkpt>
      <trkpt lat="46.460141" lon="22.725954">
        <ele>1160.082</ele>
        <time>2017-04-30T16:03:39Z</time>
      </trkpt>
      <trkpt lat="46.460177" lon="22.726078">
        <ele>1160.012</ele>
        <time>2017-04-30T16:03:47Z</time>
      </trkpt>
      <trkpt lat="46.460197" lon="22.726208">
        <ele>1155.032</ele>
        <time>2017-04-30T16:03:54Z</time>
      </trkpt>
      <trkpt lat="46.460233" lon="22.726337">
        <ele>1160.005</ele>
        <time>2017-04-30T16:04:04Z</time>
      </trkpt>
      <trkpt lat="46.460264" lon="22.726465">
        <ele>1155.008</ele>
        <time>2017-04-30T16:04:09Z</time>
      </trkpt>
      <trkpt lat="46.460309" lon="22.726594">
        <ele>1152.012</ele>
        <time>2017-04-30T16:04:17Z</time>
      </trkpt>
      <trkpt lat="46.460343" lon="22.726716">
        <ele>1148.028</ele>
        <time>2017-04-30T16:04:33Z</time>
      </trkpt>
      <trkpt lat="46.460367" lon="22.726844">
        <ele>1146.037</ele>
        <time>2017-04-30T16:04:42Z</time>
      </trkpt>
      <trkpt lat="46.460384" lon="22.726986">
        <ele>1148.045</ele>
        <time>2017-04-30T16:04:51Z</time>
      </trkpt>
      <trkpt lat="46.460408" lon="22.727138">
        <ele>1146.096</ele>
        <time>2017-04-30T16:05:00Z</time>
      </trkpt>
      <trkpt lat="46.460460" lon="22.727245">
        <ele>1147.033</ele>
        <time>2017-04-30T16:05:08Z</time>
      </trkpt>
      <trkpt lat="46.460464" lon="22.727376">
        <ele>1146.058</ele>
        <time>2017-04-30T16:05:15Z</time>
      </trkpt>
      <trkpt lat="46.460467" lon="22.727514">
        <ele>1145.071</ele>
        <time>2017-04-30T16:05:23Z</time>
      </trkpt>
      <trkpt lat="46.460469" lon="22.727651">
        <ele>1144.015</ele>
        <time>2017-04-30T16:05:32Z</time>
      </trkpt>
      <trkpt lat="46.460470" lon="22.727806">
        <ele>1141.065</ele>
        <time>2017-04-30T16:05:41Z</time>
      </trkpt>
      <trkpt lat="46.460474" lon="22.727953">
        <ele>1138.011</ele>
        <time>2017-04-30T16:05:49Z</time>
      </trkpt>
      <trkpt lat="46.460459" lon="22.728101">
        <ele>1138.008</ele>
        <time>2017-04-30T16:05:58Z</time>
      </trkpt>
      <trkpt lat="46.460459" lon="22.728241">
        <ele>1134.092</ele>
        <time>2017-04-30T16:06:06Z</time>
      </trkpt>
      <trkpt lat="46.460456" lon="22.728378">
        <ele>1133.028</ele>
        <time>2017-04-30T16:06:15Z</time>
      </trkpt>
      <trkpt lat="46.460445" lon="22.728523">
        <ele>1136.067</ele>
        <time>2017-04-30T16:06:26Z</time>
      </trkpt>
      <trkpt lat="46.460393" lon="22.728631">
        <ele>1132.075</ele>
        <time>2017-04-30T16:06:32Z</time>
      </trkpt>
      <trkpt lat="46.460329" lon="22.728742">
        <ele>1129.086</ele>
        <time>2017-04-30T16:06:39Z</time>
      </trkpt>
      <trkpt lat="46.460253" lon="22.728812">
        <ele>1131.033</ele>
        <time>2017-04-30T16:06:46Z</time>
      </trkpt>
      <trkpt lat="46.460171" lon="22.728887">
        <ele>1131.048</ele>
        <time>2017-04-30T16:06:52Z</time>
      </trkpt>
      <trkpt lat="46.460107" lon="22.728981">
        <ele>1130.051</ele>
        <time>2017-04-30T16:07:03Z</time>
      </trkpt>
      <trkpt lat="46.460013" lon="22.728989">
        <ele>1127.066</ele>
        <time>2017-04-30T16:07:16Z</time>
      </trkpt>
      <trkpt lat="46.459922" lon="22.729050">
        <ele>1127.029</ele>
        <time>2017-04-30T16:07:20Z</time>
      </trkpt>
      <trkpt lat="46.459810" lon="22.729059">
        <ele>1124.021</ele>
        <time>2017-04-30T16:07:25Z</time>
      </trkpt>
      <trkpt lat="46.459727" lon="22.729118">
        <ele>1123.008</ele>
        <time>2017-04-30T16:07:32Z</time>
      </trkpt>
      <trkpt lat="46.459634" lon="22.729122">
        <ele>1119.077</ele>
        <time>2017-04-30T16:07:42Z</time>
      </trkpt>
      <trkpt lat="46.459539" lon="22.729155">
        <ele>1117.043</ele>
        <time>2017-04-30T16:07:50Z</time>
      </trkpt>
      <trkpt lat="46.459474" lon="22.729256">
        <ele>1116.042</ele>
        <time>2017-04-30T16:07:59Z</time>
      </trkpt>
      <trkpt lat="46.459365" lon="22.729275">
        <ele>1111.060</ele>
        <time>2017-04-30T16:08:04Z</time>
      </trkpt>
      <trkpt lat="46.459301" lon="22.729393">
        <ele>1110.021</ele>
        <time>2017-04-30T16:08:13Z</time>
      </trkpt>
      <trkpt lat="46.459319" lon="22.729526">
        <ele>1117.048</ele>
        <time>2017-04-30T16:08:22Z</time>
      </trkpt>
      <trkpt lat="46.459386" lon="22.729628">
        <ele>1119.073</ele>
        <time>2017-04-30T16:08:30Z</time>
      </trkpt>
      <trkpt lat="46.459464" lon="22.729710">
        <ele>1119.076</ele>
        <time>2017-04-30T16:08:37Z</time>
      </trkpt>
      <trkpt lat="46.459547" lon="22.729797">
        <ele>1121.012</ele>
        <time>2017-04-30T16:08:46Z</time>
      </trkpt>
      <trkpt lat="46.459639" lon="22.729865">
        <ele>1118.032</ele>
        <time>2017-04-30T16:08:54Z</time>
      </trkpt>
      <trkpt lat="46.459725" lon="22.729942">
        <ele>1118.005</ele>
        <time>2017-04-30T16:09:03Z</time>
      </trkpt>
      <trkpt lat="46.459804" lon="22.730018">
        <ele>1117.008</ele>
        <time>2017-04-30T16:09:12Z</time>
      </trkpt>
      <trkpt lat="46.459892" lon="22.730083">
        <ele>1116.062</ele>
        <time>2017-04-30T16:09:21Z</time>
      </trkpt>
      <trkpt lat="46.459972" lon="22.730172">
        <ele>1112.078</ele>
        <time>2017-04-30T16:09:28Z</time>
      </trkpt>
      <trkpt lat="46.460044" lon="22.730250">
        <ele>1116.097</ele>
        <time>2017-04-30T16:09:37Z</time>
      </trkpt>
      <trkpt lat="46.460072" lon="22.730376">
        <ele>1117.025</ele>
        <time>2017-04-30T16:09:45Z</time>
      </trkpt>
      <trkpt lat="46.460113" lon="22.730520">
        <ele>1121.056</ele>
        <time>2017-04-30T16:09:55Z</time>
      </trkpt>
      <trkpt lat="46.460120" lon="22.730663">
        <ele>1124.043</ele>
        <time>2017-04-30T16:10:03Z</time>
      </trkpt>
      <trkpt lat="46.460136" lon="22.730805">
        <ele>1120.048</ele>
        <time>2017-04-30T16:10:10Z</time>
      </trkpt>
      <trkpt lat="46.460156" lon="22.730941">
        <ele>1117.011</ele>
        <time>2017-04-30T16:10:16Z</time>
      </trkpt>
      <trkpt lat="46.460167" lon="22.731079">
        <ele>1119.034</ele>
        <time>2017-04-30T16:10:24Z</time>
      </trkpt>
      <trkpt lat="46.460172" lon="22.731216">
        <ele>1123.055</ele>
        <time>2017-04-30T16:10:33Z</time>
      </trkpt>
      <trkpt lat="46.460177" lon="22.731351">
        <ele>1128.010</ele>
        <time>2017-04-30T16:10:42Z</time>
      </trkpt>
      <trkpt lat="46.460210" lon="22.731486">
        <ele>1128.008</ele>
        <time>2017-04-30T16:10:50Z</time>
      </trkpt>
      <trkpt lat="46.460226" lon="22.731650">
        <ele>1122.094</ele>
        <time>2017-04-30T16:10:58Z</time>
      </trkpt>
      <trkpt lat="46.460253" lon="22.731793">
        <ele>1115.080</ele>
        <time>2017-04-30T16:11:05Z</time>
      </trkpt>
      <trkpt lat="46.460261" lon="22.731933">
        <ele>1111.029</ele>
        <time>2017-04-30T16:11:12Z</time>
      </trkpt>
      <trkpt lat="46.460281" lon="22.732070">
        <ele>1107.037</ele>
        <time>2017-04-30T16:11:20Z</time>
      </trkpt>
      <trkpt lat="46.460303" lon="22.732207">
        <ele>1104.018</ele>
        <time>2017-04-30T16:11:28Z</time>
      </trkpt>
      <trkpt lat="46.460337" lon="22.732338">
        <ele>1108.085</ele>
        <time>2017-04-30T16:11:36Z</time>
      </trkpt>
      <trkpt lat="46.460376" lon="22.732468">
        <ele>1109.060</ele>
        <time>2017-04-30T16:11:44Z</time>
      </trkpt>
      <trkpt lat="46.460422" lon="22.732583">
        <ele>1110.073</ele>
        <time>2017-04-30T16:11:53Z</time>
      </trkpt>
      <trkpt lat="46.460448" lon="22.732718">
        <ele>1114.061</ele>
        <time>2017-04-30T16:12:01Z</time>
      </trkpt>
      <trkpt lat="46.460509" lon="22.732827">
        <ele>1118.021</ele>
        <time>2017-04-30T16:12:10Z</time>
      </trkpt>
      <trkpt lat="46.460538" lon="22.732967">
        <ele>1116.013</ele>
        <time>2017-04-30T16:12:19Z</time>
      </trkpt>
      <trkpt lat="46.460573" lon="22.733092">
        <ele>1111.008</ele>
        <time>2017-04-30T16:12:24Z</time>
      </trkpt>
      <trkpt lat="46.460625" lon="22.733214">
        <ele>1106.067</ele>
        <time>2017-04-30T16:12:31Z</time>
      </trkpt>
      <trkpt lat="46.460639" lon="22.733352">
        <ele>1105.063</ele>
        <time>2017-04-30T16:12:39Z</time>
      </trkpt>
      <trkpt lat="46.460689" lon="22.733468">
        <ele>1102.092</ele>
        <time>2017-04-30T16:12:45Z</time>
      </trkpt>
      <trkpt lat="46.460743" lon="22.733578">
        <ele>1100.050</ele>
        <time>2017-04-30T16:12:54Z</time>
      </trkpt>
      <trkpt lat="46.460804" lon="22.733692">
        <ele>1100.031</ele>
        <time>2017-04-30T16:13:01Z</time>
      </trkpt>
      <trkpt lat="46.460861" lon="22.733826">
        <ele>1098.058</ele>
        <time>2017-04-30T16:13:09Z</time>
      </trkpt>
      <trkpt lat="46.460912" lon="22.733937">
        <ele>1093.093</ele>
        <time>2017-04-30T16:13:15Z</time>
      </trkpt>
      <trkpt lat="46.460969" lon="22.734039">
        <ele>1093.066</ele>
        <time>2017-04-30T16:13:23Z</time>
      </trkpt>
      <trkpt lat="46.461025" lon="22.734154">
        <ele>1093.056</ele>
        <time>2017-04-30T16:13:31Z</time>
      </trkpt>
      <trkpt lat="46.461091" lon="22.734255">
        <ele>1098.059</ele>
        <time>2017-04-30T16:13:40Z</time>
      </trkpt>
      <trkpt lat="46.461152" lon="22.734364">
        <ele>1089.014</ele>
        <time>2017-04-30T16:13:44Z</time>
      </trkpt>
      <trkpt lat="46.461205" lon="22.734498">
        <ele>1083.008</ele>
        <time>2017-04-30T16:13:51Z</time>
      </trkpt>
      <trkpt lat="46.461215" lon="22.734633">
        <ele>1085.036</ele>
        <time>2017-04-30T16:13:59Z</time>
      </trkpt>
      <trkpt lat="46.461267" lon="22.734741">
        <ele>1093.082</ele>
        <time>2017-04-30T16:14:08Z</time>
      </trkpt>
      <trkpt lat="46.461344" lon="22.734830">
        <ele>1084.061</ele>
        <time>2017-04-30T16:14:14Z</time>
      </trkpt>
      <trkpt lat="46.461436" lon="22.734810">
        <ele>1080.069</ele>
        <time>2017-04-30T16:14:23Z</time>
      </trkpt>
      <trkpt lat="46.461523" lon="22.734758">
        <ele>1070.090</ele>
        <time>2017-04-30T16:14:32Z</time>
      </trkpt>
      <trkpt lat="46.461596" lon="22.734669">
        <ele>1067.047</ele>
        <time>2017-04-30T16:14:41Z</time>
      </trkpt>
      <trkpt lat="46.461658" lon="22.734562">
        <ele>1061.022</ele>
        <time>2017-04-30T16:14:50Z</time>
      </trkpt>
      <trkpt lat="46.461701" lon="22.734443">
        <ele>1058.075</ele>
        <time>2017-04-30T16:15:02Z</time>
      </trkpt>
    </trkseg>
  </trk></gpx>